{"error_code":0,"error_msg":"success","request_id":3731890447,"authorization":"bGp3eGFwcDo4MzBmOTI3MjY0ODcxY2I5MjNlMTk2MTdiOTViYjYzOA==","data":{"hot_list":[],"city_list":{"110000":{"id":"110000","name":"\u5317\u4eac","host":"bj.ke.com","short":"bj","province":"\u5317\u4eac","pinyin":"beijing"},"310000":{"id":"310000","name":"\u4e0a\u6d77","host":"sh.ke.com","short":"sh","province":"\u4e0a\u6d77","pinyin":"shanghai"},"440100":{"id":"440100","name":"\u5e7f\u5dde","host":"gz.ke.com","short":"gz","province":"\u5e7f\u4e1c","pinyin":"guangzhou"},"440300":{"id":"440300","name":"\u6df1\u5733","host":"sz.ke.com","short":"sz","province":"\u5e7f\u4e1c","pinyin":"shenzhen"},"120000":{"id":"120000","name":"\u5929\u6d25","host":"tj.ke.com","short":"tj","province":"\u5929\u6d25","pinyin":"tianjin"},"510100":{"id":"510100","name":"\u6210\u90fd","host":"cd.ke.com","short":"cd","province":"\u56db\u5ddd","pinyin":"chengdu"},"320100":{"id":"320100","name":"\u5357\u4eac","host":"nj.ke.com","short":"nj","province":"\u6c5f\u82cf","pinyin":"nanjing"},"330100":{"id":"330100","name":"\u676d\u5dde","host":"hz.ke.com","short":"hz","province":"\u6d59\u6c5f","pinyin":"hangzhou"},"370200":{"id":"370200","name":"\u9752\u5c9b","host":"qd.ke.com","short":"qd","province":"\u5c71\u4e1c","pinyin":"qingdao"},"210200":{"id":"210200","name":"\u5927\u8fde","host":"dl.ke.com","short":"dl","province":"\u8fbd\u5b81","pinyin":"dalian"},"320500":{"id":"320500","name":"\u82cf\u5dde","host":"su.ke.com","short":"su","province":"\u6c5f\u82cf","pinyin":"suzhou"},"350200":{"id":"350200","name":"\u53a6\u95e8","host":"xm.ke.com","short":"xm","province":"\u798f\u5efa","pinyin":"xiamen"},"420100":{"id":"420100","name":"\u6b66\u6c49","host":"wh.ke.com","short":"wh","province":"\u6e56\u5317","pinyin":"wuhan"},"500000":{"id":"500000","name":"\u91cd\u5e86","host":"cq.ke.com","short":"cq","province":"\u91cd\u5e86","pinyin":"chongqing"},"430100":{"id":"430100","name":"\u957f\u6c99","host":"cs.ke.com","short":"cs","province":"\u6e56\u5357","pinyin":"changsha"},"370101":{"id":"370101","name":"\u6d4e\u5357","host":"jn.ke.com","short":"jn","province":"\u5c71\u4e1c","pinyin":"jinan"},"440600":{"id":"440600","name":"\u4f5b\u5c71","host":"fs.ke.com","short":"fs","province":"\u5e7f\u4e1c","pinyin":"foshan"},"441900":{"id":"441900","name":"\u4e1c\u839e","host":"dg.ke.com","short":"dg","province":"\u5e7f\u4e1c","pinyin":"dongguan"},"666666":{"id":"666666","name":"\u6d4b\u8bd5\u57ce\u5e02","host":"vi.ke.com","short":"vi","province":"\u65e0","pinyin":"ceshichengshi"},"610100":{"id":"610100","name":"\u897f\u5b89","host":"xa.ke.com","short":"xa","province":"\u9655\u897f","pinyin":"xian"},"130100":{"id":"130100","name":"\u77f3\u5bb6\u5e84","host":"sjz.ke.com","short":"sjz","province":"\u6cb3\u5317","pinyin":"shijiazhuang"},"370600":{"id":"370600","name":"\u70df\u53f0","host":"yt.ke.com","short":"yt","province":"\u5c71\u4e1c","pinyin":"yantai"},"442000":{"id":"442000","name":"\u4e2d\u5c71","host":"zs.ke.com","short":"zs","province":"\u5e7f\u4e1c","pinyin":"zhongshan"},"440400":{"id":"440400","name":"\u73e0\u6d77","host":"zh.ke.com","short":"zh","province":"\u5e7f\u4e1c","pinyin":"zhuhai"},"441300":{"id":"441300","name":"\u60e0\u5dde","host":"hui.ke.com","short":"hui","province":"\u5e7f\u4e1c","pinyin":"huizhou"},"140100":{"id":"140100","name":"\u592a\u539f","host":"ty.ke.com","short":"ty","province":"\u5c71\u897f","pinyin":"taiyuan"},"210100":{"id":"210100","name":"\u6c88\u9633","host":"sy.ke.com","short":"sy","province":"\u8fbd\u5b81","pinyin":"shenyang"},"460100":{"id":"460100","name":"\u6d77\u53e3","host":"hk.ke.com","short":"hk","province":"\u6d77\u5357","pinyin":"haikou"},"320200":{"id":"320200","name":"\u65e0\u9521","host":"wx.ke.com","short":"wx","province":"\u6c5f\u82cf","pinyin":"wuxi"},"320300":{"id":"320300","name":"\u5f90\u5dde","host":"xz.ke.com","short":"xz","province":"\u6c5f\u82cf"},"460200":{"id":"460200","name":"\u4e09\u4e9a","host":"san.ke.com","short":"san","province":"\u6d77\u5357","pinyin":"sanya"},"469005":{"id":"469005","name":"\u6587\u660c","host":"wc.ke.com","short":"wc","province":"\u6d77\u5357","pinyin":"wenchang","nh_only":1},"469002":{"id":"469002","name":"\u743c\u6d77","host":"qh.ke.com","short":"qh","province":"\u6d77\u5357","pinyin":"qionghai","nh_only":1},"469028":{"id":"469028","name":"\u9675\u6c34","host":"ls.ke.com","short":"ls","province":"\u6d77\u5357","pinyin":"lingshui","nh_only":1},"469006":{"id":"469006","name":"\u4e07\u5b81","host":"wn.ke.com","short":"wn","province":"\u6d77\u5357","pinyin":"wanning","nh_only":1},"131000":{"id":"131000","name":"\u5eca\u574a","host":"lf.ke.com","short":"lf","province":"\u6cb3\u5317","pinyin":"langfang"},"340100":{"id":"340100","name":"\u5408\u80a5","host":"hf.ke.com","short":"hf","province":"\u5b89\u5fbd","pinyin":"hefei"},"530100":{"id":"530100","name":"\u6606\u660e","host":"km.ke.com","short":"km","province":"\u4e91\u5357","pinyin":"kunming"},"532800":{"id":"532800","name":"\u897f\u53cc\u7248\u7eb3","host":"xsbn.ke.com","short":"xsbn","province":"\u4e91\u5357","pinyin":"xishuangbanna","nh_only":1},"410100":{"id":"410100","name":"\u90d1\u5dde","host":"zz.ke.com","short":"zz","province":"\u6cb3\u5357","pinyin":"zhengzhou"},"469023":{"id":"469023","name":"\u6f84\u8fc8","host":"cm.ke.com","short":"cm","province":"\u6d77\u5357","pinyin":"chengmai","nh_only":1},"469024":{"id":"469024","name":"\u4e34\u9ad8","host":"lg.ke.com","short":"lg","province":"\u6d77\u5357","pinyin":"lingao","nh_only":1},"469027":{"id":"469027","name":"\u4e50\u4e1c","host":"ld.ke.com","short":"ld","province":"\u6d77\u5357","pinyin":"ledong","nh_only":1},"469003":{"id":"469003","name":"\u510b\u5dde","host":"dz.ke.com","short":"dz","province":"\u6d77\u5357","pinyin":"danzhou","nh_only":1},"469030":{"id":"469030","name":"\u743c\u4e2d","host":"qz.ke.com","short":"qz","province":"\u6d77\u5357","pinyin":"qiongzhong","nh_only":1},"469001":{"id":"469001","name":"\u4e94\u6307\u5c71","host":"wzs.ke.com","short":"wzs","province":"\u6d77\u5357","pinyin":"wuzhishan","nh_only":1},"469029":{"id":"469029","name":"\u4fdd\u4ead","host":"bt.ke.com","short":"bt","province":"\u6d77\u5357","pinyin":"baoting","nh_only":1},"469021":{"id":"469021","name":"\u5b9a\u5b89","host":"da.ke.com","short":"da","province":"\u6d77\u5357","pinyin":"dingan","nh_only":1},"532900":{"id":"532900","name":"\u5927\u7406","host":"you.ke.com\/dl1","short":"dl1","province":"\u4e91\u5357","pinyin":"dali","nh_only":1},"340200":{"id":"340200","name":"\u829c\u6e56","host":"wuhu.ke.com","short":"wuhu","province":"\u5b89\u5fbd\u7701","pinyin":"wuhu"},"220100":{"id":"220100","name":"\u957f\u6625","host":"cc.ke.com","short":"cc","province":"\u5409\u6797\u7701","pinyin":"changchun"},"620100":{"id":"620100","name":"\u5170\u5dde","host":"lz.ke.com","short":"lz","province":"\u7518\u8083","pinyin":"lanzhou"},"230100":{"id":"230100","name":"\u54c8\u5c14\u6ee8","host":"hrb.ke.com","short":"hrb","province":"\u9ed1\u9f99\u6c5f","pinyin":"haerbin"},"370700":{"id":"370700","name":"\u6f4d\u574a","host":"wf.ke.com","short":"wf","province":"\u5c71\u4e1c","pinyin":"weifang"},"320900":{"id":"320900","name":"\u76d0\u57ce","host":"yc.ke.com","short":"yc","province":"\u6c5f\u82cf","pinyin":"yancheng"},"371300":{"id":"371300","name":"\u4e34\u6c82","host":"linyi.ke.com","short":"linyi","province":"\u5c71\u4e1c","pinyin":"linyi"},"370800":{"id":"370800","name":"\u6d4e\u5b81","host":"jining.ke.com","short":"jining","province":"\u5c71\u4e1c","pinyin":"jining","nh_only":1},"320800":{"id":"320800","name":"\u6dee\u5b89","host":"ha.ke.com","short":"ha","province":"\u6c5f\u82cf","pinyin":"huaian"},"321000":{"id":"321000","name":"\u626c\u5dde","host":"yz.ke.com","short":"yz","province":"\u6c5f\u82cf","pinyin":"yangzhou","nh_only":1},"321200":{"id":"321200","name":"\u6cf0\u5dde","host":"tz.ke.com","short":"tz","province":"\u6cf0\u5dde","pinyin":"taizhou","nh_only":1},"350500":{"id":"350500","name":"\u6cc9\u5dde","host":"quanzhou.ke.com","short":"quanzhou","province":"\u798f\u5efa","pinyin":"quanzhou"},"330300":{"id":"330300","name":"\u6e29\u5dde","host":"wz.ke.com","short":"wz","province":"\u6d59\u6c5f","pinyin":"wenzhou"},"130200":{"id":"130200","name":"\u5510\u5c71","host":"ts.ke.com","short":"ts","province":"\u6cb3\u5317","pinyin":"tangshan"},"130600":{"id":"130600","name":"\u4fdd\u5b9a","host":"baoding.ke.com","short":"baoding","province":"\u6cb3\u5317","pinyin":"baoding"},"520100":{"id":"520100","name":"\u8d35\u9633","host":"gy.ke.com","short":"gy","province":"\u8d35\u5dde","pinyin":"guiyang"},"130400":{"id":"130400","name":"\u90af\u90f8","host":"hd.ke.com","short":"hd","province":"\u6cb3\u5317","pinyin":"handan","nh_only":1},"150100":{"id":"150100","name":"\u547c\u548c\u6d69\u7279","host":"hhht.ke.com","short":"hhht","province":"\u5185\u8499\u53e4","pinyin":"huhehaote"},"130900":{"id":"130900","name":"\u6ca7\u5dde","host":"cangzhou.ke.com","short":"cangzhou","province":"\u6cb3\u5317","pinyin":"cangzhou","nh_only":1},"650100":{"id":"650100","name":"\u4e4c\u9c81\u6728\u9f50","host":"wlmq.ke.com","short":"wlmq","province":"\u65b0\u7586","pinyin":"wulumuqi","nh_only":1},"330400":{"id":"330400","name":"\u5609\u5174","host":"jx.ke.com","short":"jx","province":"\u6d59\u6c5f","pinyin":"jiaxing"},"150200":{"id":"150200","name":"\u5305\u5934","host":"baotou.ke.com","short":"baotou","province":"\u5185\u8499\u53e4","pinyin":"baotou","nh_only":1},"330700":{"id":"330700","name":"\u91d1\u534e","host":"jh.ke.com","short":"jh","province":"\u6d59\u6c5f","pinyin":"jinhua"},"331000":{"id":"331000","name":"\u53f0\u5dde","host":"taizhou.ke.com","short":"taizhou","province":"\u6d59\u6c5f","pinyin":"taizhou"},"410300":{"id":"410300","name":"\u6d1b\u9633","host":"luoyang.ke.com","short":"luoyang","province":"\u6cb3\u5357","pinyin":"luoyang"},"150600":{"id":"150600","name":"\u9102\u5c14\u591a\u65af","host":"eeds.ke.com","short":"eeds","province":"\u5185\u8499\u53e4","pinyin":"ererduosi","nh_only":1},"420600":{"id":"420600","name":"\u8944\u9633","host":"xy.ke.com","short":"xy","province":"\u6e56\u5317","pinyin":"xiangyang"},"420500":{"id":"420500","name":"\u5b9c\u660c","host":"yichang.ke.com","short":"yichang","province":"\u6e56\u5317","pinyin":"yichang"},"350100":{"id":"350100","name":"\u798f\u5dde","host":"fz.ke.com","short":"fz","province":"\u798f\u5efa","pinyin":"fuzhou"},"360100":{"id":"360100","name":"\u5357\u660c","host":"nc.ke.com","short":"nc","province":"\u6c5f\u897f","pinyin":"nanchang"},"320600":{"id":"320600","name":"\u5357\u901a","host":"nt.ke.com","short":"nt","province":"\u6c5f\u82cf","pinyin":"nantong"},"320400":{"id":"320400","name":"\u5e38\u5dde","host":"changzhou.ke.com","short":"changzhou","province":"\u6cb3\u5317","pinyin":"cangzhou"},"330200":{"id":"330200","name":"\u5b81\u6ce2","host":"nb.ke.com","short":"nb","province":"\u6d59\u6c5f","pinyin":"ningbo"},"450100":{"id":"450100","name":"\u5357\u5b81","host":"nn.ke.com","short":"nn","province":"\u5e7f\u897f","pinyin":"nanning"},"371000":{"id":"371000","name":"\u5a01\u6d77","host":"weihai.ke.com","short":"weihai","province":"\u5c71\u4e1c","pinyin":"weihai"},"210800":{"id":"210800","name":"\u8425\u53e3","host":"yk.ke.com","short":"yk","province":"\u8fbd\u5b81","pinyin":"yingkou","nh_only":1},"430400":{"id":"430400","name":"\u8861\u9633","host":"hy.ke.com","short":"hy","province":"\u6e56\u5357","pinyin":"hengyang","nh_only":1},"510600":{"id":"510600","name":"\u5fb7\u9633","host":"dy.ke.com","short":"dy","province":"\u56db\u5ddd","pinyin":"dengyang","nh_only":1},"330500":{"id":"330500","name":"\u6e56\u5dde","host":"huzhou.ke.com","short":"huzhou","province":"\u6d59\u6c5f","pinyin":"huzhou"},"131100":{"id":"131100","name":"\u8861\u6c34","host":"hs.ke.com","short":"hs","province":"\u6cb3\u5317","pinyin":"hengshui","nh_only":1},"321100":{"id":"321100","name":"\u9547\u6c5f","host":"zj.ke.com","short":"zj","province":"\u6c5f\u82cf","pinyin":"zhenjiang"},"511400":{"id":"511400","name":"\u7709\u5c71","host":"ms.ke.com","short":"ms","province":"\u56db\u5ddd","pinyin":"meishan"},"130500":{"id":"130500","name":"\u90a2\u53f0","host":"xt.ke.com","short":"xt","province":"\u6cb3\u5317","pinyin":"xingtai","nh_only":1},"210300":{"id":"210300","name":"\u978d\u5c71","host":"as.ke.com","short":"as","province":"\u8fbd\u5b81","pinyin":"anshan","nh_only":1},"420800":{"id":"420800","name":"\u8346\u95e8","host":"jm.ke.com","short":"jm","province":"\u6e56\u5317","pinyin":"jingmen","nh_only":1},"630100":{"id":"630100","name":"\u897f\u5b81","host":"xining.ke.com","short":"xining","province":"\u9752\u6d77","pinyin":"xining","nh_only":1},"320700":{"id":"320700","name":"\u8fde\u4e91\u6e2f","host":"lyg.ke.com","short":"lyg","province":"\u6c5f\u82cf","pinyin":"lianyungang","nh_only":1},"371500":{"id":"371500","name":"\u804a\u57ce","host":"lc.ke.com","short":"lc","province":"\u5c71\u4e1c","pinyin":"liaocheng","nh_only":1},"420900":{"id":"420900","name":"\u5b5d\u611f","host":"xg.ke.com","short":"xg","province":"\u6e56\u5317","pinyin":"xiaogan","nh_only":1},"640100":{"id":"640100","name":"\u94f6\u5ddd","host":"yinchuan.ke.com","short":"yinchuan","province":"\u5b81\u590f","pinyin":"yinchuan"},"511700":{"id":"511700","name":"\u8fbe\u5dde","host":"dazhou.ke.com","short":"dazhou","province":"\u56db\u5ddd","pinyin":"dazhou"},"410800":{"id":"410800","name":"\u7126\u4f5c","host":"jiaozuo.ke.com","short":"jiaozuo","province":"\u6cb3\u5357","pinyin":"jiaozuo","nh_only":1},"341200":{"id":"341200","name":"\u961c\u9633","host":"fy.ke.com","short":"fy","province":"\u5b89\u5fbd","pinyin":"fuyang","nh_only":1},"511300":{"id":"511300","name":"\u5357\u5145","host":"nanchong.ke.com","short":"nanchong","province":"\u56db\u5ddd","pinyin":"nanchong"},"370300":{"id":"370300","name":"\u6dc4\u535a","host":"zb.ke.com","short":"zb","province":"\u5c71\u4e1c","pinyin":"zibo"},"411300":{"id":"411300","name":"\u5357\u9633","host":"ny.ke.com","short":"ny","province":"\u6cb3\u5357","pinyin":"nanyang","nh_only":1},"430200":{"id":"430200","name":"\u682a\u6d32","host":"zhuzhou.ke.com","short":"zhuzhou","province":"\u6e56\u5357","pinyin":"zhuzhou"},"510700":{"id":"510700","name":"\u7ef5\u9633","host":"mianyang.ke.com","short":"mianyang","province":"\u56db\u5ddd","pinyin":"mianyang"},"370900":{"id":"370900","name":"\u6cf0\u5b89","host":"ta.ke.com","short":"ta","province":"\u5c71\u4e1c","pinyin":"taian","nh_only":1},"140200":{"id":"140200","name":"\u5927\u540c","host":"dt.ke.com","short":"dt","province":"\u5c71\u897f","pinyin":"datong","nh_only":1},"430700":{"id":"430700","name":"\u5e38\u5fb7","host":"changde.ke.com","short":"changde","province":"\u6e56\u5357","pinyin":"changde"},"440500":{"id":"440500","name":"\u6c55\u5934","host":"st.ke.com","short":"st","province":"\u5e7f\u4e1c","pinyin":"shantou","nh_only":1},"360800":{"id":"360800","name":"\u5409\u5b89","host":"jian.ke.com","short":"jian","province":"\u6c5f\u897f","pinyin":"jian"},"330600":{"id":"330600","name":"\u7ecd\u5174","host":"sx.ke.com","short":"sx","province":"\u6d59\u6c5f","pinyin":"shaoxing"},"370400":{"id":"370400","name":"\u67a3\u5e84","host":"zaozhuang.ke.com","short":"zaozhuang","province":"\u5c71\u4e1c","pinyin":"zaozhuang","nh_only":1},"610300":{"id":"610300","name":"\u5b9d\u9e21","host":"baoji.ke.com","short":"baoji","province":"\u9655\u897f","pinyin":"baoji"},"410700":{"id":"410700","name":"\u65b0\u4e61","host":"xinxiang.ke.com","short":"xinxiang","province":"\u6cb3\u5357","pinyin":"xinxiang"},"371700":{"id":"371700","name":"\u83cf\u6cfd","host":"heze.ke.com","short":"heze","province":"\u5c71\u4e1c","pinyin":"heze","nh_only":1},"130133":{"id":"130133","host":"zhaoxian.ke.com","name":"\u8d75\u53bf","short":"zhaoxian","province":"\u5f85\u5b9a","pinyin":"zhaoxian","nh_only":1},"130184":{"id":"130184","host":"xl.ke.com","name":"\u65b0\u4e50","short":"xl","province":"\u5f85\u5b9a","pinyin":"xinle","nh_only":1},"440783":{"id":"440783","host":"kp.ke.com","name":"\u5f00\u5e73","short":"kp","province":"\u5e7f\u4e1c","pinyin":"kaiping","nh_only":1},"130281":{"id":"130281","host":"zhunhua.ke.com","name":"\u9075\u5316","short":"zhunhua","province":"\u5f85\u5b9a","pinyin":"zunhua","nh_only":1},"130283":{"id":"130283","host":"qa.ke.com","name":"\u8fc1\u5b89","short":"qa","province":"\u5f85\u5b9a","pinyin":"qianan","nh_only":1},"130481":{"id":"130481","host":"wa.ke.com","name":"\u6b66\u5b89","short":"wa","province":"\u5f85\u5b9a","pinyin":"wuan","nh_only":1},"130682":{"id":"130682","host":"dingzhou.ke.com","name":"\u5b9a\u5dde","short":"dingzhou","province":"\u5f85\u5b9a","pinyin":"dingzhou","nh_only":1},"130982":{"id":"130982","host":"rq.ke.com","name":"\u4efb\u4e18","short":"rq","province":"\u5f85\u5b9a","pinyin":"renqiu","nh_only":1},"131081":{"id":"131081","host":"bazhou.ke.com","name":"\u9738\u5dde","short":"bazhou","province":"\u5f85\u5b9a","pinyin":"bazhou","nh_only":1},"131082":{"id":"131082","host":"sanhe.ke.com","name":"\u4e09\u6cb3","short":"sanhe","province":"\u5f85\u5b9a","pinyin":"sanhe","nh_only":1},"140121":{"id":"140121","host":"qx.ke.com","name":"\u6e05\u5f90","short":"qx","province":"\u5f85\u5b9a","pinyin":"qingxu","nh_only":1},"140181":{"id":"140181","host":"gujiao.ke.com","name":"\u53e4\u4ea4","short":"gujiao","province":"\u5f85\u5b9a","pinyin":"gujiao","nh_only":1},"140300":{"id":"140300","host":"yq.ke.com","name":"\u9633\u6cc9","short":"yq","province":"\u5c71\u897f","pinyin":"yangquan","nh_only":1},"140400":{"id":"140400","host":"changzhi.ke.com","name":"\u957f\u6cbb","short":"changzhi","province":"\u5c71\u897f","pinyin":"changzhi","nh_only":1},"140500":{"id":"140500","host":"jc.ke.com","name":"\u664b\u57ce","short":"jc","province":"\u5c71\u897f","pinyin":"jincheng","nh_only":1},"140800":{"id":"140800","host":"yuncheng.ke.com","name":"\u8fd0\u57ce","short":"yuncheng","province":"\u5c71\u897f","pinyin":"yuncheng","nh_only":1},"140821":{"id":"140821","host":"lin.ke.com","name":"\u4e34\u7317","short":"lin","province":"\u5f85\u5b9a","pinyin":"linyi","nh_only":1},"140900":{"id":"140900","host":"xinzhou.ke.com","name":"\u5ffb\u5dde","short":"xinzhou","province":"\u5c71\u897f","pinyin":"xinzhou","nh_only":1},"141000":{"id":"141000","host":"linfen.ke.com","name":"\u4e34\u6c7e","short":"linfen","province":"\u5c71\u897f","pinyin":"linfen","nh_only":1},"141100":{"id":"141100","host":"lvliang.ke.com","name":"\u5415\u6881","short":"lvliang","province":"\u5c71\u897f","pinyin":"lvliang","nh_only":1},"150300":{"id":"150300","host":"wuhai.ke.com","name":"\u4e4c\u6d77","short":"wuhai","province":"\u5185\u8499\u53e4\u81ea\u6cbb\u533a","pinyin":"wuhai","nh_only":1},"150400":{"id":"150400","host":"cf.ke.com","name":"\u8d64\u5cf0","short":"cf","province":"\u5185\u8499\u53e4\u81ea\u6cbb\u533a","pinyin":"chifeng","nh_only":1},"150500":{"id":"150500","host":"tongliao.ke.com","name":"\u901a\u8fbd","short":"tongliao","province":"\u5185\u8499\u53e4\u81ea\u6cbb\u533a","pinyin":"tongliao","nh_only":1},"150700":{"id":"150700","host":"hlbr.ke.com","name":"\u547c\u4f26\u8d1d\u5c14","short":"hlbr","province":"\u5185\u8499\u53e4\u81ea\u6cbb\u533a","pinyin":"hulunbeier","nh_only":1},"150900":{"id":"150900","host":"wlcb.ke.com","name":"\u4e4c\u5170\u5bdf\u5e03","short":"wlcb","province":"\u5185\u8499\u53e4\u81ea\u6cbb\u533a","pinyin":"wulanchabu","nh_only":1},"152502":{"id":"152502","host":"xlht.ke.com","name":"\u9521\u6797\u6d69\u7279","short":"xlht","province":"\u5f85\u5b9a","pinyin":"xilinhaote","nh_only":1},"152900":{"id":"152900","host":"alsm.ke.com","name":"\u963f\u62c9\u5584\u76df","short":"alsm","province":"\u5185\u8499\u53e4\u81ea\u6cbb\u533a","pinyin":"alashanmeng","nh_only":1},"210181":{"id":"210181","host":"xinmin.ke.com","name":"\u65b0\u6c11","short":"xinmin","province":"\u5f85\u5b9a","pinyin":"xinmin","nh_only":1},"210214":{"id":"210214","host":"pld.ke.com","name":"\u666e\u5170\u5e97","short":"pld","province":"\u5f85\u5b9a","pinyin":"pulandian","nh_only":1},"210281":{"id":"210281","host":"wfd.ke.com","name":"\u74e6\u623f\u5e97","short":"wfd","province":"\u5f85\u5b9a","pinyin":"wafangdian","nh_only":1},"210283":{"id":"210283","host":"zhuanghe.ke.com","name":"\u5e84\u6cb3","short":"zhuanghe","province":"\u5f85\u5b9a","pinyin":"zhuanghe","nh_only":1},"210381":{"id":"210381","host":"haicheng.ke.com","name":"\u6d77\u57ce","short":"haicheng","province":"\u5f85\u5b9a","pinyin":"haicheng","nh_only":1},"210400":{"id":"210400","host":"fushun.ke.com","name":"\u629a\u987a","short":"fushun","province":"\u8fbd\u5b81","pinyin":"fushun","nh_only":1},"210500":{"id":"210500","host":"bx.ke.com","name":"\u672c\u6eaa","short":"bx","province":"\u8fbd\u5b81","pinyin":"benxi","nh_only":1},"210600":{"id":"210600","host":"dd.ke.com","name":"\u4e39\u4e1c","short":"dd","province":"\u8fbd\u5b81","pinyin":"dandong"},"210700":{"id":"210700","host":"jinzhou.ke.com","name":"\u9526\u5dde","short":"jinzhou","province":"\u8fbd\u5b81","pinyin":"jinzhou","nh_only":1},"210881":{"id":"210881","host":"gaizhou.ke.com","name":"\u76d6\u5dde","short":"gaizhou","province":"\u5f85\u5b9a","pinyin":"gaizhou","nh_only":1},"210882":{"id":"210882","host":"dsq.ke.com","name":"\u5927\u77f3\u6865","short":"dsq","province":"\u5f85\u5b9a","pinyin":"dashiqiao","nh_only":1},"211000":{"id":"211000","host":"liaoyang.ke.com","name":"\u8fbd\u9633","short":"liaoyang","province":"\u8fbd\u5b81","pinyin":"liaoyang","nh_only":1},"211100":{"id":"211100","host":"pj.ke.com","name":"\u76d8\u9526","short":"pj","province":"\u8fbd\u5b81","pinyin":"panjin","nh_only":1},"211200":{"id":"211200","host":"tieling.ke.com","name":"\u94c1\u5cad","short":"tieling","province":"\u8fbd\u5b81","pinyin":"tieling","nh_only":1},"211282":{"id":"211282","host":"kaiyuan.ke.com","name":"\u5f00\u539f","short":"kaiyuan","province":"\u5f85\u5b9a","pinyin":"kaiyuan","nh_only":1},"211300":{"id":"211300","host":"chaoyang.ke.com","name":"\u671d\u9633","short":"chaoyang","province":"\u8fbd\u5b81","pinyin":"zhaoyang","nh_only":1},"211400":{"id":"211400","host":"hld.ke.com","name":"\u846b\u82a6\u5c9b","short":"hld","province":"\u8fbd\u5b81","pinyin":"huludao","nh_only":1},"220182":{"id":"220182","host":"yushu.ke.com","name":"\u6986\u6811","short":"yushu","province":"\u5f85\u5b9a","pinyin":"yushu","nh_only":1},"220183":{"id":"220183","host":"dehui.ke.com","name":"\u5fb7\u60e0","short":"dehui","province":"\u5f85\u5b9a","pinyin":"dehui","nh_only":1},"220200":{"id":"220200","host":"jl.ke.com","name":"\u5409\u6797","short":"jl","province":"\u5409\u6797","pinyin":"jilin"},"220202":{"id":"220202","host":"cy.ke.com","name":"\u660c\u9091","short":"cy","province":"\u5f85\u5b9a","pinyin":"changyi","nh_only":1},"220282":{"id":"220282","host":"huadian.ke.com","name":"\u6866\u7538","short":"huadian","province":"\u5f85\u5b9a","pinyin":"huadian","nh_only":1},"220300":{"id":"220300","host":"sp.ke.com","name":"\u56db\u5e73","short":"sp","province":"\u5409\u6797","pinyin":"siping","nh_only":1},"220381":{"id":"220381","host":"gzl.ke.com","name":"\u516c\u4e3b\u5cad","short":"gzl","province":"\u5f85\u5b9a","pinyin":"gongzhuling","nh_only":1},"220400":{"id":"220400","host":"liaoyuan.ke.com","name":"\u8fbd\u6e90","short":"liaoyuan","province":"\u5409\u6797","pinyin":"liaoyuan","nh_only":1},"220500":{"id":"220500","host":"tonghua.ke.com","name":"\u901a\u5316","short":"tonghua","province":"\u5409\u6797","pinyin":"tonghua","nh_only":1},"220600":{"id":"220600","host":"bs.ke.com","name":"\u767d\u5c71","short":"bs","province":"\u5409\u6797","pinyin":"baishan","nh_only":1},"220700":{"id":"220700","host":"songyuan.ke.com","name":"\u677e\u539f","short":"songyuan","province":"\u5409\u6797","pinyin":"songyuan","nh_only":1},"220800":{"id":"220800","host":"bc.ke.com","name":"\u767d\u57ce","short":"bc","province":"\u5409\u6797","pinyin":"baicheng","nh_only":1},"222400":{"id":"222400","host":"yb.ke.com","name":"\u5ef6\u8fb9","short":"yb","province":"\u5409\u6797","pinyin":"yanbian","nh_only":1},"230183":{"id":"230183","host":"shangzhi.ke.com","name":"\u5c1a\u5fd7","short":"shangzhi","province":"\u5f85\u5b9a","pinyin":"shangzhi","nh_only":1},"230184":{"id":"230184","host":"wuchang.ke.com","name":"\u4e94\u5e38","short":"wuchang","province":"\u5f85\u5b9a","pinyin":"wuchang","nh_only":1},"230200":{"id":"230200","host":"qqhr.ke.com","name":"\u9f50\u9f50\u54c8\u5c14","short":"qqhr","province":"\u9ed1\u9f99\u6c5f","pinyin":"qiqihaer","nh_only":1},"230225":{"id":"230225","host":"gn.ke.com","name":"\u7518\u5357","short":"gn","province":"\u5f85\u5b9a","pinyin":"gannan","nh_only":1},"230281":{"id":"230281","host":"nh.ke.com","name":"\u8bb7\u6cb3","short":"nh","province":"\u5f85\u5b9a","pinyin":"nehe","nh_only":1},"230300":{"id":"230300","host":"jixi.ke.com","name":"\u9e21\u897f","short":"jixi","province":"\u9ed1\u9f99\u6c5f","pinyin":"jixi","nh_only":1},"230400":{"id":"230400","host":"hegang.ke.com","name":"\u9e64\u5c97","short":"hegang","province":"\u9ed1\u9f99\u6c5f","pinyin":"hegang","nh_only":1},"230500":{"id":"230500","host":"sys.ke.com","name":"\u53cc\u9e2d\u5c71","short":"sys","province":"\u9ed1\u9f99\u6c5f","pinyin":"shuangyashan","nh_only":1},"230600":{"id":"230600","host":"dq.ke.com","name":"\u5927\u5e86","short":"dq","province":"\u9ed1\u9f99\u6c5f","pinyin":"daqing","nh_only":1},"230700":{"id":"230700","host":"yichun.ke.com","name":"\u4f0a\u6625","short":"yichun","province":"\u9ed1\u9f99\u6c5f","pinyin":"yichun","nh_only":1},"230800":{"id":"230800","host":"jms.ke.com","name":"\u4f73\u6728\u65af","short":"jms","province":"\u9ed1\u9f99\u6c5f","pinyin":"jiamusi","nh_only":1},"230900":{"id":"230900","host":"qth.ke.com","name":"\u4e03\u53f0\u6cb3","short":"qth","province":"\u9ed1\u9f99\u6c5f","pinyin":"qitaihe","nh_only":1},"231000":{"id":"231000","host":"mdj.ke.com","name":"\u7261\u4e39\u6c5f","short":"mdj","province":"\u9ed1\u9f99\u6c5f","pinyin":"mudanjiang","nh_only":1},"231083":{"id":"231083","host":"hl.ke.com","name":"\u6d77\u6797","short":"hl","province":"\u5f85\u5b9a","pinyin":"hailin","nh_only":1},"231100":{"id":"231100","host":"heihe.ke.com","name":"\u9ed1\u6cb3","short":"heihe","province":"\u9ed1\u9f99\u6c5f","pinyin":"heihe","nh_only":1},"231200":{"id":"231200","host":"suihua.ke.com","name":"\u7ee5\u5316","short":"suihua","province":"\u9ed1\u9f99\u6c5f","pinyin":"suihua","nh_only":1},"231281":{"id":"231281","host":"ad.ke.com","name":"\u5b89\u8fbe","short":"ad","province":"\u5f85\u5b9a","pinyin":"anda","nh_only":1},"231282":{"id":"231282","host":"zhaodong.ke.com","name":"\u8087\u4e1c","short":"zhaodong","province":"\u5f85\u5b9a","pinyin":"zhaodong","nh_only":1},"232700":{"id":"232700","host":"dxal.ke.com","name":"\u5927\u5174\u5b89\u5cad","short":"dxal","province":"\u9ed1\u9f99\u6c5f","pinyin":"daxinganling","nh_only":1},"320413":{"id":"320413","host":"jt.ke.com","name":"\u91d1\u575b","short":"jt","province":"\u5f85\u5b9a","pinyin":"jintan","nh_only":1},"320481":{"id":"320481","host":"liyang.ke.com","name":"\u6ea7\u9633","short":"liyang","province":"\u5f85\u5b9a","pinyin":"liyang","nh_only":1},"320581":{"id":"320581","host":"changshu.ke.com","name":"\u5e38\u719f","short":"changshu","province":"\u5f85\u5b9a","pinyin":"changshu","nh_only":1},"320582":{"id":"320582","host":"zjg.ke.com","name":"\u5f20\u5bb6\u6e2f","short":"zjg","province":"\u5f85\u5b9a","pinyin":"zhangjiagang","nh_only":1},"320583":{"id":"320583","host":"ks.ke.com","name":"\u6606\u5c71","short":"ks","province":"\u5f85\u5b9a","pinyin":"kunshan"},"320904":{"id":"320904","host":"df.ke.com","name":"\u5927\u4e30","short":"df","province":"\u5f85\u5b9a","pinyin":"dafeng","nh_only":1},"320981":{"id":"320981","host":"dongtai.ke.com","name":"\u4e1c\u53f0","short":"dongtai","province":"\u5f85\u5b9a","pinyin":"dongtai","nh_only":1},"321081":{"id":"321081","host":"yizheng.ke.com","name":"\u4eea\u5f81","short":"yizheng","province":"\u5f85\u5b9a","pinyin":"yizheng","nh_only":1},"321084":{"id":"321084","host":"gaoyou.ke.com","name":"\u9ad8\u90ae","short":"gaoyou","province":"\u5f85\u5b9a","pinyin":"gaoyou","nh_only":1},"321282":{"id":"321282","host":"jingjiang.ke.com","name":"\u9756\u6c5f","short":"jingjiang","province":"\u5f85\u5b9a","pinyin":"jingjiang","nh_only":1},"321283":{"id":"321283","host":"tx.ke.com","name":"\u6cf0\u5174","short":"tx","province":"\u5f85\u5b9a","pinyin":"taixing","nh_only":1},"321300":{"id":"321300","host":"sq.ke.com","name":"\u5bbf\u8fc1","short":"sq","province":"\u6c5f\u82cf","pinyin":"suqian","nh_only":1},"321322":{"id":"321322","host":"shuyang.ke.com","name":"\u6cad\u9633","short":"shuyang","province":"\u5f85\u5b9a","pinyin":"shuyang","nh_only":1},"330381":{"id":"330381","host":"ra.ke.com","name":"\u745e\u5b89","short":"ra","province":"\u5f85\u5b9a","pinyin":"ruian","nh_only":1},"330781":{"id":"330781","host":"lanxi.ke.com","name":"\u5170\u6eaa","short":"lanxi","province":"\u5f85\u5b9a","pinyin":"lanxi","nh_only":1},"330782":{"id":"330782","host":"yw.ke.com","name":"\u4e49\u4e4c","short":"yw","province":"\u5f85\u5b9a","pinyin":"yiwu","nh_only":1},"330783":{"id":"330783","host":"dongyang.ke.com","name":"\u4e1c\u9633","short":"dongyang","province":"\u5f85\u5b9a","pinyin":"dongyang","nh_only":1},"330784":{"id":"330784","host":"yongkang.ke.com","name":"\u6c38\u5eb7","short":"yongkang","province":"\u5f85\u5b9a","pinyin":"yongkang","nh_only":1},"330800":{"id":"330800","host":"quzhou.ke.com","name":"\u8862\u5dde","short":"quzhou","province":"\u6d59\u6c5f","pinyin":"quzhou","nh_only":1},"330900":{"id":"330900","host":"zhoushan.ke.com","name":"\u821f\u5c71","short":"zhoushan","province":"\u6d59\u6c5f","pinyin":"zhoushan","nh_only":1},"331081":{"id":"331081","host":"wl.ke.com","name":"\u6e29\u5cad","short":"wl","province":"\u5f85\u5b9a","pinyin":"wenling","nh_only":1},"331082":{"id":"331082","host":"lh.ke.com","name":"\u4e34\u6d77","short":"lh","province":"\u5f85\u5b9a","pinyin":"linhai","nh_only":1},"331100":{"id":"331100","host":"lishui.ke.com","name":"\u4e3d\u6c34","short":"lishui","province":"\u6d59\u6c5f","pinyin":"lishui","nh_only":1},"331181":{"id":"331181","host":"lq.ke.com","name":"\u9f99\u6cc9","short":"lq","province":"\u5f85\u5b9a","pinyin":"longquan","nh_only":1},"340300":{"id":"340300","host":"bf.ke.com","name":"\u868c\u57e0","short":"bf","province":"\u5b89\u5fbd","pinyin":"bengbu","nh_only":1},"340400":{"id":"340400","host":"huainan.ke.com","name":"\u6dee\u5357","short":"huainan","province":"\u5b89\u5fbd","pinyin":"huainan","nh_only":1},"340500":{"id":"340500","host":"mas.ke.com","name":"\u9a6c\u978d\u5c71","short":"mas","province":"\u5b89\u5fbd","pinyin":"maanshan"},"340600":{"id":"340600","host":"huaibei.ke.com","name":"\u6dee\u5317","short":"huaibei","province":"\u5b89\u5fbd","pinyin":"huaibei","nh_only":1},"340700":{"id":"340700","host":"tl.ke.com","name":"\u94dc\u9675","short":"tl","province":"\u5b89\u5fbd","pinyin":"tongling","nh_only":1},"340800":{"id":"340800","host":"aq.ke.com","name":"\u5b89\u5e86","short":"aq","province":"\u5b89\u5fbd","pinyin":"anqing"},"340881":{"id":"340881","host":"tc.ke.com","name":"\u6850\u57ce","short":"tc","province":"\u5f85\u5b9a","pinyin":"tongcheng","nh_only":1},"341000":{"id":"341000","host":"huangshan.ke.com","name":"\u9ec4\u5c71","short":"huangshan","province":"\u5b89\u5fbd","pinyin":"huangshan","nh_only":1},"341182":{"id":"341182","host":"mingguang.ke.com","name":"\u660e\u5149","short":"mingguang","province":"\u5f85\u5b9a","pinyin":"mingguang","nh_only":1},"341300":{"id":"341300","host":"suzhou.ke.com","name":"\u5bbf\u5dde","short":"suzhou","province":"\u5b89\u5fbd","pinyin":"suzhou","nh_only":1},"341500":{"id":"341500","host":"la.ke.com","name":"\u516d\u5b89","short":"la","province":"\u5b89\u5fbd","pinyin":"luan","nh_only":1},"341522":{"id":"341522","host":"hq.ke.com","name":"\u970d\u90b1","short":"hq","province":"\u5f85\u5b9a","pinyin":"huoqiu","nh_only":1},"341600":{"id":"341600","host":"bozhou.ke.com","name":"\u4eb3\u5dde","short":"bozhou","province":"\u5b89\u5fbd","pinyin":"bozhou","nh_only":1},"341700":{"id":"341700","host":"chizhou.ke.com","name":"\u6c60\u5dde","short":"chizhou","province":"\u5b89\u5fbd","pinyin":"chizhou","nh_only":1},"341800":{"id":"341800","host":"xuancheng.ke.com","name":"\u5ba3\u57ce","short":"xuancheng","province":"\u5b89\u5fbd","pinyin":"xuancheng","nh_only":1},"350300":{"id":"350300","host":"pt.ke.com","name":"\u8386\u7530","short":"pt","province":"\u798f\u5efa","pinyin":"putian","nh_only":1},"350400":{"id":"350400","host":"sm.ke.com","name":"\u4e09\u660e","short":"sm","province":"\u798f\u5efa","pinyin":"sanming","nh_only":1},"350481":{"id":"350481","host":"yongan.ke.com","name":"\u6c38\u5b89","short":"yongan","province":"\u5f85\u5b9a","pinyin":"yongan","nh_only":1},"350581":{"id":"350581","host":"shishi.ke.com","name":"\u77f3\u72ee","short":"shishi","province":"\u5f85\u5b9a","pinyin":"shishi","nh_only":1},"350583":{"id":"350583","host":"na.ke.com","name":"\u5357\u5b89","short":"na","province":"\u5f85\u5b9a","pinyin":"nanan","nh_only":1},"350681":{"id":"350681","host":"longhai.ke.com","name":"\u9f99\u6d77","short":"longhai","province":"\u5f85\u5b9a","pinyin":"longhai","nh_only":1},"350700":{"id":"350700","host":"np.ke.com","name":"\u5357\u5e73","short":"np","province":"\u798f\u5efa","pinyin":"nanping","nh_only":1},"350900":{"id":"350900","host":"nd.ke.com","name":"\u5b81\u5fb7","short":"nd","province":"\u798f\u5efa","pinyin":"ningde","nh_only":1},"360200":{"id":"360200","host":"jdz.ke.com","name":"\u666f\u5fb7\u9547","short":"jdz","province":"\u6c5f\u897f","pinyin":"jingdezhen","nh_only":1},"360281":{"id":"360281","host":"lp.ke.com","name":"\u4e50\u5e73","short":"lp","province":"\u5f85\u5b9a","pinyin":"leping","nh_only":1},"360300":{"id":"360300","host":"pingxiang.ke.com","name":"\u840d\u4e61","short":"pingxiang","province":"\u6c5f\u897f","pinyin":"pingxiang","nh_only":1},"360400":{"id":"360400","host":"jiujiang.ke.com","name":"\u4e5d\u6c5f","short":"jiujiang","province":"\u6c5f\u897f","pinyin":"jiujiang"},"360500":{"id":"360500","host":"xinyu.ke.com","name":"\u65b0\u4f59","short":"xinyu","province":"\u6c5f\u897f","pinyin":"xinyu","nh_only":1},"360600":{"id":"360600","host":"yingtan.ke.com","name":"\u9e70\u6f6d","short":"yingtan","province":"\u6c5f\u897f","pinyin":"yingtan","nh_only":1},"360700":{"id":"360700","host":"ganzhou.ke.com","name":"\u8d63\u5dde","short":"ganzhou","province":"\u6c5f\u897f","pinyin":"ganzhou"},"360703":{"id":"360703","host":"nk.ke.com","name":"\u5357\u5eb7","short":"nk","province":"\u5f85\u5b9a","pinyin":"nankang","nh_only":1},"360781":{"id":"360781","host":"rj.ke.com","name":"\u745e\u91d1","short":"rj","province":"\u5f85\u5b9a","pinyin":"ruijin","nh_only":1},"360900":{"id":"360900","host":"ych.ke.com","name":"\u5b9c\u6625","short":"ych","province":"\u6c5f\u897f","pinyin":"yichun","nh_only":1},"360981":{"id":"360981","host":"fengcheng.ke.com","name":"\u4e30\u57ce","short":"fengcheng","province":"\u5f85\u5b9a","pinyin":"fengcheng","nh_only":1},"361000":{"id":"361000","host":"fuzhou.ke.com","name":"\u629a\u5dde","short":"fuzhou","province":"\u6c5f\u897f","pinyin":"fuzhou","nh_only":1},"361100":{"id":"361100","host":"sr.ke.com","name":"\u4e0a\u9976","short":"sr","province":"\u6c5f\u897f","pinyin":"shangrao"},"361181":{"id":"361181","host":"dx.ke.com","name":"\u5fb7\u5174","short":"dx","province":"\u5f85\u5b9a","pinyin":"dexing","nh_only":1},"370181":{"id":"370181","host":"zhangqiu.ke.com","name":"\u7ae0\u4e18","short":"zhangqiu","province":"\u5f85\u5b9a","pinyin":"zhangqiu","nh_only":1},"370481":{"id":"370481","host":"tengzhou.ke.com","name":"\u6ed5\u5dde","short":"tengzhou","province":"\u5f85\u5b9a","pinyin":"tengzhou","nh_only":1},"370500":{"id":"370500","host":"dongying.ke.com","name":"\u4e1c\u8425","short":"dongying","province":"\u5c71\u4e1c","pinyin":"dongying","nh_only":1},"370682":{"id":"370682","host":"laiyang.ke.com","name":"\u83b1\u9633","short":"laiyang","province":"\u5f85\u5b9a","pinyin":"laiyang","nh_only":1},"370685":{"id":"370685","host":"zhaoyuan.ke.com","name":"\u62db\u8fdc","short":"zhaoyuan","province":"\u5f85\u5b9a","pinyin":"zhaoyuan","nh_only":1},"370781":{"id":"370781","host":"qingzhou.ke.com","name":"\u9752\u5dde","short":"qingzhou","province":"\u5f85\u5b9a","pinyin":"qingzhou","nh_only":1},"370782":{"id":"370782","host":"zhucheng.ke.com","name":"\u8bf8\u57ce","short":"zhucheng","province":"\u5f85\u5b9a","pinyin":"zhucheng","nh_only":1},"370783":{"id":"370783","host":"shouguang.ke.com","name":"\u5bff\u5149","short":"shouguang","province":"\u5f85\u5b9a","pinyin":"shouguang","nh_only":1},"370784":{"id":"370784","host":"anqiu.ke.com","name":"\u5b89\u4e18","short":"anqiu","province":"\u5f85\u5b9a","pinyin":"anqiu","nh_only":1},"370785":{"id":"370785","host":"gm.ke.com","name":"\u9ad8\u5bc6","short":"gm","province":"\u5f85\u5b9a","pinyin":"gaomi","nh_only":1},"370881":{"id":"370881","host":"qf.ke.com","name":"\u66f2\u961c","short":"qf","province":"\u5f85\u5b9a","pinyin":"qufu","nh_only":1},"370883":{"id":"370883","host":"zc.ke.com","name":"\u90b9\u57ce","short":"zc","province":"\u5f85\u5b9a","pinyin":"zoucheng","nh_only":1},"370982":{"id":"370982","host":"xintai.ke.com","name":"\u65b0\u6cf0","short":"xintai","province":"\u5f85\u5b9a","pinyin":"xintai","nh_only":1},"370983":{"id":"370983","host":"fc.ke.com","name":"\u80a5\u57ce","short":"fc","province":"\u5f85\u5b9a","pinyin":"feicheng","nh_only":1},"371100":{"id":"371100","host":"rz.ke.com","name":"\u65e5\u7167","short":"rz","province":"\u5c71\u4e1c","pinyin":"rizhao","nh_only":1},"371200":{"id":"371200","host":"lw.ke.com","name":"\u83b1\u829c","short":"lw","province":"\u5c71\u4e1c","pinyin":"laiwu","nh_only":1},"371400":{"id":"371400","host":"dezhou.ke.com","name":"\u5fb7\u5dde","short":"dezhou","province":"\u5c71\u4e1c","pinyin":"dezhou","nh_only":1},"371481":{"id":"371481","host":"ll.ke.com","name":"\u4e50\u9675","short":"ll","province":"\u5f85\u5b9a","pinyin":"leling","nh_only":1},"371482":{"id":"371482","host":"yucheng.ke.com","name":"\u79b9\u57ce","short":"yucheng","province":"\u5f85\u5b9a","pinyin":"yucheng","nh_only":1},"371581":{"id":"371581","host":"linqing.ke.com","name":"\u4e34\u6e05","short":"linqing","province":"\u5f85\u5b9a","pinyin":"linqing","nh_only":1},"371600":{"id":"371600","host":"binzhou.ke.com","name":"\u6ee8\u5dde","short":"binzhou","province":"\u5c71\u4e1c","pinyin":"binzhou","nh_only":1},"410200":{"id":"410200","host":"kf.ke.com","name":"\u5f00\u5c01","short":"kf","province":"\u6cb3\u5357","pinyin":"kaifeng"},"410400":{"id":"410400","host":"pds.ke.com","name":"\u5e73\u9876\u5c71","short":"pds","province":"\u6cb3\u5357","pinyin":"pingdingshan","nh_only":1},"410481":{"id":"410481","host":"wugang.ke.com","name":"\u821e\u94a2","short":"wugang","province":"\u5f85\u5b9a","pinyin":"wugang","nh_only":1},"410482":{"id":"410482","host":"ruzhou.ke.com","name":"\u6c5d\u5dde","short":"ruzhou","province":"\u5f85\u5b9a","pinyin":"ruzhou","nh_only":1},"410500":{"id":"410500","host":"ay.ke.com","name":"\u5b89\u9633","short":"ay","province":"\u6cb3\u5357","pinyin":"anyang","nh_only":1},"410581":{"id":"410581","host":"linzhou.ke.com","name":"\u6797\u5dde","short":"linzhou","province":"\u5f85\u5b9a","pinyin":"linzhou","nh_only":1},"410600":{"id":"410600","host":"hb.ke.com","name":"\u9e64\u58c1","short":"hb","province":"\u6cb3\u5357","pinyin":"hebi","nh_only":1},"410602":{"id":"410602","host":"hsh.ke.com","name":"\u9e64\u5c71","short":"hsh","province":"\u5f85\u5b9a","pinyin":"heshan","nh_only":1},"410882":{"id":"410882","host":"qinyang.ke.com","name":"\u6c81\u9633","short":"qinyang","province":"\u5f85\u5b9a","pinyin":"qinyang","nh_only":1},"410883":{"id":"410883","host":"mengzhou.ke.com","name":"\u5b5f\u5dde","short":"mengzhou","province":"\u5f85\u5b9a","pinyin":"mengzhou","nh_only":1},"410900":{"id":"410900","host":"py.ke.com","name":"\u6fee\u9633","short":"py","province":"\u6cb3\u5357","pinyin":"puyang","nh_only":1},"411000":{"id":"411000","host":"xc.ke.com","name":"\u8bb8\u660c","short":"xc","province":"\u6cb3\u5357","pinyin":"xuchang"},"411024":{"id":"411024","host":"yanling.ke.com","name":"\u9122\u9675","short":"yanling","province":"\u5f85\u5b9a","pinyin":"yanling","nh_only":1},"411081":{"id":"411081","host":"yuzhou.ke.com","name":"\u79b9\u5dde","short":"yuzhou","province":"\u5f85\u5b9a","pinyin":"yuzhou","nh_only":1},"411082":{"id":"411082","host":"cg.ke.com","name":"\u957f\u845b","short":"cg","province":"\u5f85\u5b9a","pinyin":"changge","nh_only":1},"411100":{"id":"411100","host":"luohe.ke.com","name":"\u6f2f\u6cb3","short":"luohe","province":"\u6cb3\u5357","pinyin":"tahe","nh_only":1},"411381":{"id":"411381","host":"dengzhou.ke.com","name":"\u9093\u5dde","short":"dengzhou","province":"\u5f85\u5b9a","pinyin":"dengzhou","nh_only":1},"411400":{"id":"411400","host":"shangqiu.ke.com","name":"\u5546\u4e18","short":"shangqiu","province":"\u6cb3\u5357","pinyin":"shangqiu","nh_only":1},"411500":{"id":"411500","host":"xinyang.ke.com","name":"\u4fe1\u9633","short":"xinyang","province":"\u6cb3\u5357","pinyin":"xinyang","nh_only":1},"411600":{"id":"411600","host":"zk.ke.com","name":"\u5468\u53e3","short":"zk","province":"\u6cb3\u5357","pinyin":"zhoukou","nh_only":1},"411700":{"id":"411700","host":"zmd.ke.com","name":"\u9a7b\u9a6c\u5e97","short":"zmd","province":"\u6cb3\u5357","pinyin":"zhumadian","nh_only":1},"419001":{"id":"419001","host":"jiyuan.ke.com","name":"\u6d4e\u6e90","short":"jiyuan","province":"\u5f85\u5b9a","pinyin":"jiyuan","nh_only":1},"420200":{"id":"420200","host":"huangshi.ke.com","name":"\u9ec4\u77f3","short":"huangshi","province":"\u6e56\u5317","pinyin":"huangshi"},"420300":{"id":"420300","host":"shiyan.ke.com","name":"\u5341\u5830","short":"shiyan","province":"\u6e56\u5317","pinyin":"shiyan","nh_only":1},"420581":{"id":"420581","host":"yd.ke.com","name":"\u5b9c\u90fd","short":"yd","province":"\u5f85\u5b9a","pinyin":"yidu","nh_only":1},"420582":{"id":"420582","host":"dangyang.ke.com","name":"\u5f53\u9633","short":"dangyang","province":"\u5f85\u5b9a","pinyin":"dangyang","nh_only":1},"420583":{"id":"420583","host":"zhijiang.ke.com","name":"\u679d\u6c5f","short":"zhijiang","province":"\u5f85\u5b9a","pinyin":"zhijiang","nh_only":1},"420700":{"id":"420700","host":"ez.ke.com","name":"\u9102\u5dde","short":"ez","province":"\u6e56\u5317","pinyin":"ezhou"},"420881":{"id":"420881","host":"zhongxiang.ke.com","name":"\u949f\u7965","short":"zhongxiang","province":"\u5f85\u5b9a","pinyin":"zhongxiang","nh_only":1},"420981":{"id":"420981","host":"yingcheng.ke.com","name":"\u5e94\u57ce","short":"yingcheng","province":"\u5f85\u5b9a","pinyin":"yingcheng","nh_only":1},"420982":{"id":"420982","host":"anlu.ke.com","name":"\u5b89\u9646","short":"anlu","province":"\u5f85\u5b9a","pinyin":"anlu","nh_only":1},"421000":{"id":"421000","host":"jingzhou.ke.com","name":"\u8346\u5dde","short":"jingzhou","province":"\u6e56\u5317","pinyin":"jingzhou","nh_only":1},"421081":{"id":"421081","host":"shishou.ke.com","name":"\u77f3\u9996","short":"shishou","province":"\u5f85\u5b9a","pinyin":"shishou","nh_only":1},"421083":{"id":"421083","host":"honghu.ke.com","name":"\u6d2a\u6e56","short":"honghu","province":"\u5f85\u5b9a","pinyin":"honghu","nh_only":1},"421087":{"id":"421087","host":"songzi.ke.com","name":"\u677e\u6ecb","short":"songzi","province":"\u5f85\u5b9a","pinyin":"songzi","nh_only":1},"421381":{"id":"421381","host":"gs.ke.com","name":"\u5e7f\u6c34","short":"gs","province":"\u5f85\u5b9a","pinyin":"guangshui","nh_only":1},"422801":{"id":"422801","host":"es.ke.com","name":"\u6069\u65bd","short":"es","province":"\u5f85\u5b9a","pinyin":"enshi","nh_only":1},"429004":{"id":"429004","host":"xiantao.ke.com","name":"\u4ed9\u6843","short":"xiantao","province":"\u5f85\u5b9a","pinyin":"xiantao","nh_only":1},"429005":{"id":"429005","host":"qianjiang.ke.com","name":"\u6f5c\u6c5f","short":"qianjiang","province":"\u5f85\u5b9a","pinyin":"qianjiang","nh_only":1},"429006":{"id":"429006","host":"tm.ke.com","name":"\u5929\u95e8","short":"tm","province":"\u5f85\u5b9a","pinyin":"tianmen","nh_only":1},"430281":{"id":"430281","host":"liling.ke.com","name":"\u91b4\u9675","short":"liling","province":"\u5f85\u5b9a","pinyin":"liling","nh_only":1},"430300":{"id":"430300","host":"xiangtan.ke.com","name":"\u6e58\u6f6d","short":"xiangtan","province":"\u6e56\u5357","pinyin":"xiangtan","nh_only":1},"430381":{"id":"430381","host":"xiangxiang.ke.com","name":"\u6e58\u4e61","short":"xiangxiang","province":"\u5f85\u5b9a","pinyin":"xiangxiang","nh_only":1},"430500":{"id":"430500","host":"shaoyang.ke.com","name":"\u90b5\u9633","short":"shaoyang","province":"\u6e56\u5357","pinyin":"shaoyang","nh_only":1},"430600":{"id":"430600","host":"yy.ke.com","name":"\u5cb3\u9633","short":"yy","province":"\u6e56\u5357","pinyin":"yueyang"},"430682":{"id":"430682","host":"linxiang.ke.com","name":"\u4e34\u6e58","short":"linxiang","province":"\u5f85\u5b9a","pinyin":"linxiang","nh_only":1},"430800":{"id":"430800","host":"zjj.ke.com","name":"\u5f20\u5bb6\u754c","short":"zjj","province":"\u6e56\u5357","pinyin":"zhangjiajie","nh_only":1},"430900":{"id":"430900","host":"yiyang.ke.com","name":"\u76ca\u9633","short":"yiyang","province":"\u6e56\u5357","pinyin":"yiyang","nh_only":1},"431000":{"id":"431000","host":"chenzhou.ke.com","name":"\u90f4\u5dde","short":"chenzhou","province":"\u6e56\u5357","pinyin":"chenzhou","nh_only":1},"431100":{"id":"431100","host":"yongzhou.ke.com","name":"\u6c38\u5dde","short":"yongzhou","province":"\u6e56\u5357","pinyin":"yongzhou","nh_only":1},"431200":{"id":"431200","host":"hh.ke.com","name":"\u6000\u5316","short":"hh","province":"\u6e56\u5357","pinyin":"huaihua","nh_only":1},"431281":{"id":"431281","host":"hongjiang.ke.com","name":"\u6d2a\u6c5f","short":"hongjiang","province":"\u5f85\u5b9a","pinyin":"hongjiang","nh_only":1},"431300":{"id":"431300","host":"loudi.ke.com","name":"\u5a04\u5e95","short":"loudi","province":"\u6e56\u5357","pinyin":"loudi","nh_only":1},"433100":{"id":"433100","host":"xx.ke.com","name":"\u6e58\u897f","short":"xx","province":"\u6e56\u5357","pinyin":"xiangxi","nh_only":1},"440200":{"id":"440200","host":"shaoguan.ke.com","name":"\u97f6\u5173","short":"shaoguan","province":"\u5e7f\u4e1c","pinyin":"shaoguan","nh_only":1},"440606":{"id":"440606","host":"sd.ke.com","name":"\u987a\u5fb7","short":"sd","province":"\u5f85\u5b9a","pinyin":"shunde","nh_only":1},"440700":{"id":"440700","host":"jiangmen.ke.com","name":"\u6c5f\u95e8","short":"jiangmen","province":"\u5e7f\u4e1c","pinyin":"jiangmen"},"440781":{"id":"440781","host":"taishan.ke.com","name":"\u53f0\u5c71","short":"taishan","province":"\u5f85\u5b9a","pinyin":"taishan","nh_only":1},"440785":{"id":"440785","host":"ep.ke.com","name":"\u6069\u5e73","short":"ep","province":"\u5f85\u5b9a","pinyin":"enping","nh_only":1},"440800":{"id":"440800","host":"zhanjiang.ke.com","name":"\u6e5b\u6c5f","short":"zhanjiang","province":"\u5e7f\u4e1c","pinyin":"zhanjiang"},"440881":{"id":"440881","host":"lianjiang.ke.com","name":"\u5ec9\u6c5f","short":"lianjiang","province":"\u5f85\u5b9a","pinyin":"lianjiang","nh_only":1},"440882":{"id":"440882","host":"leizhou.ke.com","name":"\u96f7\u5dde","short":"leizhou","province":"\u5f85\u5b9a","pinyin":"leizhou","nh_only":1},"440883":{"id":"440883","host":"wuchuan.ke.com","name":"\u5434\u5ddd","short":"wuchuan","province":"\u5f85\u5b9a","pinyin":"wuchuan","nh_only":1},"440900":{"id":"440900","host":"mm.ke.com","name":"\u8302\u540d","short":"mm","province":"\u5e7f\u4e1c","pinyin":"maoming","nh_only":1},"440981":{"id":"440981","host":"gaozhou.ke.com","name":"\u9ad8\u5dde","short":"gaozhou","province":"\u5f85\u5b9a","pinyin":"gaozhou","nh_only":1},"440982":{"id":"440982","host":"huazhou.ke.com","name":"\u5316\u5dde","short":"huazhou","province":"\u5f85\u5b9a","pinyin":"huazhou","nh_only":1},"441200":{"id":"441200","host":"zq.ke.com","name":"\u8087\u5e86","short":"zq","province":"\u5e7f\u4e1c","pinyin":"zhaoqing","nh_only":1},"441400":{"id":"441400","host":"meizhou.ke.com","name":"\u6885\u5dde","short":"meizhou","province":"\u5e7f\u4e1c","pinyin":"meizhou","nh_only":1},"441481":{"id":"441481","host":"xingning.ke.com","name":"\u5174\u5b81","short":"xingning","province":"\u5f85\u5b9a","pinyin":"xingning","nh_only":1},"441500":{"id":"441500","host":"sw.ke.com","name":"\u6c55\u5c3e","short":"sw","province":"\u5e7f\u4e1c","pinyin":"shanwei","nh_only":1},"441600":{"id":"441600","host":"heyuan.ke.com","name":"\u6cb3\u6e90","short":"heyuan","province":"\u5e7f\u4e1c","pinyin":"heyuan","nh_only":1},"441700":{"id":"441700","host":"yangjiang.ke.com","name":"\u9633\u6c5f","short":"yangjiang","province":"\u5e7f\u4e1c","pinyin":"yangjiang","nh_only":1},"441781":{"id":"441781","host":"yangchun.ke.com","name":"\u9633\u6625","short":"yangchun","province":"\u5f85\u5b9a","pinyin":"yangchun","nh_only":1},"441881":{"id":"441881","host":"yingde.ke.com","name":"\u82f1\u5fb7","short":"yingde","province":"\u5f85\u5b9a","pinyin":"yingde","nh_only":1},"441882":{"id":"441882","host":"lianzhou.ke.com","name":"\u8fde\u5dde","short":"lianzhou","province":"\u5f85\u5b9a","pinyin":"lianzhou","nh_only":1},"445100":{"id":"445100","host":"chaozhou.ke.com","name":"\u6f6e\u5dde","short":"chaozhou","province":"\u5e7f\u4e1c","pinyin":"chaozhou","nh_only":1},"445200":{"id":"445200","host":"jieyang.ke.com","name":"\u63ed\u9633","short":"jieyang","province":"\u5e7f\u4e1c","pinyin":"jieyang","nh_only":1},"445281":{"id":"445281","host":"pn.ke.com","name":"\u666e\u5b81","short":"pn","province":"\u5f85\u5b9a","pinyin":"puning","nh_only":1},"450200":{"id":"450200","host":"liuzhou.ke.com","name":"\u67f3\u5dde","short":"liuzhou","province":"\u5e7f\u897f\u58ee\u65cf\u81ea\u6cbb\u533a","pinyin":"liuzhou"},"450300":{"id":"450300","host":"gl.ke.com","name":"\u6842\u6797","short":"gl","province":"\u5e7f\u897f\u58ee\u65cf\u81ea\u6cbb\u533a","pinyin":"guilin"},"450400":{"id":"450400","host":"wuzhou.ke.com","name":"\u68a7\u5dde","short":"wuzhou","province":"\u5e7f\u897f\u58ee\u65cf\u81ea\u6cbb\u533a","pinyin":"wuzhou","nh_only":1},"450500":{"id":"450500","host":"bh.ke.com","name":"\u5317\u6d77","short":"bh","province":"\u5e7f\u897f\u58ee\u65cf\u81ea\u6cbb\u533a","pinyin":"beihai"},"450600":{"id":"450600","host":"fcg.ke.com","name":"\u9632\u57ce\u6e2f","short":"fcg","province":"\u5e7f\u897f\u58ee\u65cf\u81ea\u6cbb\u533a","pinyin":"fangchenggang","nh_only":1},"450700":{"id":"450700","host":"qinzhou.ke.com","name":"\u94a6\u5dde","short":"qinzhou","province":"\u5e7f\u897f\u58ee\u65cf\u81ea\u6cbb\u533a","pinyin":"qinzhou","nh_only":1},"450800":{"id":"450800","host":"gg.ke.com","name":"\u8d35\u6e2f","short":"gg","province":"\u5e7f\u897f\u58ee\u65cf\u81ea\u6cbb\u533a","pinyin":"guigang","nh_only":1},"450881":{"id":"450881","host":"gp.ke.com","name":"\u6842\u5e73","short":"gp","province":"\u5f85\u5b9a","pinyin":"guiping","nh_only":1},"450900":{"id":"450900","host":"yl.ke.com","name":"\u7389\u6797","short":"yl","province":"\u5e7f\u897f\u58ee\u65cf\u81ea\u6cbb\u533a","pinyin":"yulin","nh_only":1},"451000":{"id":"451000","host":"baise.ke.com","name":"\u767e\u8272","short":"baise","province":"\u5e7f\u897f\u58ee\u65cf\u81ea\u6cbb\u533a","pinyin":"bose","nh_only":1},"451100":{"id":"451100","host":"hezhou.ke.com","name":"\u8d3a\u5dde","short":"hezhou","province":"\u5e7f\u897f\u58ee\u65cf\u81ea\u6cbb\u533a","pinyin":"hezhou","nh_only":1},"451200":{"id":"451200","host":"hc.ke.com","name":"\u6cb3\u6c60","short":"hc","province":"\u5e7f\u897f\u58ee\u65cf\u81ea\u6cbb\u533a","pinyin":"hechi","nh_only":1},"451300":{"id":"451300","host":"lb.ke.com","name":"\u6765\u5bbe","short":"lb","province":"\u5e7f\u897f\u58ee\u65cf\u81ea\u6cbb\u533a","pinyin":"laibin","nh_only":1},"451400":{"id":"451400","host":"chongzuo.ke.com","name":"\u5d07\u5de6","short":"chongzuo","province":"\u5e7f\u897f\u58ee\u65cf\u81ea\u6cbb\u533a","pinyin":"chongzuo","nh_only":1},"460000":{"id":"460000","host":"hn.ke.com","name":"\u6d77\u5357","short":"hn","province":"\u6d77\u5357","pinyin":"hainan","nh_only":1},"469007":{"id":"469007","host":"dongfang.ke.com","name":"\u4e1c\u65b9","short":"dongfang","province":"\u5f85\u5b9a","pinyin":"dongfang","nh_only":1},"510185":{"id":"510185","host":"jianyang.ke.com","name":"\u7b80\u9633","short":"jianyang","province":"\u5f85\u5b9a","pinyin":"jianyang","nh_only":1},"510300":{"id":"510300","host":"zg.ke.com","name":"\u81ea\u8d21","short":"zg","province":"\u56db\u5ddd","pinyin":"zigong","nh_only":1},"510400":{"id":"510400","host":"pzh.ke.com","name":"\u6500\u679d\u82b1","short":"pzh","province":"\u56db\u5ddd","pinyin":"panzhihua","nh_only":1},"510500":{"id":"510500","host":"luzhou.ke.com","name":"\u6cf8\u5dde","short":"luzhou","province":"\u56db\u5ddd","pinyin":"luzhou","nh_only":1},"510900":{"id":"510900","host":"sn.ke.com","name":"\u9042\u5b81","short":"sn","province":"\u56db\u5ddd","pinyin":"suining","nh_only":1},"511000":{"id":"511000","host":"neijiang.ke.com","name":"\u5185\u6c5f","short":"neijiang","province":"\u56db\u5ddd","pinyin":"neijiang","nh_only":1},"511500":{"id":"511500","host":"yibin.ke.com","name":"\u5b9c\u5bbe","short":"yibin","province":"\u56db\u5ddd","pinyin":"yibin","nh_only":1},"511600":{"id":"511600","host":"ga.ke.com","name":"\u5e7f\u5b89","short":"ga","province":"\u56db\u5ddd","pinyin":"guangan","nh_only":1},"511800":{"id":"511800","host":"yaan.ke.com","name":"\u96c5\u5b89","short":"yaan","province":"\u56db\u5ddd","pinyin":"yaan","nh_only":1},"511900":{"id":"511900","host":"bz.ke.com","name":"\u5df4\u4e2d","short":"bz","province":"\u56db\u5ddd","pinyin":"bazhong","nh_only":1},"512000":{"id":"512000","host":"ziyang.ke.com","name":"\u8d44\u9633","short":"ziyang","province":"\u56db\u5ddd","pinyin":"ziyang","nh_only":1},"513231":{"id":"513231","host":"ab.ke.com","name":"\u963f\u575d","short":"ab","province":"\u5f85\u5b9a","pinyin":"aba","nh_only":1},"513328":{"id":"513328","host":"ganzi.ke.com","name":"\u7518\u5b5c","short":"ganzi","province":"\u5f85\u5b9a","pinyin":"ganzi","nh_only":1},"513400":{"id":"513400","host":"liangshan.ke.com","name":"\u51c9\u5c71","short":"liangshan","province":"\u56db\u5ddd","pinyin":"liangshan"},"520181":{"id":"520181","host":"qingzhen.ke.com","name":"\u6e05\u9547","short":"qingzhen","province":"\u5f85\u5b9a","pinyin":"qingzhen","nh_only":1},"520200":{"id":"520200","host":"lps.ke.com","name":"\u516d\u76d8\u6c34","short":"lps","province":"\u8d35\u5dde","pinyin":"liupanshui","nh_only":1},"520381":{"id":"520381","host":"chishui.ke.com","name":"\u8d64\u6c34","short":"chishui","province":"\u5f85\u5b9a","pinyin":"chishui","nh_only":1},"520400":{"id":"520400","host":"anshun.ke.com","name":"\u5b89\u987a","short":"anshun","province":"\u8d35\u5dde","pinyin":"anshun","nh_only":1},"520500":{"id":"520500","host":"bijie.ke.com","name":"\u6bd5\u8282","short":"bijie","province":"\u8d35\u5dde","pinyin":"bijie","nh_only":1},"520600":{"id":"520600","host":"tr.ke.com","name":"\u94dc\u4ec1","short":"tr","province":"\u8d35\u5dde","pinyin":"tongren","nh_only":1},"522600":{"id":"522600","host":"qdn.ke.com","name":"\u9ed4\u4e1c\u5357","short":"qdn","province":"\u8d35\u5dde","pinyin":"qiandongnan","nh_only":1},"522601":{"id":"522601","host":"kaili.ke.com","name":"\u51ef\u91cc","short":"kaili","province":"\u5f85\u5b9a","pinyin":"kaili","nh_only":1},"522700":{"id":"522700","host":"qn.ke.com","name":"\u9ed4\u5357","short":"qn","province":"\u8d35\u5dde","pinyin":"qiannan","nh_only":1},"530181":{"id":"530181","host":"an.ke.com","name":"\u5b89\u5b81","short":"an","province":"\u5f85\u5b9a","pinyin":"anning","nh_only":1},"530300":{"id":"530300","host":"qj.ke.com","name":"\u66f2\u9756","short":"qj","province":"\u4e91\u5357","pinyin":"qujing","nh_only":1},"530400":{"id":"530400","host":"yx.ke.com","name":"\u7389\u6eaa","short":"yx","province":"\u4e91\u5357","pinyin":"yuxi","nh_only":1},"530500":{"id":"530500","host":"baoshan.ke.com","name":"\u4fdd\u5c71","short":"baoshan","province":"\u4e91\u5357","pinyin":"baoshan","nh_only":1},"530600":{"id":"530600","host":"zt.ke.com","name":"\u662d\u901a","short":"zt","province":"\u4e91\u5357","pinyin":"zhaotong","nh_only":1},"530700":{"id":"530700","host":"lj.ke.com","name":"\u4e3d\u6c5f","short":"lj","province":"\u4e91\u5357","pinyin":"lijiang","nh_only":1},"530900":{"id":"530900","host":"lincang.ke.com","name":"\u4e34\u6ca7","short":"lincang","province":"\u4e91\u5357","pinyin":"lincang","nh_only":1},"532301":{"id":"532301","host":"chuxiong.ke.com","name":"\u695a\u96c4","short":"chuxiong","province":"\u5f85\u5b9a","pinyin":"chuxiong","nh_only":1},"532502":{"id":"532502","host":"ky.ke.com","name":"\u5f00\u8fdc","short":"ky","province":"\u5f85\u5b9a","pinyin":"kaiyuan","nh_only":1},"532529":{"id":"532529","host":"honghe.ke.com","name":"\u7ea2\u6cb3","short":"honghe","province":"\u5f85\u5b9a","pinyin":"honghe","nh_only":1},"532601":{"id":"532601","host":"ws.ke.com","name":"\u6587\u5c71","short":"ws","province":"\u5f85\u5b9a","pinyin":"wenshan","nh_only":1},"532801":{"id":"532801","host":"jinghong.ke.com","name":"\u666f\u6d2a","short":"jinghong","province":"\u5f85\u5b9a","pinyin":"jinghong","nh_only":1},"533100":{"id":"533100","host":"dh.ke.com","name":"\u5fb7\u5b8f","short":"dh","province":"\u4e91\u5357","pinyin":"dehong","nh_only":1},"533102":{"id":"533102","host":"rl.ke.com","name":"\u745e\u4e3d","short":"rl","province":"\u5f85\u5b9a","pinyin":"ruili","nh_only":1},"533300":{"id":"533300","host":"nujiang.ke.com","name":"\u6012\u6c5f","short":"nujiang","province":"\u4e91\u5357","pinyin":"nujiang","nh_only":1},"533400":{"id":"533400","host":"diqing.ke.com","name":"\u8fea\u5e86","short":"diqing","province":"\u4e91\u5357","pinyin":"diqing","nh_only":1},"540100":{"id":"540100","host":"lasa.ke.com","name":"\u62c9\u8428","short":"lasa","province":"\u897f\u85cf\u81ea\u6cbb\u533a","pinyin":"lasa","nh_only":1},"540200":{"id":"540200","host":"rkz.ke.com","name":"\u65e5\u5580\u5219","short":"rkz","province":"\u897f\u85cf\u81ea\u6cbb\u533a","pinyin":"rikaze","nh_only":1},"540300":{"id":"540300","host":"changdu.ke.com","name":"\u660c\u90fd","short":"changdu","province":"\u897f\u85cf\u81ea\u6cbb\u533a","pinyin":"changdu","nh_only":1},"540600":{"id":"540600","host":"nq.ke.com","name":"\u90a3\u66f2","short":"nq","province":"\u5f85\u5b9a","pinyin":"naqu","nh_only":1},"610200":{"id":"610200","host":"tongchuan.ke.com","name":"\u94dc\u5ddd","short":"tongchuan","province":"\u9655\u897f","pinyin":"tongchuan","nh_only":1},"610400":{"id":"610400","host":"xianyang.ke.com","name":"\u54b8\u9633","short":"xianyang","province":"\u9655\u897f","pinyin":"xianyang"},"610500":{"id":"610500","host":"weinan.ke.com","name":"\u6e2d\u5357","short":"weinan","province":"\u9655\u897f","pinyin":"weinan","nh_only":1},"610600":{"id":"610600","host":"ya.ke.com","name":"\u5ef6\u5b89","short":"ya","province":"\u9655\u897f","pinyin":"yanan","nh_only":1},"610700":{"id":"610700","host":"hanzhong.ke.com","name":"\u6c49\u4e2d","short":"hanzhong","province":"\u9655\u897f","pinyin":"hanzhong"},"610800":{"id":"610800","host":"yulin.ke.com","name":"\u6986\u6797","short":"yulin","province":"\u9655\u897f","pinyin":"yulin","nh_only":1},"610900":{"id":"610900","host":"ak.ke.com","name":"\u5b89\u5eb7","short":"ak","province":"\u9655\u897f","pinyin":"ankang","nh_only":1},"611000":{"id":"611000","host":"sl.ke.com","name":"\u5546\u6d1b","short":"sl","province":"\u9655\u897f","pinyin":"shangluo","nh_only":1},"620200":{"id":"620200","host":"jyg.ke.com","name":"\u5609\u5cea\u5173","short":"jyg","province":"\u7518\u8083","pinyin":"jiayuguan","nh_only":1},"620300":{"id":"620300","host":"jinchang.ke.com","name":"\u91d1\u660c","short":"jinchang","province":"\u7518\u8083","pinyin":"jinchang","nh_only":1},"620400":{"id":"620400","host":"by.ke.com","name":"\u767d\u94f6","short":"by","province":"\u7518\u8083","pinyin":"baiyin","nh_only":1},"620500":{"id":"620500","host":"tianshui.ke.com","name":"\u5929\u6c34","short":"tianshui","province":"\u7518\u8083","pinyin":"tianshui","nh_only":1},"620600":{"id":"620600","host":"ww.ke.com","name":"\u6b66\u5a01","short":"ww","province":"\u7518\u8083","pinyin":"wuwei","nh_only":1},"620700":{"id":"620700","host":"zy.ke.com","name":"\u5f20\u6396","short":"zy","province":"\u7518\u8083","pinyin":"zhangye","nh_only":1},"620800":{"id":"620800","host":"pl.ke.com","name":"\u5e73\u51c9","short":"pl","province":"\u7518\u8083","pinyin":"pingliang","nh_only":1},"620900":{"id":"620900","host":"jq.ke.com","name":"\u9152\u6cc9","short":"jq","province":"\u7518\u8083","pinyin":"jiuquan","nh_only":1},"620981":{"id":"620981","host":"ym.ke.com","name":"\u7389\u95e8","short":"ym","province":"\u5f85\u5b9a","pinyin":"yumen","nh_only":1},"621000":{"id":"621000","host":"qingyang.ke.com","name":"\u5e86\u9633","short":"qingyang","province":"\u7518\u8083","pinyin":"qingyang","nh_only":1},"621100":{"id":"621100","host":"dingxi.ke.com","name":"\u5b9a\u897f","short":"dingxi","province":"\u7518\u8083","pinyin":"dingxi","nh_only":1},"621200":{"id":"621200","host":"ln.ke.com","name":"\u9647\u5357","short":"ln","province":"\u7518\u8083","pinyin":"longnan","nh_only":1},"622901":{"id":"622901","host":"lx.ke.com","name":"\u4e34\u590f","short":"lx","province":"\u5f85\u5b9a","pinyin":"linxia","nh_only":1},"630200":{"id":"630200","host":"haidong.ke.com","name":"\u6d77\u4e1c","short":"haidong","province":"\u9752\u6d77","pinyin":"haidong","nh_only":1},"632800":{"id":"632800","host":"haixi.ke.com","name":"\u6d77\u897f","short":"haixi","province":"\u9752\u6d77","pinyin":"haixi","nh_only":1},"640200":{"id":"640200","host":"szs.ke.com","name":"\u77f3\u5634\u5c71","short":"szs","province":"\u5b81\u590f\u56de\u65cf\u81ea\u6cbb\u533a","pinyin":"shizuishan","nh_only":1},"640300":{"id":"640300","host":"wuzhong.ke.com","name":"\u5434\u5fe0","short":"wuzhong","province":"\u5b81\u590f\u56de\u65cf\u81ea\u6cbb\u533a","pinyin":"wuzhong","nh_only":1},"640400":{"id":"640400","host":"guyuan.ke.com","name":"\u56fa\u539f","short":"guyuan","province":"\u5b81\u590f\u56de\u65cf\u81ea\u6cbb\u533a","pinyin":"guyuan","nh_only":1},"640500":{"id":"640500","host":"zw.ke.com","name":"\u4e2d\u536b","short":"zw","province":"\u5b81\u590f\u56de\u65cf\u81ea\u6cbb\u533a","pinyin":"zhongwei","nh_only":1},"650200":{"id":"650200","host":"klmy.ke.com","name":"\u514b\u62c9\u739b\u4f9d","short":"klmy","province":"\u65b0\u7586\u7ef4\u543e\u5c14\u81ea\u6cbb\u533a","pinyin":"kelamayi","nh_only":1},"650400":{"id":"650400","host":"tlf.ke.com","name":"\u5410\u9c81\u756a","short":"tlf","province":"\u65b0\u7586\u7ef4\u543e\u5c14\u81ea\u6cbb\u533a","pinyin":"tulufan","nh_only":1},"650500":{"id":"650500","host":"hm.ke.com","name":"\u54c8\u5bc6","short":"hm","province":"\u65b0\u7586\u7ef4\u543e\u5c14\u81ea\u6cbb\u533a","pinyin":"hami","nh_only":1},"652301":{"id":"652301","host":"cj.ke.com","name":"\u660c\u5409","short":"cj","province":"\u5f85\u5b9a","pinyin":"changji","nh_only":1},"652302":{"id":"652302","host":"fk.ke.com","name":"\u961c\u5eb7","short":"fk","province":"\u5f85\u5b9a","pinyin":"fukang","nh_only":1},"652700":{"id":"652700","host":"brtl.ke.com","name":"\u535a\u5c14\u5854\u62c9","short":"brtl","province":"\u65b0\u7586\u7ef4\u543e\u5c14\u81ea\u6cbb\u533a","pinyin":"boertala","nh_only":1},"652801":{"id":"652801","host":"krl.ke.com","name":"\u5e93\u5c14\u52d2","short":"krl","province":"\u5f85\u5b9a","pinyin":"kuerle","nh_only":1},"652901":{"id":"652901","host":"aks.ke.com","name":"\u963f\u514b\u82cf","short":"aks","province":"\u5f85\u5b9a","pinyin":"akesu","nh_only":1},"653000":{"id":"653000","host":"kzls.ke.com","name":"\u514b\u5b5c\u52d2\u82cf","short":"kzls","province":"\u65b0\u7586\u7ef4\u543e\u5c14\u81ea\u6cbb\u533a","pinyin":"kezilesu","nh_only":1},"653101":{"id":"653101","host":"kashi.ke.com","name":"\u5580\u4ec0","short":"kashi","province":"\u5f85\u5b9a","pinyin":"kashi","nh_only":1},"653201":{"id":"653201","host":"ht.ke.com","name":"\u548c\u7530","short":"ht","province":"\u5f85\u5b9a","pinyin":"hetian","nh_only":1},"654000":{"id":"654000","host":"yili.ke.com","name":"\u4f0a\u7281","short":"yili","province":"\u65b0\u7586\u7ef4\u543e\u5c14\u81ea\u6cbb\u533a","pinyin":"yili","nh_only":1},"654003":{"id":"654003","host":"kt.ke.com","name":"\u594e\u5c6f","short":"kt","province":"\u5f85\u5b9a","pinyin":"kuitun","nh_only":1},"659002":{"id":"659002","host":"alr.ke.com","name":"\u963f\u62c9\u5c14","short":"alr","province":"\u5f85\u5b9a","pinyin":"alaer","nh_only":1},"130800":{"id":"130800","name":"\u627f\u5fb7","host":"chengde.ke.com","short":"chengde","province":"\u6cb3\u5317","pinyin":"chengde","nh_only":1},"341100":{"id":"341100","name":"\u6ec1\u5dde","host":"cz.ke.com","short":"cz","province":"\u5b89\u5fbd","pinyin":"chuzhou","nh_only":1},"421100":{"id":"421100","name":"\u9ec4\u5188","host":"hg.ke.com","short":"hg","province":"\u6e56\u5317","pinyin":"huanggang","nh_only":1},"140700":{"id":"140700","name":"\u664b\u4e2d","host":"jz.ke.com","short":"jz","province":"\u5c71\u897f","pinyin":"jinzhong","nh_only":1},"511100":{"id":"511100","name":"\u4e50\u5c71","host":"leshan.ke.com","short":"leshan","province":"\u56db\u5ddd","pinyin":"leshan","nh_only":1},"350800":{"id":"350800","name":"\u9f99\u5ca9","host":"ly.ke.com","short":"ly","province":"\u798f\u5efa","pinyin":"longyan","nh_only":1},"130300":{"id":"130300","name":"\u79e6\u7687\u5c9b","host":"qhd.ke.com","short":"qhd","province":"\u6cb3\u5317","pinyin":"qinhuangdao","nh_only":1},"441800":{"id":"441800","name":"\u6e05\u8fdc","host":"qy.ke.com","short":"qy","province":"\u5e7f\u4e1c","pinyin":"qingyuan"},"421200":{"id":"421200","name":"\u54b8\u5b81","host":"xn.ke.com","short":"xn","province":"\u6e56\u5317","pinyin":"xianning","nh_only":1},"130700":{"id":"130700","name":"\u5f20\u5bb6\u53e3","host":"zjk.ke.com","short":"zjk","province":"\u6cb3\u5317","pinyin":"zhangjiakou"},"350600":{"id":"350600","name":"\u6f33\u5dde","host":"zhangzhou.ke.com","short":"zhangzhou","province":"\u798f\u5efa","pinyin":"zhangzhou"},"888886":{"id":"888886","host":"xan.ke.com","name":"\u96c4\u5b89\u65b0\u533a","short":"xan","province":"\u6cb3\u5317","pinyin":"xiongan"},"130683":{"id":"130683","name":"\u5b89\u56fd","host":"ag.ke.com","short":"ag","province":"\u6cb3\u5317\u7701","pinyin":"anguo","nh_only":1},"231181":{"id":"231181","name":"\u5317\u5b89","host":"ba.ke.com","short":"ba","province":"\u9ed1\u9f99\u6c5f\u7701","pinyin":"beian","nh_only":1},"211381":{"id":"211381","name":"\u5317\u7968","host":"bp.ke.com","short":"bp","province":"\u8fbd\u5b81\u7701","pinyin":"beipiao","nh_only":1},"130981":{"id":"130981","name":"\u6cca\u5934","host":"botou.ke.com","short":"botou","province":"\u6cb3\u5317\u7701","pinyin":"botou","nh_only":1},"652701":{"id":"652701","name":"\u535a\u4e50","host":"bole.ke.com","short":"bole","province":"\u65b0\u7586\u7ef4\u543e\u5c14\u81ea\u6cbb\u533a","pinyin":"bole","nh_only":1},"450981":{"id":"450981","name":"\u5317\u6d41","host":"bl.ke.com","short":"bl","province":"\u5e7f\u897f\u58ee\u65cf\u81ea\u6cbb\u533a","pinyin":"beiliu","nh_only":1},"421281":{"id":"421281","name":"\u8d64\u58c1","host":"cb.ke.com","short":"cb","province":"\u6e56\u5317\u7701","pinyin":"chibi","nh_only":1},"450481":{"id":"450481","name":"\u5c91\u6eaa","host":"cx.ke.com","short":"cx","province":"\u5e7f\u897f\u58ee\u65cf\u81ea\u6cbb\u533a","pinyin":"cenxi","nh_only":1},"222403":{"id":"222403","name":"\u6566\u5316","host":"dunhua.ke.com","short":"dunhua","province":"\u5409\u6797\u7701","pinyin":"dunhua","nh_only":1},"321181":{"id":"321181","name":"\u4e39\u9633","host":"danyang.ke.com","short":"danyang","province":"\u6c5f\u82cf\u7701","pinyin":"danyang","nh_only":1},"211081":{"id":"211081","name":"\u706f\u5854","host":"dengta.ke.com","short":"dengta","province":"\u8fbd\u5b81\u7701","pinyin":"dengta","nh_only":1},"620982":{"id":"620982","name":"\u6566\u714c","host":"dunhuang.ke.com","short":"dunhuang","province":"\u7518\u8083\u7701","pinyin":"dunhuang","nh_only":1},"632802":{"id":"632802","name":"\u5fb7\u4ee4\u54c8","host":"dlh.ke.com","short":"dlh","province":"\u9752\u6d77\u7701","pinyin":"delingha","nh_only":1},"420281":{"id":"420281","name":"\u5927\u51b6","host":"dazhi.ke.com","short":"dazhi","province":"\u6e56\u5317\u7701","pinyin":"daye","nh_only":1},"141182":{"id":"141182","name":"\u6c7e\u9633","host":"fenyang.ke.com","short":"fenyang","province":"\u5c71\u897f\u7701","pinyin":"fenyang","nh_only":1},"522702":{"id":"522702","name":"\u798f\u6cc9","host":"fq.ke.com","short":"fq","province":"\u8d35\u5dde\u7701","pinyin":"fuquan","nh_only":1},"632801":{"id":"632801","name":"\u683c\u5c14\u6728","host":"grm.ke.com","short":"grm","province":"\u9752\u6d77\u7701","pinyin":"geermu","nh_only":1},"532501":{"id":"532501","name":"\u4e2a\u65e7","host":"gejiu.ke.com","short":"gejiu","province":"\u4e91\u5357\u7701","pinyin":"gejiu","nh_only":1},"360681":{"id":"360681","name":"\u8d35\u6eaa","host":"gx.ke.com","short":"gx","province":"\u6c5f\u897f\u7701","pinyin":"guixi","nh_only":1},"222404":{"id":"222404","name":"\u73f2\u6625","host":"hunchun.ke.com","short":"hunchun","province":"\u5409\u6797\u7701","pinyin":"hunchun","nh_only":1},"130983":{"id":"130983","name":"\u9ec4\u9a85","host":"huanghua.ke.com","short":"huanghua","province":"\u6cb3\u5317\u7701","pinyin":"huanghua","nh_only":1},"130984":{"id":"130984","name":"\u6cb3\u95f4","host":"hj.ke.com","short":"hj","province":"\u6cb3\u5317\u7701","pinyin":"hejian","nh_only":1},"610581":{"id":"610581","name":"\u97e9\u57ce","host":"hancheng.ke.com","short":"hancheng","province":"\u9655\u897f\u7701","pinyin":"hancheng","nh_only":1},"141081":{"id":"141081","name":"\u4faf\u9a6c","host":"houma.ke.com","short":"houma","province":"\u5c71\u897f\u7701","pinyin":"houma","nh_only":1},"511681":{"id":"511681","name":"\u534e\u84e5","host":"huaying.ke.com","short":"huaying","province":"\u56db\u5ddd\u7701","pinyin":"huaying","nh_only":1},"451381":{"id":"451381","name":"\u5408\u5c71","host":"heshan.ke.com","short":"heshan","province":"\u5e7f\u897f\u58ee\u65cf\u81ea\u6cbb\u533a","pinyin":"heshan","nh_only":1},"410782":{"id":"410782","name":"\u8f89\u53bf","host":"huixian.ke.com","short":"huixian","province":"\u6cb3\u5357\u7701","pinyin":"huixian","nh_only":1},"141082":{"id":"141082","name":"\u970d\u5dde","host":"huozhou.ke.com","short":"huozhou","province":"\u5c71\u897f\u7701","pinyin":"huozhou","nh_only":1},"433101":{"id":"433101","name":"\u5409\u9996","host":"jishou.ke.com","short":"jishou","province":"\u6e56\u5357\u7701","pinyin":"jishou","nh_only":1},"350783":{"id":"350783","name":"\u5efa\u74ef","host":"jo.ke.com","short":"jo","province":"\u798f\u5efa\u7701","pinyin":"jianou","nh_only":1},"220281":{"id":"220281","name":"\u86df\u6cb3","host":"jiaohe.ke.com","short":"jiaohe","province":"\u5409\u6797\u7701","pinyin":"jiaohe","nh_only":1},"222405":{"id":"222405","name":"\u9f99\u4e95","host":"longjing.ke.com","short":"longjing","province":"\u5409\u6797\u7701","pinyin":"longjing","nh_only":1},"220681":{"id":"220681","name":"\u4e34\u6c5f","host":"linjiang.ke.com","short":"linjiang","province":"\u5409\u6797\u7701","pinyin":"linjiang","nh_only":1},"211382":{"id":"211382","name":"\u51cc\u6e90","host":"lingyuan.ke.com","short":"lingyuan","province":"\u8fbd\u5b81\u7701","pinyin":"lingyuan","nh_only":1},"140481":{"id":"140481","name":"\u6f5e\u57ce","host":"lucheng.ke.com","short":"lucheng","province":"\u5c71\u897f\u7701","pinyin":"lucheng","nh_only":1},"422802":{"id":"422802","name":"\u5229\u5ddd","host":"lichuan.ke.com","short":"lichuan","province":"\u6e56\u5317\u7701","pinyin":"lichuan","nh_only":1},"431381":{"id":"431381","name":"\u51b7\u6c34\u6c5f","host":"lsj.ke.com","short":"lsj","province":"\u6e56\u5357\u7701","pinyin":"lengshuijiang","nh_only":1},"431382":{"id":"431382","name":"\u6d9f\u6e90","host":"lianyuan.ke.com","short":"lianyuan","province":"\u6e56\u5357\u7701","pinyin":"lianyuan","nh_only":1},"511381":{"id":"511381","name":"\u9606\u4e2d","host":"langzhong.ke.com","short":"langzhong","province":"\u56db\u5ddd\u7701","pinyin":"langzhong","nh_only":1},"440281":{"id":"440281","name":"\u4e50\u660c","host":"lechang.ke.com","short":"lechang","province":"\u5e7f\u4e1c\u7701","pinyin":"lechang","nh_only":1},"441581":{"id":"441581","name":"\u9646\u4e30","host":"lufeng.ke.com","short":"lufeng","province":"\u5e7f\u4e1c\u7701","pinyin":"lufeng","nh_only":1},"445381":{"id":"445381","name":"\u7f57\u5b9a","host":"luoding.ke.com","short":"luoding","province":"\u5e7f\u4e1c\u7701","pinyin":"luoding","nh_only":1},"230382":{"id":"230382","name":"\u5bc6\u5c71","host":"mishan.ke.com","short":"mishan","province":"\u9ed1\u9f99\u6c5f\u7701","pinyin":"mishan","nh_only":1},"150781":{"id":"150781","name":"\u6ee1\u6d32\u91cc","host":"mzl.ke.com","short":"mzl","province":"\u5185\u8499\u53e4\u81ea\u6cbb\u533a","pinyin":"manzhouli","nh_only":1},"421181":{"id":"421181","name":"\u9ebb\u57ce","host":"mc.ke.com","short":"mc","province":"\u6e56\u5317\u7701","pinyin":"macheng","nh_only":1},"510683":{"id":"510683","name":"\u7ef5\u7af9","host":"mianzhu.ke.com","short":"mianzhu","province":"\u56db\u5ddd\u7701","pinyin":"mianzhu","nh_only":1},"231084":{"id":"231084","name":"\u5b81\u5b89","host":"ningan.ke.com","short":"ningan","province":"\u9ed1\u9f99\u6c5f\u7701","pinyin":"ningan","nh_only":1},"341881":{"id":"341881","name":"\u5b81\u56fd","host":"ng.ke.com","short":"ng","province":"\u5b89\u5fbd\u7701","pinyin":"ningguo","nh_only":1},"640381":{"id":"640381","name":"\u9752\u94dc\u5ce1","host":"qtx.ke.com","short":"qtx","province":"\u5b81\u590f\u56de\u65cf\u81ea\u6cbb\u533a","pinyin":"qingtongxia","nh_only":1},"520382":{"id":"520382","name":"\u4ec1\u6000","host":"hr.ke.com","short":"hr","province":"\u8d35\u5dde\u7701","pinyin":"renhuai","nh_only":1},"360481":{"id":"360481","name":"\u745e\u660c","host":"rc.ke.com","short":"rc","province":"\u6c5f\u897f\u7701","pinyin":"ruichang","nh_only":1},"330683":{"id":"330683","name":"\u5d4a\u5dde","host":"shengzhou.ke.com","short":"shengzhou","province":"\u6d59\u6c5f\u7701","pinyin":"shengzhou","nh_only":1},"231081":{"id":"231081","name":"\u7ee5\u82ac\u6cb3","host":"sfh.ke.com","short":"sfh","province":"\u9ed1\u9f99\u6c5f\u7701","pinyin":"suifenhe","nh_only":1},"510682":{"id":"510682","name":"\u4ec0\u90a1","host":"sf.ke.com","short":"sf","province":"\u56db\u5ddd\u7701","pinyin":"shenfang","nh_only":1},"350781":{"id":"350781","name":"\u90b5\u6b66","host":"shaowu.ke.com","short":"shaowu","province":"\u798f\u5efa\u7701","pinyin":"shaowu","nh_only":1},"430382":{"id":"430382","name":"\u97f6\u5c71","host":"ss.ke.com","short":"ss","province":"\u6e56\u5357\u7701","pinyin":"shaoshan","nh_only":1},"230781":{"id":"230781","name":"\u94c1\u529b","host":"tieli.ke.com","short":"tieli","province":"\u9ed1\u9f99\u6c5f\u7701","pinyin":"tieli","nh_only":1},"410781":{"id":"410781","name":"\u536b\u8f89","host":"weihui.ke.com","short":"weihui","province":"\u6cb3\u5357\u7701","pinyin":"weihui","nh_only":1},"430581":{"id":"430581","name":"\u6b66\u5188","host":"wg.ke.com","short":"wg","province":"\u6e56\u5357\u7701","pinyin":"wugang","nh_only":1},"231182":{"id":"231182","name":"\u4e94\u5927\u8fde\u6c60","host":"wdlc.ke.com","short":"wdlc","province":"\u9ed1\u9f99\u6c5f\u7701","pinyin":"wudalianchi","nh_only":1},"421182":{"id":"421182","name":"\u6b66\u7a74","host":"wuxue.ke.com","short":"wuxue","province":"\u6e56\u5317\u7701","pinyin":"wuxue","nh_only":1},"511781":{"id":"511781","name":"\u4e07\u6e90","host":"wy.ke.com","short":"wy","province":"\u56db\u5ddd\u7701","pinyin":"wanyuan","nh_only":1},"152500":{"id":"152500","name":"\u9521\u6797\u90ed\u52d2\u76df","host":"xlglm.ke.com","short":"xlglm","province":"\u5185\u8499\u53e4\u81ea\u6cbb\u533a","pinyin":"xilinguolemeng","nh_only":1},"610481":{"id":"610481","name":"\u5174\u5e73","host":"xp.ke.com","short":"xp","province":"\u9655\u897f\u7701","pinyin":"xingping","nh_only":1},"513401":{"id":"513401","name":"\u897f\u660c","host":"xichang.ke.com","short":"xichang","province":"\u56db\u5ddd\u7701","pinyin":"xichang","nh_only":1},"522301":{"id":"522301","name":"\u5174\u4e49","host":"xingyi.ke.com","short":"xingyi","province":"\u8d35\u5dde\u7701","pinyin":"xingyi","nh_only":1},"530381":{"id":"530381","name":"\u5ba3\u5a01","host":"xw.ke.com","short":"xw","province":"\u4e91\u5357\u7701","pinyin":"xuanwei","nh_only":1},"411681":{"id":"411681","name":"\u9879\u57ce","host":"xiangcheng.ke.com","short":"xiangcheng","province":"\u6cb3\u5357\u7701","pinyin":"xiangcheng","nh_only":1},"211481":{"id":"211481","name":"\u5174\u57ce","host":"xingcheng.ke.com","short":"xingcheng","province":"\u8fbd\u5b81\u7701","pinyin":"xingcheng","nh_only":1},"222401":{"id":"222401","name":"\u5ef6\u5409","host":"yj.ke.com","short":"yj","province":"\u5409\u6797\u7701","pinyin":"yanji","nh_only":1},"654002":{"id":"654002","name":"\u4f0a\u5b81","host":"yining.ke.com","short":"yining","province":"\u65b0\u7586\u7ef4\u543e\u5c14\u81ea\u6cbb\u533a","pinyin":"yining","nh_only":1},"140881":{"id":"140881","name":"\u6c38\u6d4e","host":"yongji.ke.com","short":"yongji","province":"\u5c71\u897f\u7701","pinyin":"yongji","nh_only":1},"451281":{"id":"451281","name":"\u5b9c\u5dde","host":"yizhou.ke.com","short":"yizhou","province":"\u5e7f\u897f\u58ee\u65cf\u81ea\u6cbb\u533a","pinyin":"yizhou","nh_only":1},"431081":{"id":"431081","name":"\u8d44\u5174","host":"zx.ke.com","short":"zx","province":"\u6e56\u5357\u7701","pinyin":"zixing","nh_only":1},"360982":{"id":"360982","name":"\u6a1f\u6811","host":"zhangshu.ke.com","short":"zhangshu","province":"\u6c5f\u897f\u7701","pinyin":"zhangshu","nh_only":1},"510184":{"id":"510184","name":"\u5d07\u5dde","host":"chongzhou.ke.com","short":"chongzhou","province":"\u56db\u5ddd\u7701","pinyin":"chongzhou","nh_only":1},"330282":{"id":"330282","name":"\u6148\u6eaa","host":"cixi.ke.com","short":"cixi","province":"\u6d59\u6c5f\u7701","pinyin":"cixi","nh_only":1},"410185":{"id":"410185","name":"\u767b\u5c01","host":"dengfeng.ke.com","short":"dengfeng","province":"\u6cb3\u5357\u7701","pinyin":"dengfeng","nh_only":1},"510181":{"id":"510181","name":"\u90fd\u6c5f\u5830","host":"djy.ke.com","short":"djy","province":"\u56db\u5ddd\u7701","pinyin":"dujiangyan","nh_only":1},"210681":{"id":"210681","name":"\u4e1c\u6e2f","host":"donggang.ke.com","short":"donggang","province":"\u8fbd\u5b81\u7701","pinyin":"donggang","nh_only":1},"350981":{"id":"350981","name":"\u798f\u5b89","host":"fa.ke.com","short":"fa","province":"\u798f\u5efa\u7701","pinyin":"fuan","nh_only":1},"210682":{"id":"210682","name":"\u51e4\u57ce","host":"fch.ke.com","short":"fch","province":"\u8fbd\u5b81\u7701","pinyin":"fengcheng","nh_only":1},"350982":{"id":"350982","name":"\u798f\u9f0e","host":"fd.ke.com","short":"fd","province":"\u798f\u5efa\u7701","pinyin":"fuding","nh_only":1},"350181":{"id":"350181","name":"\u798f\u6e05","host":"fuqing.ke.com","short":"fuqing","province":"\u798f\u5efa\u7701","pinyin":"fuqing","nh_only":1},"350122":{"id":"350122","name":"\u8fde\u6c5f","host":"lianj.ke.com","short":"lianj","province":"\u798f\u5efa\u7701","pinyin":"lianjiang","nh_only":1},"130684":{"id":"130684","name":"\u9ad8\u7891\u5e97","host":"gbd.ke.com","short":"gbd","province":"\u6cb3\u5317\u7701","pinyin":"gaobeidian","nh_only":1},"330481":{"id":"330481","name":"\u6d77\u5b81","host":"haining.ke.com","short":"haining","province":"\u6d59\u6c5f\u7701","pinyin":"haining","nh_only":1},"370687":{"id":"370687","name":"\u6d77\u9633","host":"haiyang.ke.com","short":"haiyang","province":"\u5c71\u4e1c\u7701","pinyin":"haiyang","nh_only":1},"320684":{"id":"320684","name":"\u6d77\u95e8","host":"haimen.ke.com","short":"haimen","province":"\u6c5f\u82cf\u7701","pinyin":"haimen","nh_only":1},"330182":{"id":"330182","name":"\u5efa\u5fb7","host":"jd.ke.com","short":"jd","province":"\u6d59\u6c5f\u7701","pinyin":"jiande","nh_only":1},"131103":{"id":"131103","name":"\u5180\u5dde","host":"jizhou.ke.com","short":"jizhou","province":"\u6cb3\u5317\u7701","pinyin":"jizhou","nh_only":1},"321183":{"id":"321183","name":"\u53e5\u5bb9","host":"jr.ke.com","short":"jr","province":"\u6c5f\u82cf\u7701","pinyin":"jurong","nh_only":1},"330421":{"id":"330421","name":"\u5609\u5584","host":"jiashan.ke.com","short":"jiashan","province":"\u6d59\u6c5f\u7701","pinyin":"jiashan","nh_only":1},"370281":{"id":"370281","name":"\u80f6\u5dde","host":"jiaozhou.ke.com","short":"jiaozhou","province":"\u5c71\u4e1c\u7701","pinyin":"jiaozhou","nh_only":1},"370285":{"id":"370285","name":"\u83b1\u897f","host":"laixi.ke.com","short":"laixi","province":"\u5c71\u4e1c\u7701","pinyin":"laixi","nh_only":1},"420682":{"id":"420682","name":"\u8001\u6cb3\u53e3","host":"lhk.ke.com","short":"lhk","province":"\u6e56\u5317\u7701","pinyin":"laohekou","nh_only":1},"430181":{"id":"430181","name":"\u6d4f\u9633","host":"liuyang.ke.com","short":"liuyang","province":"\u6e56\u5357\u7701","pinyin":"liuyang","nh_only":1},"370683":{"id":"370683","name":"\u83b1\u5dde","host":"laizhou.ke.com","short":"laizhou","province":"\u5c71\u4e1c\u7701","pinyin":"laizhou","nh_only":1},"360124":{"id":"360124","name":"\u8fdb\u8d24","host":"jinxian.ke.com","short":"jinxian","province":"\u6c5f\u897f\u7701","pinyin":"jinxian","nh_only":1},"130581":{"id":"130581","name":"\u5357\u5bab","host":"nangong.ke.com","short":"nangong","province":"\u6cb3\u5317\u7701","pinyin":"nangong","nh_only":1},"320113":{"id":"320113","name":"\u6816\u971e","host":"qixia.ke.com","short":"qixia","province":"\u6c5f\u82cf\u7701","pinyin":"qixia","nh_only":1},"370283":{"id":"370283","name":"\u5e73\u5ea6","host":"pd.ke.com","short":"pd","province":"\u5c71\u4e1c\u7701","pinyin":"pingdu","nh_only":1},"330482":{"id":"330482","name":"\u5e73\u6e56","host":"ph.ke.com","short":"ph","province":"\u6d59\u6c5f\u7701","pinyin":"pinghu","nh_only":1},"320382":{"id":"320382","name":"\u90b3\u5dde","host":"pz.ke.com","short":"pz","province":"\u6c5f\u82cf\u7701","pinyin":"peizhou","nh_only":1},"320681":{"id":"320681","name":"\u542f\u4e1c","host":"qidong.ke.com","short":"qidong","province":"\u6c5f\u82cf\u7701","pinyin":"qidong","nh_only":1},"510183":{"id":"510183","name":"\u909b\u5d03","host":"ql.ke.com","short":"ql","province":"\u56db\u5ddd\u7701","pinyin":"qionglai","nh_only":1},"320682":{"id":"320682","name":"\u5982\u768b","host":"rg.ke.com","short":"rg","province":"\u6c5f\u82cf\u7701","pinyin":"rugao","nh_only":1},"130130":{"id":"130130","name":"\u65e0\u6781","host":"wj.ke.com","short":"wj","province":"\u6cb3\u5317\u7701","pinyin":"wuji","nh_only":1},"131182":{"id":"131182","name":"\u6df1\u5dde","host":"shenzhou.ke.com","short":"shenzhou","province":"\u6cb3\u5317\u7701","pinyin":"shenzhou","nh_only":1},"341181":{"id":"341181","name":"\u5929\u957f","host":"tianchang.ke.com","short":"tianchang","province":"\u5b89\u5fbd\u7701","pinyin":"tianchang","nh_only":1},"330483":{"id":"330483","name":"\u6850\u4e61","host":"tongxiang.ke.com","short":"tongxiang","province":"\u6d59\u6c5f\u7701","pinyin":"tongxiang","nh_only":1},"610124":{"id":"610124","name":"\u5468\u81f3","host":"zhouzhi.ke.com","short":"zhouzhi","province":"\u9655\u897f\u7701","pinyin":"zhouzhi","nh_only":1},"410182":{"id":"410182","name":"\u8365\u9633","host":"xingyang.ke.com","short":"xingyang","province":"\u6cb3\u5357\u7701","pinyin":"yingyang","nh_only":1},"410183":{"id":"410183","name":"\u65b0\u5bc6","host":"xinmi.ke.com","short":"xinmi","province":"\u6cb3\u5357\u7701","pinyin":"xinmi","nh_only":1},"320381":{"id":"320381","name":"\u65b0\u6c82","host":"xiny.ke.com","short":"xiny","province":"\u6c5f\u82cf\u7701","pinyin":"xinyi","nh_only":1},"320282":{"id":"320282","name":"\u5b9c\u5174","host":"yixing.ke.com","short":"yixing","province":"\u6c5f\u82cf\u7701","pinyin":"yixing","nh_only":1},"430981":{"id":"430981","name":"\u6c85\u6c5f","host":"yuanjiang.ke.com","short":"yuanjiang","province":"\u6e56\u5357\u7701","pinyin":"yuanjiang","nh_only":1},"411481":{"id":"411481","name":"\u6c38\u57ce","host":"yongcheng.ke.com","short":"yongcheng","province":"\u6cb3\u5357\u7701","pinyin":"yongcheng","nh_only":1},"410381":{"id":"410381","name":"\u5043\u5e08","host":"yanshi.ke.com","short":"yanshi","province":"\u6cb3\u5357\u7701","pinyin":"yanshi","nh_only":1},"330281":{"id":"330281","name":"\u4f59\u59da","host":"yr.ke.com","short":"yr","province":"\u6d59\u6c5f\u7701","pinyin":"yuyao","nh_only":1},"330681":{"id":"330681","name":"\u8bf8\u66a8","host":"zhuji.ke.com","short":"zhuji","province":"\u6d59\u6c5f\u7701","pinyin":"zhuji","nh_only":1},"420683":{"id":"420683","name":"\u67a3\u9633","host":"zaoyang.ke.com","short":"zaoyang","province":"\u6e56\u5317\u7701","pinyin":"zaoyang","nh_only":1},"130681":{"id":"130681","name":"\u6dbf\u5dde","host":"zhuozhou.ke.com","short":"zhuozhou","province":"\u6cb3\u5317\u7701","pinyin":"zhuozhou","nh_only":1},"510781":{"id":"510781","name":"\u6c5f\u6cb9","host":"jiangyou.ke.com","short":"jiangyou","province":"\u56db\u5ddd\u7701","pinyin":"jiangyou","nh_only":1},"371082":{"id":"371082","name":"\u8363\u6210","host":"rongcheng.ke.com","short":"rongcheng","province":"\u5c71\u4e1c\u7701","pinyin":"rongcheng","nh_only":1},"520300":{"id":"520300","name":"\u9075\u4e49","host":"zunyi.ke.com","short":"zunyi","province":"\u8d35\u5dde\u7701","pinyin":"zunyi","nh_only":1}},"classify_list":{"A":[{"id":"210300","name":"\u978d\u5c71","host":"as.ke.com","short":"as","province":"\u8fbd\u5b81","pinyin":"anshan","nh_only":1},{"id":"152900","host":"alsm.ke.com","name":"\u963f\u62c9\u5584\u76df","short":"alsm","province":"\u5185\u8499\u53e4\u81ea\u6cbb\u533a","pinyin":"alashanmeng","nh_only":1},{"id":"231281","host":"ad.ke.com","name":"\u5b89\u8fbe","short":"ad","province":"\u5f85\u5b9a","pinyin":"anda","nh_only":1},{"id":"340800","host":"aq.ke.com","name":"\u5b89\u5e86","short":"aq","province":"\u5b89\u5fbd","pinyin":"anqing"},{"id":"370784","host":"anqiu.ke.com","name":"\u5b89\u4e18","short":"anqiu","province":"\u5f85\u5b9a","pinyin":"anqiu","nh_only":1},{"id":"410500","host":"ay.ke.com","name":"\u5b89\u9633","short":"ay","province":"\u6cb3\u5357","pinyin":"anyang","nh_only":1},{"id":"420982","host":"anlu.ke.com","name":"\u5b89\u9646","short":"anlu","province":"\u5f85\u5b9a","pinyin":"anlu","nh_only":1},{"id":"513231","host":"ab.ke.com","name":"\u963f\u575d","short":"ab","province":"\u5f85\u5b9a","pinyin":"aba","nh_only":1},{"id":"520400","host":"anshun.ke.com","name":"\u5b89\u987a","short":"anshun","province":"\u8d35\u5dde","pinyin":"anshun","nh_only":1},{"id":"530181","host":"an.ke.com","name":"\u5b89\u5b81","short":"an","province":"\u5f85\u5b9a","pinyin":"anning","nh_only":1},{"id":"610900","host":"ak.ke.com","name":"\u5b89\u5eb7","short":"ak","province":"\u9655\u897f","pinyin":"ankang","nh_only":1},{"id":"652901","host":"aks.ke.com","name":"\u963f\u514b\u82cf","short":"aks","province":"\u5f85\u5b9a","pinyin":"akesu","nh_only":1},{"id":"659002","host":"alr.ke.com","name":"\u963f\u62c9\u5c14","short":"alr","province":"\u5f85\u5b9a","pinyin":"alaer","nh_only":1},{"id":"130683","name":"\u5b89\u56fd","host":"ag.ke.com","short":"ag","province":"\u6cb3\u5317\u7701","pinyin":"anguo","nh_only":1}],"B":[{"id":"110000","name":"\u5317\u4eac","host":"bj.ke.com","short":"bj","province":"\u5317\u4eac","pinyin":"beijing"},{"id":"469029","name":"\u4fdd\u4ead","host":"bt.ke.com","short":"bt","province":"\u6d77\u5357","pinyin":"baoting","nh_only":1},{"id":"130600","name":"\u4fdd\u5b9a","host":"baoding.ke.com","short":"baoding","province":"\u6cb3\u5317","pinyin":"baoding"},{"id":"150200","name":"\u5305\u5934","host":"baotou.ke.com","short":"baotou","province":"\u5185\u8499\u53e4","pinyin":"baotou","nh_only":1},{"id":"610300","name":"\u5b9d\u9e21","host":"baoji.ke.com","short":"baoji","province":"\u9655\u897f","pinyin":"baoji"},{"id":"131081","host":"bazhou.ke.com","name":"\u9738\u5dde","short":"bazhou","province":"\u5f85\u5b9a","pinyin":"bazhou","nh_only":1},{"id":"210500","host":"bx.ke.com","name":"\u672c\u6eaa","short":"bx","province":"\u8fbd\u5b81","pinyin":"benxi","nh_only":1},{"id":"220600","host":"bs.ke.com","name":"\u767d\u5c71","short":"bs","province":"\u5409\u6797","pinyin":"baishan","nh_only":1},{"id":"220800","host":"bc.ke.com","name":"\u767d\u57ce","short":"bc","province":"\u5409\u6797","pinyin":"baicheng","nh_only":1},{"id":"340300","host":"bf.ke.com","name":"\u868c\u57e0","short":"bf","province":"\u5b89\u5fbd","pinyin":"bengbu","nh_only":1},{"id":"341600","host":"bozhou.ke.com","name":"\u4eb3\u5dde","short":"bozhou","province":"\u5b89\u5fbd","pinyin":"bozhou","nh_only":1},{"id":"371600","host":"binzhou.ke.com","name":"\u6ee8\u5dde","short":"binzhou","province":"\u5c71\u4e1c","pinyin":"binzhou","nh_only":1},{"id":"450500","host":"bh.ke.com","name":"\u5317\u6d77","short":"bh","province":"\u5e7f\u897f\u58ee\u65cf\u81ea\u6cbb\u533a","pinyin":"beihai"},{"id":"451000","host":"baise.ke.com","name":"\u767e\u8272","short":"baise","province":"\u5e7f\u897f\u58ee\u65cf\u81ea\u6cbb\u533a","pinyin":"bose","nh_only":1},{"id":"511900","host":"bz.ke.com","name":"\u5df4\u4e2d","short":"bz","province":"\u56db\u5ddd","pinyin":"bazhong","nh_only":1},{"id":"520500","host":"bijie.ke.com","name":"\u6bd5\u8282","short":"bijie","province":"\u8d35\u5dde","pinyin":"bijie","nh_only":1},{"id":"530500","host":"baoshan.ke.com","name":"\u4fdd\u5c71","short":"baoshan","province":"\u4e91\u5357","pinyin":"baoshan","nh_only":1},{"id":"620400","host":"by.ke.com","name":"\u767d\u94f6","short":"by","province":"\u7518\u8083","pinyin":"baiyin","nh_only":1},{"id":"652700","host":"brtl.ke.com","name":"\u535a\u5c14\u5854\u62c9","short":"brtl","province":"\u65b0\u7586\u7ef4\u543e\u5c14\u81ea\u6cbb\u533a","pinyin":"boertala","nh_only":1},{"id":"231181","name":"\u5317\u5b89","host":"ba.ke.com","short":"ba","province":"\u9ed1\u9f99\u6c5f\u7701","pinyin":"beian","nh_only":1},{"id":"211381","name":"\u5317\u7968","host":"bp.ke.com","short":"bp","province":"\u8fbd\u5b81\u7701","pinyin":"beipiao","nh_only":1},{"id":"130981","name":"\u6cca\u5934","host":"botou.ke.com","short":"botou","province":"\u6cb3\u5317\u7701","pinyin":"botou","nh_only":1},{"id":"652701","name":"\u535a\u4e50","host":"bole.ke.com","short":"bole","province":"\u65b0\u7586\u7ef4\u543e\u5c14\u81ea\u6cbb\u533a","pinyin":"bole","nh_only":1},{"id":"450981","name":"\u5317\u6d41","host":"bl.ke.com","short":"bl","province":"\u5e7f\u897f\u58ee\u65cf\u81ea\u6cbb\u533a","pinyin":"beiliu","nh_only":1}],"C":[{"id":"510100","name":"\u6210\u90fd","host":"cd.ke.com","short":"cd","province":"\u56db\u5ddd","pinyin":"chengdu"},{"id":"500000","name":"\u91cd\u5e86","host":"cq.ke.com","short":"cq","province":"\u91cd\u5e86","pinyin":"chongqing"},{"id":"430100","name":"\u957f\u6c99","host":"cs.ke.com","short":"cs","province":"\u6e56\u5357","pinyin":"changsha"},{"id":"469023","name":"\u6f84\u8fc8","host":"cm.ke.com","short":"cm","province":"\u6d77\u5357","pinyin":"chengmai","nh_only":1},{"id":"220100","name":"\u957f\u6625","host":"cc.ke.com","short":"cc","province":"\u5409\u6797\u7701","pinyin":"changchun"},{"id":"130900","name":"\u6ca7\u5dde","host":"cangzhou.ke.com","short":"cangzhou","province":"\u6cb3\u5317","pinyin":"cangzhou","nh_only":1},{"id":"320400","name":"\u5e38\u5dde","host":"changzhou.ke.com","short":"changzhou","province":"\u6cb3\u5317","pinyin":"cangzhou"},{"id":"430700","name":"\u5e38\u5fb7","host":"changde.ke.com","short":"changde","province":"\u6e56\u5357","pinyin":"changde"},{"id":"140400","host":"changzhi.ke.com","name":"\u957f\u6cbb","short":"changzhi","province":"\u5c71\u897f","pinyin":"changzhi","nh_only":1},{"id":"150400","host":"cf.ke.com","name":"\u8d64\u5cf0","short":"cf","province":"\u5185\u8499\u53e4\u81ea\u6cbb\u533a","pinyin":"chifeng","nh_only":1},{"id":"211300","host":"chaoyang.ke.com","name":"\u671d\u9633","short":"chaoyang","province":"\u8fbd\u5b81","pinyin":"zhaoyang","nh_only":1},{"id":"220202","host":"cy.ke.com","name":"\u660c\u9091","short":"cy","province":"\u5f85\u5b9a","pinyin":"changyi","nh_only":1},{"id":"320581","host":"changshu.ke.com","name":"\u5e38\u719f","short":"changshu","province":"\u5f85\u5b9a","pinyin":"changshu","nh_only":1},{"id":"341700","host":"chizhou.ke.com","name":"\u6c60\u5dde","short":"chizhou","province":"\u5b89\u5fbd","pinyin":"chizhou","nh_only":1},{"id":"411082","host":"cg.ke.com","name":"\u957f\u845b","short":"cg","province":"\u5f85\u5b9a","pinyin":"changge","nh_only":1},{"id":"431000","host":"chenzhou.ke.com","name":"\u90f4\u5dde","short":"chenzhou","province":"\u6e56\u5357","pinyin":"chenzhou","nh_only":1},{"id":"445100","host":"chaozhou.ke.com","name":"\u6f6e\u5dde","short":"chaozhou","province":"\u5e7f\u4e1c","pinyin":"chaozhou","nh_only":1},{"id":"451400","host":"chongzuo.ke.com","name":"\u5d07\u5de6","short":"chongzuo","province":"\u5e7f\u897f\u58ee\u65cf\u81ea\u6cbb\u533a","pinyin":"chongzuo","nh_only":1},{"id":"520381","host":"chishui.ke.com","name":"\u8d64\u6c34","short":"chishui","province":"\u5f85\u5b9a","pinyin":"chishui","nh_only":1},{"id":"532301","host":"chuxiong.ke.com","name":"\u695a\u96c4","short":"chuxiong","province":"\u5f85\u5b9a","pinyin":"chuxiong","nh_only":1},{"id":"540300","host":"changdu.ke.com","name":"\u660c\u90fd","short":"changdu","province":"\u897f\u85cf\u81ea\u6cbb\u533a","pinyin":"changdu","nh_only":1},{"id":"652301","host":"cj.ke.com","name":"\u660c\u5409","short":"cj","province":"\u5f85\u5b9a","pinyin":"changji","nh_only":1},{"id":"130800","name":"\u627f\u5fb7","host":"chengde.ke.com","short":"chengde","province":"\u6cb3\u5317","pinyin":"chengde","nh_only":1},{"id":"341100","name":"\u6ec1\u5dde","host":"cz.ke.com","short":"cz","province":"\u5b89\u5fbd","pinyin":"chuzhou","nh_only":1},{"id":"421281","name":"\u8d64\u58c1","host":"cb.ke.com","short":"cb","province":"\u6e56\u5317\u7701","pinyin":"chibi","nh_only":1},{"id":"450481","name":"\u5c91\u6eaa","host":"cx.ke.com","short":"cx","province":"\u5e7f\u897f\u58ee\u65cf\u81ea\u6cbb\u533a","pinyin":"cenxi","nh_only":1},{"id":"510184","name":"\u5d07\u5dde","host":"chongzhou.ke.com","short":"chongzhou","province":"\u56db\u5ddd\u7701","pinyin":"chongzhou","nh_only":1},{"id":"330282","name":"\u6148\u6eaa","host":"cixi.ke.com","short":"cixi","province":"\u6d59\u6c5f\u7701","pinyin":"cixi","nh_only":1}],"D":[{"id":"210200","name":"\u5927\u8fde","host":"dl.ke.com","short":"dl","province":"\u8fbd\u5b81","pinyin":"dalian"},{"id":"441900","name":"\u4e1c\u839e","host":"dg.ke.com","short":"dg","province":"\u5e7f\u4e1c","pinyin":"dongguan"},{"id":"469003","name":"\u510b\u5dde","host":"dz.ke.com","short":"dz","province":"\u6d77\u5357","pinyin":"danzhou","nh_only":1},{"id":"469021","name":"\u5b9a\u5b89","host":"da.ke.com","short":"da","province":"\u6d77\u5357","pinyin":"dingan","nh_only":1},{"id":"532900","name":"\u5927\u7406","host":"you.ke.com\/dl1","short":"dl1","province":"\u4e91\u5357","pinyin":"dali","nh_only":1},{"id":"510600","name":"\u5fb7\u9633","host":"dy.ke.com","short":"dy","province":"\u56db\u5ddd","pinyin":"dengyang","nh_only":1},{"id":"511700","name":"\u8fbe\u5dde","host":"dazhou.ke.com","short":"dazhou","province":"\u56db\u5ddd","pinyin":"dazhou"},{"id":"140200","name":"\u5927\u540c","host":"dt.ke.com","short":"dt","province":"\u5c71\u897f","pinyin":"datong","nh_only":1},{"id":"130682","host":"dingzhou.ke.com","name":"\u5b9a\u5dde","short":"dingzhou","province":"\u5f85\u5b9a","pinyin":"dingzhou","nh_only":1},{"id":"210600","host":"dd.ke.com","name":"\u4e39\u4e1c","short":"dd","province":"\u8fbd\u5b81","pinyin":"dandong"},{"id":"210882","host":"dsq.ke.com","name":"\u5927\u77f3\u6865","short":"dsq","province":"\u5f85\u5b9a","pinyin":"dashiqiao","nh_only":1},{"id":"220183","host":"dehui.ke.com","name":"\u5fb7\u60e0","short":"dehui","province":"\u5f85\u5b9a","pinyin":"dehui","nh_only":1},{"id":"230600","host":"dq.ke.com","name":"\u5927\u5e86","short":"dq","province":"\u9ed1\u9f99\u6c5f","pinyin":"daqing","nh_only":1},{"id":"232700","host":"dxal.ke.com","name":"\u5927\u5174\u5b89\u5cad","short":"dxal","province":"\u9ed1\u9f99\u6c5f","pinyin":"daxinganling","nh_only":1},{"id":"320904","host":"df.ke.com","name":"\u5927\u4e30","short":"df","province":"\u5f85\u5b9a","pinyin":"dafeng","nh_only":1},{"id":"320981","host":"dongtai.ke.com","name":"\u4e1c\u53f0","short":"dongtai","province":"\u5f85\u5b9a","pinyin":"dongtai","nh_only":1},{"id":"330783","host":"dongyang.ke.com","name":"\u4e1c\u9633","short":"dongyang","province":"\u5f85\u5b9a","pinyin":"dongyang","nh_only":1},{"id":"361181","host":"dx.ke.com","name":"\u5fb7\u5174","short":"dx","province":"\u5f85\u5b9a","pinyin":"dexing","nh_only":1},{"id":"370500","host":"dongying.ke.com","name":"\u4e1c\u8425","short":"dongying","province":"\u5c71\u4e1c","pinyin":"dongying","nh_only":1},{"id":"371400","host":"dezhou.ke.com","name":"\u5fb7\u5dde","short":"dezhou","province":"\u5c71\u4e1c","pinyin":"dezhou","nh_only":1},{"id":"411381","host":"dengzhou.ke.com","name":"\u9093\u5dde","short":"dengzhou","province":"\u5f85\u5b9a","pinyin":"dengzhou","nh_only":1},{"id":"420582","host":"dangyang.ke.com","name":"\u5f53\u9633","short":"dangyang","province":"\u5f85\u5b9a","pinyin":"dangyang","nh_only":1},{"id":"469007","host":"dongfang.ke.com","name":"\u4e1c\u65b9","short":"dongfang","province":"\u5f85\u5b9a","pinyin":"dongfang","nh_only":1},{"id":"533100","host":"dh.ke.com","name":"\u5fb7\u5b8f","short":"dh","province":"\u4e91\u5357","pinyin":"dehong","nh_only":1},{"id":"533400","host":"diqing.ke.com","name":"\u8fea\u5e86","short":"diqing","province":"\u4e91\u5357","pinyin":"diqing","nh_only":1},{"id":"621100","host":"dingxi.ke.com","name":"\u5b9a\u897f","short":"dingxi","province":"\u7518\u8083","pinyin":"dingxi","nh_only":1},{"id":"222403","name":"\u6566\u5316","host":"dunhua.ke.com","short":"dunhua","province":"\u5409\u6797\u7701","pinyin":"dunhua","nh_only":1},{"id":"321181","name":"\u4e39\u9633","host":"danyang.ke.com","short":"danyang","province":"\u6c5f\u82cf\u7701","pinyin":"danyang","nh_only":1},{"id":"211081","name":"\u706f\u5854","host":"dengta.ke.com","short":"dengta","province":"\u8fbd\u5b81\u7701","pinyin":"dengta","nh_only":1},{"id":"620982","name":"\u6566\u714c","host":"dunhuang.ke.com","short":"dunhuang","province":"\u7518\u8083\u7701","pinyin":"dunhuang","nh_only":1},{"id":"632802","name":"\u5fb7\u4ee4\u54c8","host":"dlh.ke.com","short":"dlh","province":"\u9752\u6d77\u7701","pinyin":"delingha","nh_only":1},{"id":"420281","name":"\u5927\u51b6","host":"dazhi.ke.com","short":"dazhi","province":"\u6e56\u5317\u7701","pinyin":"daye","nh_only":1},{"id":"410185","name":"\u767b\u5c01","host":"dengfeng.ke.com","short":"dengfeng","province":"\u6cb3\u5357\u7701","pinyin":"dengfeng","nh_only":1},{"id":"510181","name":"\u90fd\u6c5f\u5830","host":"djy.ke.com","short":"djy","province":"\u56db\u5ddd\u7701","pinyin":"dujiangyan","nh_only":1},{"id":"210681","name":"\u4e1c\u6e2f","host":"donggang.ke.com","short":"donggang","province":"\u8fbd\u5b81\u7701","pinyin":"donggang","nh_only":1}],"E":[{"id":"150600","name":"\u9102\u5c14\u591a\u65af","host":"eeds.ke.com","short":"eeds","province":"\u5185\u8499\u53e4","pinyin":"ererduosi","nh_only":1},{"id":"420700","host":"ez.ke.com","name":"\u9102\u5dde","short":"ez","province":"\u6e56\u5317","pinyin":"ezhou"},{"id":"422801","host":"es.ke.com","name":"\u6069\u65bd","short":"es","province":"\u5f85\u5b9a","pinyin":"enshi","nh_only":1},{"id":"440785","host":"ep.ke.com","name":"\u6069\u5e73","short":"ep","province":"\u5f85\u5b9a","pinyin":"enping","nh_only":1}],"F":[{"id":"440600","name":"\u4f5b\u5c71","host":"fs.ke.com","short":"fs","province":"\u5e7f\u4e1c","pinyin":"foshan"},{"id":"350100","name":"\u798f\u5dde","host":"fz.ke.com","short":"fz","province":"\u798f\u5efa","pinyin":"fuzhou"},{"id":"341200","name":"\u961c\u9633","host":"fy.ke.com","short":"fy","province":"\u5b89\u5fbd","pinyin":"fuyang","nh_only":1},{"id":"210400","host":"fushun.ke.com","name":"\u629a\u987a","short":"fushun","province":"\u8fbd\u5b81","pinyin":"fushun","nh_only":1},{"id":"360981","host":"fengcheng.ke.com","name":"\u4e30\u57ce","short":"fengcheng","province":"\u5f85\u5b9a","pinyin":"fengcheng","nh_only":1},{"id":"361000","host":"fuzhou.ke.com","name":"\u629a\u5dde","short":"fuzhou","province":"\u6c5f\u897f","pinyin":"fuzhou","nh_only":1},{"id":"370983","host":"fc.ke.com","name":"\u80a5\u57ce","short":"fc","province":"\u5f85\u5b9a","pinyin":"feicheng","nh_only":1},{"id":"450600","host":"fcg.ke.com","name":"\u9632\u57ce\u6e2f","short":"fcg","province":"\u5e7f\u897f\u58ee\u65cf\u81ea\u6cbb\u533a","pinyin":"fangchenggang","nh_only":1},{"id":"652302","host":"fk.ke.com","name":"\u961c\u5eb7","short":"fk","province":"\u5f85\u5b9a","pinyin":"fukang","nh_only":1},{"id":"141182","name":"\u6c7e\u9633","host":"fenyang.ke.com","short":"fenyang","province":"\u5c71\u897f\u7701","pinyin":"fenyang","nh_only":1},{"id":"522702","name":"\u798f\u6cc9","host":"fq.ke.com","short":"fq","province":"\u8d35\u5dde\u7701","pinyin":"fuquan","nh_only":1},{"id":"350981","name":"\u798f\u5b89","host":"fa.ke.com","short":"fa","province":"\u798f\u5efa\u7701","pinyin":"fuan","nh_only":1},{"id":"210682","name":"\u51e4\u57ce","host":"fch.ke.com","short":"fch","province":"\u8fbd\u5b81\u7701","pinyin":"fengcheng","nh_only":1},{"id":"350982","name":"\u798f\u9f0e","host":"fd.ke.com","short":"fd","province":"\u798f\u5efa\u7701","pinyin":"fuding","nh_only":1},{"id":"350181","name":"\u798f\u6e05","host":"fuqing.ke.com","short":"fuqing","province":"\u798f\u5efa\u7701","pinyin":"fuqing","nh_only":1}],"G":[{"id":"440100","name":"\u5e7f\u5dde","host":"gz.ke.com","short":"gz","province":"\u5e7f\u4e1c","pinyin":"guangzhou"},{"id":"520100","name":"\u8d35\u9633","host":"gy.ke.com","short":"gy","province":"\u8d35\u5dde","pinyin":"guiyang"},{"id":"140181","host":"gujiao.ke.com","name":"\u53e4\u4ea4","short":"gujiao","province":"\u5f85\u5b9a","pinyin":"gujiao","nh_only":1},{"id":"210881","host":"gaizhou.ke.com","name":"\u76d6\u5dde","short":"gaizhou","province":"\u5f85\u5b9a","pinyin":"gaizhou","nh_only":1},{"id":"220381","host":"gzl.ke.com","name":"\u516c\u4e3b\u5cad","short":"gzl","province":"\u5f85\u5b9a","pinyin":"gongzhuling","nh_only":1},{"id":"230225","host":"gn.ke.com","name":"\u7518\u5357","short":"gn","province":"\u5f85\u5b9a","pinyin":"gannan","nh_only":1},{"id":"321084","host":"gaoyou.ke.com","name":"\u9ad8\u90ae","short":"gaoyou","province":"\u5f85\u5b9a","pinyin":"gaoyou","nh_only":1},{"id":"360700","host":"ganzhou.ke.com","name":"\u8d63\u5dde","short":"ganzhou","province":"\u6c5f\u897f","pinyin":"ganzhou"},{"id":"370785","host":"gm.ke.com","name":"\u9ad8\u5bc6","short":"gm","province":"\u5f85\u5b9a","pinyin":"gaomi","nh_only":1},{"id":"421381","host":"gs.ke.com","name":"\u5e7f\u6c34","short":"gs","province":"\u5f85\u5b9a","pinyin":"guangshui","nh_only":1},{"id":"440981","host":"gaozhou.ke.com","name":"\u9ad8\u5dde","short":"gaozhou","province":"\u5f85\u5b9a","pinyin":"gaozhou","nh_only":1},{"id":"450300","host":"gl.ke.com","name":"\u6842\u6797","short":"gl","province":"\u5e7f\u897f\u58ee\u65cf\u81ea\u6cbb\u533a","pinyin":"guilin"},{"id":"450800","host":"gg.ke.com","name":"\u8d35\u6e2f","short":"gg","province":"\u5e7f\u897f\u58ee\u65cf\u81ea\u6cbb\u533a","pinyin":"guigang","nh_only":1},{"id":"450881","host":"gp.ke.com","name":"\u6842\u5e73","short":"gp","province":"\u5f85\u5b9a","pinyin":"guiping","nh_only":1},{"id":"511600","host":"ga.ke.com","name":"\u5e7f\u5b89","short":"ga","province":"\u56db\u5ddd","pinyin":"guangan","nh_only":1},{"id":"513328","host":"ganzi.ke.com","name":"\u7518\u5b5c","short":"ganzi","province":"\u5f85\u5b9a","pinyin":"ganzi","nh_only":1},{"id":"640400","host":"guyuan.ke.com","name":"\u56fa\u539f","short":"guyuan","province":"\u5b81\u590f\u56de\u65cf\u81ea\u6cbb\u533a","pinyin":"guyuan","nh_only":1},{"id":"632801","name":"\u683c\u5c14\u6728","host":"grm.ke.com","short":"grm","province":"\u9752\u6d77\u7701","pinyin":"geermu","nh_only":1},{"id":"532501","name":"\u4e2a\u65e7","host":"gejiu.ke.com","short":"gejiu","province":"\u4e91\u5357\u7701","pinyin":"gejiu","nh_only":1},{"id":"360681","name":"\u8d35\u6eaa","host":"gx.ke.com","short":"gx","province":"\u6c5f\u897f\u7701","pinyin":"guixi","nh_only":1},{"id":"130684","name":"\u9ad8\u7891\u5e97","host":"gbd.ke.com","short":"gbd","province":"\u6cb3\u5317\u7701","pinyin":"gaobeidian","nh_only":1}],"H":[{"id":"330100","name":"\u676d\u5dde","host":"hz.ke.com","short":"hz","province":"\u6d59\u6c5f","pinyin":"hangzhou"},{"id":"441300","name":"\u60e0\u5dde","host":"hui.ke.com","short":"hui","province":"\u5e7f\u4e1c","pinyin":"huizhou"},{"id":"460100","name":"\u6d77\u53e3","host":"hk.ke.com","short":"hk","province":"\u6d77\u5357","pinyin":"haikou"},{"id":"340100","name":"\u5408\u80a5","host":"hf.ke.com","short":"hf","province":"\u5b89\u5fbd","pinyin":"hefei"},{"id":"230100","name":"\u54c8\u5c14\u6ee8","host":"hrb.ke.com","short":"hrb","province":"\u9ed1\u9f99\u6c5f","pinyin":"haerbin"},{"id":"320800","name":"\u6dee\u5b89","host":"ha.ke.com","short":"ha","province":"\u6c5f\u82cf","pinyin":"huaian"},{"id":"130400","name":"\u90af\u90f8","host":"hd.ke.com","short":"hd","province":"\u6cb3\u5317","pinyin":"handan","nh_only":1},{"id":"150100","name":"\u547c\u548c\u6d69\u7279","host":"hhht.ke.com","short":"hhht","province":"\u5185\u8499\u53e4","pinyin":"huhehaote"},{"id":"430400","name":"\u8861\u9633","host":"hy.ke.com","short":"hy","province":"\u6e56\u5357","pinyin":"hengyang","nh_only":1},{"id":"330500","name":"\u6e56\u5dde","host":"huzhou.ke.com","short":"huzhou","province":"\u6d59\u6c5f","pinyin":"huzhou"},{"id":"131100","name":"\u8861\u6c34","host":"hs.ke.com","short":"hs","province":"\u6cb3\u5317","pinyin":"hengshui","nh_only":1},{"id":"371700","name":"\u83cf\u6cfd","host":"heze.ke.com","short":"heze","province":"\u5c71\u4e1c","pinyin":"heze","nh_only":1},{"id":"150700","host":"hlbr.ke.com","name":"\u547c\u4f26\u8d1d\u5c14","short":"hlbr","province":"\u5185\u8499\u53e4\u81ea\u6cbb\u533a","pinyin":"hulunbeier","nh_only":1},{"id":"210381","host":"haicheng.ke.com","name":"\u6d77\u57ce","short":"haicheng","province":"\u5f85\u5b9a","pinyin":"haicheng","nh_only":1},{"id":"211400","host":"hld.ke.com","name":"\u846b\u82a6\u5c9b","short":"hld","province":"\u8fbd\u5b81","pinyin":"huludao","nh_only":1},{"id":"220282","host":"huadian.ke.com","name":"\u6866\u7538","short":"huadian","province":"\u5f85\u5b9a","pinyin":"huadian","nh_only":1},{"id":"230400","host":"hegang.ke.com","name":"\u9e64\u5c97","short":"hegang","province":"\u9ed1\u9f99\u6c5f","pinyin":"hegang","nh_only":1},{"id":"231083","host":"hl.ke.com","name":"\u6d77\u6797","short":"hl","province":"\u5f85\u5b9a","pinyin":"hailin","nh_only":1},{"id":"231100","host":"heihe.ke.com","name":"\u9ed1\u6cb3","short":"heihe","province":"\u9ed1\u9f99\u6c5f","pinyin":"heihe","nh_only":1},{"id":"340400","host":"huainan.ke.com","name":"\u6dee\u5357","short":"huainan","province":"\u5b89\u5fbd","pinyin":"huainan","nh_only":1},{"id":"340600","host":"huaibei.ke.com","name":"\u6dee\u5317","short":"huaibei","province":"\u5b89\u5fbd","pinyin":"huaibei","nh_only":1},{"id":"341000","host":"huangshan.ke.com","name":"\u9ec4\u5c71","short":"huangshan","province":"\u5b89\u5fbd","pinyin":"huangshan","nh_only":1},{"id":"341522","host":"hq.ke.com","name":"\u970d\u90b1","short":"hq","province":"\u5f85\u5b9a","pinyin":"huoqiu","nh_only":1},{"id":"410600","host":"hb.ke.com","name":"\u9e64\u58c1","short":"hb","province":"\u6cb3\u5357","pinyin":"hebi","nh_only":1},{"id":"410602","host":"hsh.ke.com","name":"\u9e64\u5c71","short":"hsh","province":"\u5f85\u5b9a","pinyin":"heshan","nh_only":1},{"id":"420200","host":"huangshi.ke.com","name":"\u9ec4\u77f3","short":"huangshi","province":"\u6e56\u5317","pinyin":"huangshi"},{"id":"421083","host":"honghu.ke.com","name":"\u6d2a\u6e56","short":"honghu","province":"\u5f85\u5b9a","pinyin":"honghu","nh_only":1},{"id":"431200","host":"hh.ke.com","name":"\u6000\u5316","short":"hh","province":"\u6e56\u5357","pinyin":"huaihua","nh_only":1},{"id":"431281","host":"hongjiang.ke.com","name":"\u6d2a\u6c5f","short":"hongjiang","province":"\u5f85\u5b9a","pinyin":"hongjiang","nh_only":1},{"id":"440982","host":"huazhou.ke.com","name":"\u5316\u5dde","short":"huazhou","province":"\u5f85\u5b9a","pinyin":"huazhou","nh_only":1},{"id":"441600","host":"heyuan.ke.com","name":"\u6cb3\u6e90","short":"heyuan","province":"\u5e7f\u4e1c","pinyin":"heyuan","nh_only":1},{"id":"451100","host":"hezhou.ke.com","name":"\u8d3a\u5dde","short":"hezhou","province":"\u5e7f\u897f\u58ee\u65cf\u81ea\u6cbb\u533a","pinyin":"hezhou","nh_only":1},{"id":"451200","host":"hc.ke.com","name":"\u6cb3\u6c60","short":"hc","province":"\u5e7f\u897f\u58ee\u65cf\u81ea\u6cbb\u533a","pinyin":"hechi","nh_only":1},{"id":"460000","host":"hn.ke.com","name":"\u6d77\u5357","short":"hn","province":"\u6d77\u5357","pinyin":"hainan","nh_only":1},{"id":"532529","host":"honghe.ke.com","name":"\u7ea2\u6cb3","short":"honghe","province":"\u5f85\u5b9a","pinyin":"honghe","nh_only":1},{"id":"610700","host":"hanzhong.ke.com","name":"\u6c49\u4e2d","short":"hanzhong","province":"\u9655\u897f","pinyin":"hanzhong"},{"id":"630200","host":"haidong.ke.com","name":"\u6d77\u4e1c","short":"haidong","province":"\u9752\u6d77","pinyin":"haidong","nh_only":1},{"id":"632800","host":"haixi.ke.com","name":"\u6d77\u897f","short":"haixi","province":"\u9752\u6d77","pinyin":"haixi","nh_only":1},{"id":"650500","host":"hm.ke.com","name":"\u54c8\u5bc6","short":"hm","province":"\u65b0\u7586\u7ef4\u543e\u5c14\u81ea\u6cbb\u533a","pinyin":"hami","nh_only":1},{"id":"653201","host":"ht.ke.com","name":"\u548c\u7530","short":"ht","province":"\u5f85\u5b9a","pinyin":"hetian","nh_only":1},{"id":"421100","name":"\u9ec4\u5188","host":"hg.ke.com","short":"hg","province":"\u6e56\u5317","pinyin":"huanggang","nh_only":1},{"id":"222404","name":"\u73f2\u6625","host":"hunchun.ke.com","short":"hunchun","province":"\u5409\u6797\u7701","pinyin":"hunchun","nh_only":1},{"id":"130983","name":"\u9ec4\u9a85","host":"huanghua.ke.com","short":"huanghua","province":"\u6cb3\u5317\u7701","pinyin":"huanghua","nh_only":1},{"id":"130984","name":"\u6cb3\u95f4","host":"hj.ke.com","short":"hj","province":"\u6cb3\u5317\u7701","pinyin":"hejian","nh_only":1},{"id":"610581","name":"\u97e9\u57ce","host":"hancheng.ke.com","short":"hancheng","province":"\u9655\u897f\u7701","pinyin":"hancheng","nh_only":1},{"id":"141081","name":"\u4faf\u9a6c","host":"houma.ke.com","short":"houma","province":"\u5c71\u897f\u7701","pinyin":"houma","nh_only":1},{"id":"511681","name":"\u534e\u84e5","host":"huaying.ke.com","short":"huaying","province":"\u56db\u5ddd\u7701","pinyin":"huaying","nh_only":1},{"id":"451381","name":"\u5408\u5c71","host":"heshan.ke.com","short":"heshan","province":"\u5e7f\u897f\u58ee\u65cf\u81ea\u6cbb\u533a","pinyin":"heshan","nh_only":1},{"id":"410782","name":"\u8f89\u53bf","host":"huixian.ke.com","short":"huixian","province":"\u6cb3\u5357\u7701","pinyin":"huixian","nh_only":1},{"id":"141082","name":"\u970d\u5dde","host":"huozhou.ke.com","short":"huozhou","province":"\u5c71\u897f\u7701","pinyin":"huozhou","nh_only":1},{"id":"520382","name":"\u4ec1\u6000","host":"hr.ke.com","short":"hr","province":"\u8d35\u5dde\u7701","pinyin":"renhuai","nh_only":1},{"id":"330481","name":"\u6d77\u5b81","host":"haining.ke.com","short":"haining","province":"\u6d59\u6c5f\u7701","pinyin":"haining","nh_only":1},{"id":"370687","name":"\u6d77\u9633","host":"haiyang.ke.com","short":"haiyang","province":"\u5c71\u4e1c\u7701","pinyin":"haiyang","nh_only":1},{"id":"320684","name":"\u6d77\u95e8","host":"haimen.ke.com","short":"haimen","province":"\u6c5f\u82cf\u7701","pinyin":"haimen","nh_only":1}],"J":[{"id":"370101","name":"\u6d4e\u5357","host":"jn.ke.com","short":"jn","province":"\u5c71\u4e1c","pinyin":"jinan"},{"id":"370800","name":"\u6d4e\u5b81","host":"jining.ke.com","short":"jining","province":"\u5c71\u4e1c","pinyin":"jining","nh_only":1},{"id":"330400","name":"\u5609\u5174","host":"jx.ke.com","short":"jx","province":"\u6d59\u6c5f","pinyin":"jiaxing"},{"id":"330700","name":"\u91d1\u534e","host":"jh.ke.com","short":"jh","province":"\u6d59\u6c5f","pinyin":"jinhua"},{"id":"420800","name":"\u8346\u95e8","host":"jm.ke.com","short":"jm","province":"\u6e56\u5317","pinyin":"jingmen","nh_only":1},{"id":"410800","name":"\u7126\u4f5c","host":"jiaozuo.ke.com","short":"jiaozuo","province":"\u6cb3\u5357","pinyin":"jiaozuo","nh_only":1},{"id":"360800","name":"\u5409\u5b89","host":"jian.ke.com","short":"jian","province":"\u6c5f\u897f","pinyin":"jian"},{"id":"140500","host":"jc.ke.com","name":"\u664b\u57ce","short":"jc","province":"\u5c71\u897f","pinyin":"jincheng","nh_only":1},{"id":"210700","host":"jinzhou.ke.com","name":"\u9526\u5dde","short":"jinzhou","province":"\u8fbd\u5b81","pinyin":"jinzhou","nh_only":1},{"id":"220200","host":"jl.ke.com","name":"\u5409\u6797","short":"jl","province":"\u5409\u6797","pinyin":"jilin"},{"id":"230300","host":"jixi.ke.com","name":"\u9e21\u897f","short":"jixi","province":"\u9ed1\u9f99\u6c5f","pinyin":"jixi","nh_only":1},{"id":"230800","host":"jms.ke.com","name":"\u4f73\u6728\u65af","short":"jms","province":"\u9ed1\u9f99\u6c5f","pinyin":"jiamusi","nh_only":1},{"id":"320413","host":"jt.ke.com","name":"\u91d1\u575b","short":"jt","province":"\u5f85\u5b9a","pinyin":"jintan","nh_only":1},{"id":"321282","host":"jingjiang.ke.com","name":"\u9756\u6c5f","short":"jingjiang","province":"\u5f85\u5b9a","pinyin":"jingjiang","nh_only":1},{"id":"360200","host":"jdz.ke.com","name":"\u666f\u5fb7\u9547","short":"jdz","province":"\u6c5f\u897f","pinyin":"jingdezhen","nh_only":1},{"id":"360400","host":"jiujiang.ke.com","name":"\u4e5d\u6c5f","short":"jiujiang","province":"\u6c5f\u897f","pinyin":"jiujiang"},{"id":"419001","host":"jiyuan.ke.com","name":"\u6d4e\u6e90","short":"jiyuan","province":"\u5f85\u5b9a","pinyin":"jiyuan","nh_only":1},{"id":"421000","host":"jingzhou.ke.com","name":"\u8346\u5dde","short":"jingzhou","province":"\u6e56\u5317","pinyin":"jingzhou","nh_only":1},{"id":"440700","host":"jiangmen.ke.com","name":"\u6c5f\u95e8","short":"jiangmen","province":"\u5e7f\u4e1c","pinyin":"jiangmen"},{"id":"445200","host":"jieyang.ke.com","name":"\u63ed\u9633","short":"jieyang","province":"\u5e7f\u4e1c","pinyin":"jieyang","nh_only":1},{"id":"510185","host":"jianyang.ke.com","name":"\u7b80\u9633","short":"jianyang","province":"\u5f85\u5b9a","pinyin":"jianyang","nh_only":1},{"id":"532801","host":"jinghong.ke.com","name":"\u666f\u6d2a","short":"jinghong","province":"\u5f85\u5b9a","pinyin":"jinghong","nh_only":1},{"id":"620200","host":"jyg.ke.com","name":"\u5609\u5cea\u5173","short":"jyg","province":"\u7518\u8083","pinyin":"jiayuguan","nh_only":1},{"id":"620300","host":"jinchang.ke.com","name":"\u91d1\u660c","short":"jinchang","province":"\u7518\u8083","pinyin":"jinchang","nh_only":1},{"id":"620900","host":"jq.ke.com","name":"\u9152\u6cc9","short":"jq","province":"\u7518\u8083","pinyin":"jiuquan","nh_only":1},{"id":"140700","name":"\u664b\u4e2d","host":"jz.ke.com","short":"jz","province":"\u5c71\u897f","pinyin":"jinzhong","nh_only":1},{"id":"433101","name":"\u5409\u9996","host":"jishou.ke.com","short":"jishou","province":"\u6e56\u5357\u7701","pinyin":"jishou","nh_only":1},{"id":"350783","name":"\u5efa\u74ef","host":"jo.ke.com","short":"jo","province":"\u798f\u5efa\u7701","pinyin":"jianou","nh_only":1},{"id":"220281","name":"\u86df\u6cb3","host":"jiaohe.ke.com","short":"jiaohe","province":"\u5409\u6797\u7701","pinyin":"jiaohe","nh_only":1},{"id":"330182","name":"\u5efa\u5fb7","host":"jd.ke.com","short":"jd","province":"\u6d59\u6c5f\u7701","pinyin":"jiande","nh_only":1},{"id":"131103","name":"\u5180\u5dde","host":"jizhou.ke.com","short":"jizhou","province":"\u6cb3\u5317\u7701","pinyin":"jizhou","nh_only":1},{"id":"321183","name":"\u53e5\u5bb9","host":"jr.ke.com","short":"jr","province":"\u6c5f\u82cf\u7701","pinyin":"jurong","nh_only":1},{"id":"330421","name":"\u5609\u5584","host":"jiashan.ke.com","short":"jiashan","province":"\u6d59\u6c5f\u7701","pinyin":"jiashan","nh_only":1},{"id":"370281","name":"\u80f6\u5dde","host":"jiaozhou.ke.com","short":"jiaozhou","province":"\u5c71\u4e1c\u7701","pinyin":"jiaozhou","nh_only":1},{"id":"360124","name":"\u8fdb\u8d24","host":"jinxian.ke.com","short":"jinxian","province":"\u6c5f\u897f\u7701","pinyin":"jinxian","nh_only":1},{"id":"510781","name":"\u6c5f\u6cb9","host":"jiangyou.ke.com","short":"jiangyou","province":"\u56db\u5ddd\u7701","pinyin":"jiangyou","nh_only":1}],"K":[{"id":"530100","name":"\u6606\u660e","host":"km.ke.com","short":"km","province":"\u4e91\u5357","pinyin":"kunming"},{"id":"440783","host":"kp.ke.com","name":"\u5f00\u5e73","short":"kp","province":"\u5e7f\u4e1c","pinyin":"kaiping","nh_only":1},{"id":"211282","host":"kaiyuan.ke.com","name":"\u5f00\u539f","short":"kaiyuan","province":"\u5f85\u5b9a","pinyin":"kaiyuan","nh_only":1},{"id":"320583","host":"ks.ke.com","name":"\u6606\u5c71","short":"ks","province":"\u5f85\u5b9a","pinyin":"kunshan"},{"id":"410200","host":"kf.ke.com","name":"\u5f00\u5c01","short":"kf","province":"\u6cb3\u5357","pinyin":"kaifeng"},{"id":"522601","host":"kaili.ke.com","name":"\u51ef\u91cc","short":"kaili","province":"\u5f85\u5b9a","pinyin":"kaili","nh_only":1},{"id":"532502","host":"ky.ke.com","name":"\u5f00\u8fdc","short":"ky","province":"\u5f85\u5b9a","pinyin":"kaiyuan","nh_only":1},{"id":"650200","host":"klmy.ke.com","name":"\u514b\u62c9\u739b\u4f9d","short":"klmy","province":"\u65b0\u7586\u7ef4\u543e\u5c14\u81ea\u6cbb\u533a","pinyin":"kelamayi","nh_only":1},{"id":"652801","host":"krl.ke.com","name":"\u5e93\u5c14\u52d2","short":"krl","province":"\u5f85\u5b9a","pinyin":"kuerle","nh_only":1},{"id":"653000","host":"kzls.ke.com","name":"\u514b\u5b5c\u52d2\u82cf","short":"kzls","province":"\u65b0\u7586\u7ef4\u543e\u5c14\u81ea\u6cbb\u533a","pinyin":"kezilesu","nh_only":1},{"id":"653101","host":"kashi.ke.com","name":"\u5580\u4ec0","short":"kashi","province":"\u5f85\u5b9a","pinyin":"kashi","nh_only":1},{"id":"654003","host":"kt.ke.com","name":"\u594e\u5c6f","short":"kt","province":"\u5f85\u5b9a","pinyin":"kuitun","nh_only":1}],"L":[{"id":"469028","name":"\u9675\u6c34","host":"ls.ke.com","short":"ls","province":"\u6d77\u5357","pinyin":"lingshui","nh_only":1},{"id":"131000","name":"\u5eca\u574a","host":"lf.ke.com","short":"lf","province":"\u6cb3\u5317","pinyin":"langfang"},{"id":"469024","name":"\u4e34\u9ad8","host":"lg.ke.com","short":"lg","province":"\u6d77\u5357","pinyin":"lingao","nh_only":1},{"id":"469027","name":"\u4e50\u4e1c","host":"ld.ke.com","short":"ld","province":"\u6d77\u5357","pinyin":"ledong","nh_only":1},{"id":"620100","name":"\u5170\u5dde","host":"lz.ke.com","short":"lz","province":"\u7518\u8083","pinyin":"lanzhou"},{"id":"371300","name":"\u4e34\u6c82","host":"linyi.ke.com","short":"linyi","province":"\u5c71\u4e1c","pinyin":"linyi"},{"id":"410300","name":"\u6d1b\u9633","host":"luoyang.ke.com","short":"luoyang","province":"\u6cb3\u5357","pinyin":"luoyang"},{"id":"320700","name":"\u8fde\u4e91\u6e2f","host":"lyg.ke.com","short":"lyg","province":"\u6c5f\u82cf","pinyin":"lianyungang","nh_only":1},{"id":"371500","name":"\u804a\u57ce","host":"lc.ke.com","short":"lc","province":"\u5c71\u4e1c","pinyin":"liaocheng","nh_only":1},{"id":"140821","host":"lin.ke.com","name":"\u4e34\u7317","short":"lin","province":"\u5f85\u5b9a","pinyin":"linyi","nh_only":1},{"id":"141000","host":"linfen.ke.com","name":"\u4e34\u6c7e","short":"linfen","province":"\u5c71\u897f","pinyin":"linfen","nh_only":1},{"id":"141100","host":"lvliang.ke.com","name":"\u5415\u6881","short":"lvliang","province":"\u5c71\u897f","pinyin":"lvliang","nh_only":1},{"id":"211000","host":"liaoyang.ke.com","name":"\u8fbd\u9633","short":"liaoyang","province":"\u8fbd\u5b81","pinyin":"liaoyang","nh_only":1},{"id":"220400","host":"liaoyuan.ke.com","name":"\u8fbd\u6e90","short":"liaoyuan","province":"\u5409\u6797","pinyin":"liaoyuan","nh_only":1},{"id":"320481","host":"liyang.ke.com","name":"\u6ea7\u9633","short":"liyang","province":"\u5f85\u5b9a","pinyin":"liyang","nh_only":1},{"id":"330781","host":"lanxi.ke.com","name":"\u5170\u6eaa","short":"lanxi","province":"\u5f85\u5b9a","pinyin":"lanxi","nh_only":1},{"id":"331082","host":"lh.ke.com","name":"\u4e34\u6d77","short":"lh","province":"\u5f85\u5b9a","pinyin":"linhai","nh_only":1},{"id":"331100","host":"lishui.ke.com","name":"\u4e3d\u6c34","short":"lishui","province":"\u6d59\u6c5f","pinyin":"lishui","nh_only":1},{"id":"331181","host":"lq.ke.com","name":"\u9f99\u6cc9","short":"lq","province":"\u5f85\u5b9a","pinyin":"longquan","nh_only":1},{"id":"341500","host":"la.ke.com","name":"\u516d\u5b89","short":"la","province":"\u5b89\u5fbd","pinyin":"luan","nh_only":1},{"id":"350681","host":"longhai.ke.com","name":"\u9f99\u6d77","short":"longhai","province":"\u5f85\u5b9a","pinyin":"longhai","nh_only":1},{"id":"360281","host":"lp.ke.com","name":"\u4e50\u5e73","short":"lp","province":"\u5f85\u5b9a","pinyin":"leping","nh_only":1},{"id":"370682","host":"laiyang.ke.com","name":"\u83b1\u9633","short":"laiyang","province":"\u5f85\u5b9a","pinyin":"laiyang","nh_only":1},{"id":"371200","host":"lw.ke.com","name":"\u83b1\u829c","short":"lw","province":"\u5c71\u4e1c","pinyin":"laiwu","nh_only":1},{"id":"371481","host":"ll.ke.com","name":"\u4e50\u9675","short":"ll","province":"\u5f85\u5b9a","pinyin":"leling","nh_only":1},{"id":"371581","host":"linqing.ke.com","name":"\u4e34\u6e05","short":"linqing","province":"\u5f85\u5b9a","pinyin":"linqing","nh_only":1},{"id":"410581","host":"linzhou.ke.com","name":"\u6797\u5dde","short":"linzhou","province":"\u5f85\u5b9a","pinyin":"linzhou","nh_only":1},{"id":"411100","host":"luohe.ke.com","name":"\u6f2f\u6cb3","short":"luohe","province":"\u6cb3\u5357","pinyin":"tahe","nh_only":1},{"id":"430281","host":"liling.ke.com","name":"\u91b4\u9675","short":"liling","province":"\u5f85\u5b9a","pinyin":"liling","nh_only":1},{"id":"430682","host":"linxiang.ke.com","name":"\u4e34\u6e58","short":"linxiang","province":"\u5f85\u5b9a","pinyin":"linxiang","nh_only":1},{"id":"431300","host":"loudi.ke.com","name":"\u5a04\u5e95","short":"loudi","province":"\u6e56\u5357","pinyin":"loudi","nh_only":1},{"id":"440881","host":"lianjiang.ke.com","name":"\u5ec9\u6c5f","short":"lianjiang","province":"\u5f85\u5b9a","pinyin":"lianjiang","nh_only":1},{"id":"440882","host":"leizhou.ke.com","name":"\u96f7\u5dde","short":"leizhou","province":"\u5f85\u5b9a","pinyin":"leizhou","nh_only":1},{"id":"441882","host":"lianzhou.ke.com","name":"\u8fde\u5dde","short":"lianzhou","province":"\u5f85\u5b9a","pinyin":"lianzhou","nh_only":1},{"id":"450200","host":"liuzhou.ke.com","name":"\u67f3\u5dde","short":"liuzhou","province":"\u5e7f\u897f\u58ee\u65cf\u81ea\u6cbb\u533a","pinyin":"liuzhou"},{"id":"451300","host":"lb.ke.com","name":"\u6765\u5bbe","short":"lb","province":"\u5e7f\u897f\u58ee\u65cf\u81ea\u6cbb\u533a","pinyin":"laibin","nh_only":1},{"id":"510500","host":"luzhou.ke.com","name":"\u6cf8\u5dde","short":"luzhou","province":"\u56db\u5ddd","pinyin":"luzhou","nh_only":1},{"id":"513400","host":"liangshan.ke.com","name":"\u51c9\u5c71","short":"liangshan","province":"\u56db\u5ddd","pinyin":"liangshan"},{"id":"520200","host":"lps.ke.com","name":"\u516d\u76d8\u6c34","short":"lps","province":"\u8d35\u5dde","pinyin":"liupanshui","nh_only":1},{"id":"530700","host":"lj.ke.com","name":"\u4e3d\u6c5f","short":"lj","province":"\u4e91\u5357","pinyin":"lijiang","nh_only":1},{"id":"530900","host":"lincang.ke.com","name":"\u4e34\u6ca7","short":"lincang","province":"\u4e91\u5357","pinyin":"lincang","nh_only":1},{"id":"540100","host":"lasa.ke.com","name":"\u62c9\u8428","short":"lasa","province":"\u897f\u85cf\u81ea\u6cbb\u533a","pinyin":"lasa","nh_only":1},{"id":"621200","host":"ln.ke.com","name":"\u9647\u5357","short":"ln","province":"\u7518\u8083","pinyin":"longnan","nh_only":1},{"id":"622901","host":"lx.ke.com","name":"\u4e34\u590f","short":"lx","province":"\u5f85\u5b9a","pinyin":"linxia","nh_only":1},{"id":"511100","name":"\u4e50\u5c71","host":"leshan.ke.com","short":"leshan","province":"\u56db\u5ddd","pinyin":"leshan","nh_only":1},{"id":"350800","name":"\u9f99\u5ca9","host":"ly.ke.com","short":"ly","province":"\u798f\u5efa","pinyin":"longyan","nh_only":1},{"id":"222405","name":"\u9f99\u4e95","host":"longjing.ke.com","short":"longjing","province":"\u5409\u6797\u7701","pinyin":"longjing","nh_only":1},{"id":"220681","name":"\u4e34\u6c5f","host":"linjiang.ke.com","short":"linjiang","province":"\u5409\u6797\u7701","pinyin":"linjiang","nh_only":1},{"id":"211382","name":"\u51cc\u6e90","host":"lingyuan.ke.com","short":"lingyuan","province":"\u8fbd\u5b81\u7701","pinyin":"lingyuan","nh_only":1},{"id":"140481","name":"\u6f5e\u57ce","host":"lucheng.ke.com","short":"lucheng","province":"\u5c71\u897f\u7701","pinyin":"lucheng","nh_only":1},{"id":"422802","name":"\u5229\u5ddd","host":"lichuan.ke.com","short":"lichuan","province":"\u6e56\u5317\u7701","pinyin":"lichuan","nh_only":1},{"id":"431381","name":"\u51b7\u6c34\u6c5f","host":"lsj.ke.com","short":"lsj","province":"\u6e56\u5357\u7701","pinyin":"lengshuijiang","nh_only":1},{"id":"431382","name":"\u6d9f\u6e90","host":"lianyuan.ke.com","short":"lianyuan","province":"\u6e56\u5357\u7701","pinyin":"lianyuan","nh_only":1},{"id":"511381","name":"\u9606\u4e2d","host":"langzhong.ke.com","short":"langzhong","province":"\u56db\u5ddd\u7701","pinyin":"langzhong","nh_only":1},{"id":"440281","name":"\u4e50\u660c","host":"lechang.ke.com","short":"lechang","province":"\u5e7f\u4e1c\u7701","pinyin":"lechang","nh_only":1},{"id":"441581","name":"\u9646\u4e30","host":"lufeng.ke.com","short":"lufeng","province":"\u5e7f\u4e1c\u7701","pinyin":"lufeng","nh_only":1},{"id":"445381","name":"\u7f57\u5b9a","host":"luoding.ke.com","short":"luoding","province":"\u5e7f\u4e1c\u7701","pinyin":"luoding","nh_only":1},{"id":"350122","name":"\u8fde\u6c5f","host":"lianj.ke.com","short":"lianj","province":"\u798f\u5efa\u7701","pinyin":"lianjiang","nh_only":1},{"id":"370285","name":"\u83b1\u897f","host":"laixi.ke.com","short":"laixi","province":"\u5c71\u4e1c\u7701","pinyin":"laixi","nh_only":1},{"id":"420682","name":"\u8001\u6cb3\u53e3","host":"lhk.ke.com","short":"lhk","province":"\u6e56\u5317\u7701","pinyin":"laohekou","nh_only":1},{"id":"430181","name":"\u6d4f\u9633","host":"liuyang.ke.com","short":"liuyang","province":"\u6e56\u5357\u7701","pinyin":"liuyang","nh_only":1},{"id":"370683","name":"\u83b1\u5dde","host":"laizhou.ke.com","short":"laizhou","province":"\u5c71\u4e1c\u7701","pinyin":"laizhou","nh_only":1}],"M":[{"id":"511400","name":"\u7709\u5c71","host":"ms.ke.com","short":"ms","province":"\u56db\u5ddd","pinyin":"meishan"},{"id":"510700","name":"\u7ef5\u9633","host":"mianyang.ke.com","short":"mianyang","province":"\u56db\u5ddd","pinyin":"mianyang"},{"id":"231000","host":"mdj.ke.com","name":"\u7261\u4e39\u6c5f","short":"mdj","province":"\u9ed1\u9f99\u6c5f","pinyin":"mudanjiang","nh_only":1},{"id":"340500","host":"mas.ke.com","name":"\u9a6c\u978d\u5c71","short":"mas","province":"\u5b89\u5fbd","pinyin":"maanshan"},{"id":"341182","host":"mingguang.ke.com","name":"\u660e\u5149","short":"mingguang","province":"\u5f85\u5b9a","pinyin":"mingguang","nh_only":1},{"id":"410883","host":"mengzhou.ke.com","name":"\u5b5f\u5dde","short":"mengzhou","province":"\u5f85\u5b9a","pinyin":"mengzhou","nh_only":1},{"id":"440900","host":"mm.ke.com","name":"\u8302\u540d","short":"mm","province":"\u5e7f\u4e1c","pinyin":"maoming","nh_only":1},{"id":"441400","host":"meizhou.ke.com","name":"\u6885\u5dde","short":"meizhou","province":"\u5e7f\u4e1c","pinyin":"meizhou","nh_only":1},{"id":"230382","name":"\u5bc6\u5c71","host":"mishan.ke.com","short":"mishan","province":"\u9ed1\u9f99\u6c5f\u7701","pinyin":"mishan","nh_only":1},{"id":"150781","name":"\u6ee1\u6d32\u91cc","host":"mzl.ke.com","short":"mzl","province":"\u5185\u8499\u53e4\u81ea\u6cbb\u533a","pinyin":"manzhouli","nh_only":1},{"id":"421181","name":"\u9ebb\u57ce","host":"mc.ke.com","short":"mc","province":"\u6e56\u5317\u7701","pinyin":"macheng","nh_only":1},{"id":"510683","name":"\u7ef5\u7af9","host":"mianzhu.ke.com","short":"mianzhu","province":"\u56db\u5ddd\u7701","pinyin":"mianzhu","nh_only":1}],"N":[{"id":"320100","name":"\u5357\u4eac","host":"nj.ke.com","short":"nj","province":"\u6c5f\u82cf","pinyin":"nanjing"},{"id":"360100","name":"\u5357\u660c","host":"nc.ke.com","short":"nc","province":"\u6c5f\u897f","pinyin":"nanchang"},{"id":"320600","name":"\u5357\u901a","host":"nt.ke.com","short":"nt","province":"\u6c5f\u82cf","pinyin":"nantong"},{"id":"330200","name":"\u5b81\u6ce2","host":"nb.ke.com","short":"nb","province":"\u6d59\u6c5f","pinyin":"ningbo"},{"id":"450100","name":"\u5357\u5b81","host":"nn.ke.com","short":"nn","province":"\u5e7f\u897f","pinyin":"nanning"},{"id":"511300","name":"\u5357\u5145","host":"nanchong.ke.com","short":"nanchong","province":"\u56db\u5ddd","pinyin":"nanchong"},{"id":"411300","name":"\u5357\u9633","host":"ny.ke.com","short":"ny","province":"\u6cb3\u5357","pinyin":"nanyang","nh_only":1},{"id":"230281","host":"nh.ke.com","name":"\u8bb7\u6cb3","short":"nh","province":"\u5f85\u5b9a","pinyin":"nehe","nh_only":1},{"id":"350583","host":"na.ke.com","name":"\u5357\u5b89","short":"na","province":"\u5f85\u5b9a","pinyin":"nanan","nh_only":1},{"id":"350700","host":"np.ke.com","name":"\u5357\u5e73","short":"np","province":"\u798f\u5efa","pinyin":"nanping","nh_only":1},{"id":"350900","host":"nd.ke.com","name":"\u5b81\u5fb7","short":"nd","province":"\u798f\u5efa","pinyin":"ningde","nh_only":1},{"id":"360703","host":"nk.ke.com","name":"\u5357\u5eb7","short":"nk","province":"\u5f85\u5b9a","pinyin":"nankang","nh_only":1},{"id":"511000","host":"neijiang.ke.com","name":"\u5185\u6c5f","short":"neijiang","province":"\u56db\u5ddd","pinyin":"neijiang","nh_only":1},{"id":"533300","host":"nujiang.ke.com","name":"\u6012\u6c5f","short":"nujiang","province":"\u4e91\u5357","pinyin":"nujiang","nh_only":1},{"id":"540600","host":"nq.ke.com","name":"\u90a3\u66f2","short":"nq","province":"\u5f85\u5b9a","pinyin":"naqu","nh_only":1},{"id":"231084","name":"\u5b81\u5b89","host":"ningan.ke.com","short":"ningan","province":"\u9ed1\u9f99\u6c5f\u7701","pinyin":"ningan","nh_only":1},{"id":"341881","name":"\u5b81\u56fd","host":"ng.ke.com","short":"ng","province":"\u5b89\u5fbd\u7701","pinyin":"ningguo","nh_only":1},{"id":"130581","name":"\u5357\u5bab","host":"nangong.ke.com","short":"nangong","province":"\u6cb3\u5317\u7701","pinyin":"nangong","nh_only":1}],"P":[{"id":"210214","host":"pld.ke.com","name":"\u666e\u5170\u5e97","short":"pld","province":"\u5f85\u5b9a","pinyin":"pulandian","nh_only":1},{"id":"211100","host":"pj.ke.com","name":"\u76d8\u9526","short":"pj","province":"\u8fbd\u5b81","pinyin":"panjin","nh_only":1},{"id":"350300","host":"pt.ke.com","name":"\u8386\u7530","short":"pt","province":"\u798f\u5efa","pinyin":"putian","nh_only":1},{"id":"360300","host":"pingxiang.ke.com","name":"\u840d\u4e61","short":"pingxiang","province":"\u6c5f\u897f","pinyin":"pingxiang","nh_only":1},{"id":"410400","host":"pds.ke.com","name":"\u5e73\u9876\u5c71","short":"pds","province":"\u6cb3\u5357","pinyin":"pingdingshan","nh_only":1},{"id":"410900","host":"py.ke.com","name":"\u6fee\u9633","short":"py","province":"\u6cb3\u5357","pinyin":"puyang","nh_only":1},{"id":"445281","host":"pn.ke.com","name":"\u666e\u5b81","short":"pn","province":"\u5f85\u5b9a","pinyin":"puning","nh_only":1},{"id":"510400","host":"pzh.ke.com","name":"\u6500\u679d\u82b1","short":"pzh","province":"\u56db\u5ddd","pinyin":"panzhihua","nh_only":1},{"id":"620800","host":"pl.ke.com","name":"\u5e73\u51c9","short":"pl","province":"\u7518\u8083","pinyin":"pingliang","nh_only":1},{"id":"370283","name":"\u5e73\u5ea6","host":"pd.ke.com","short":"pd","province":"\u5c71\u4e1c\u7701","pinyin":"pingdu","nh_only":1},{"id":"330482","name":"\u5e73\u6e56","host":"ph.ke.com","short":"ph","province":"\u6d59\u6c5f\u7701","pinyin":"pinghu","nh_only":1},{"id":"320382","name":"\u90b3\u5dde","host":"pz.ke.com","short":"pz","province":"\u6c5f\u82cf\u7701","pinyin":"peizhou","nh_only":1}],"Q":[{"id":"370200","name":"\u9752\u5c9b","host":"qd.ke.com","short":"qd","province":"\u5c71\u4e1c","pinyin":"qingdao"},{"id":"469002","name":"\u743c\u6d77","host":"qh.ke.com","short":"qh","province":"\u6d77\u5357","pinyin":"qionghai","nh_only":1},{"id":"469030","name":"\u743c\u4e2d","host":"qz.ke.com","short":"qz","province":"\u6d77\u5357","pinyin":"qiongzhong","nh_only":1},{"id":"350500","name":"\u6cc9\u5dde","host":"quanzhou.ke.com","short":"quanzhou","province":"\u798f\u5efa","pinyin":"quanzhou"},{"id":"130283","host":"qa.ke.com","name":"\u8fc1\u5b89","short":"qa","province":"\u5f85\u5b9a","pinyin":"qianan","nh_only":1},{"id":"140121","host":"qx.ke.com","name":"\u6e05\u5f90","short":"qx","province":"\u5f85\u5b9a","pinyin":"qingxu","nh_only":1},{"id":"230200","host":"qqhr.ke.com","name":"\u9f50\u9f50\u54c8\u5c14","short":"qqhr","province":"\u9ed1\u9f99\u6c5f","pinyin":"qiqihaer","nh_only":1},{"id":"230900","host":"qth.ke.com","name":"\u4e03\u53f0\u6cb3","short":"qth","province":"\u9ed1\u9f99\u6c5f","pinyin":"qitaihe","nh_only":1},{"id":"330800","host":"quzhou.ke.com","name":"\u8862\u5dde","short":"quzhou","province":"\u6d59\u6c5f","pinyin":"quzhou","nh_only":1},{"id":"370781","host":"qingzhou.ke.com","name":"\u9752\u5dde","short":"qingzhou","province":"\u5f85\u5b9a","pinyin":"qingzhou","nh_only":1},{"id":"370881","host":"qf.ke.com","name":"\u66f2\u961c","short":"qf","province":"\u5f85\u5b9a","pinyin":"qufu","nh_only":1},{"id":"410882","host":"qinyang.ke.com","name":"\u6c81\u9633","short":"qinyang","province":"\u5f85\u5b9a","pinyin":"qinyang","nh_only":1},{"id":"429005","host":"qianjiang.ke.com","name":"\u6f5c\u6c5f","short":"qianjiang","province":"\u5f85\u5b9a","pinyin":"qianjiang","nh_only":1},{"id":"450700","host":"qinzhou.ke.com","name":"\u94a6\u5dde","short":"qinzhou","province":"\u5e7f\u897f\u58ee\u65cf\u81ea\u6cbb\u533a","pinyin":"qinzhou","nh_only":1},{"id":"520181","host":"qingzhen.ke.com","name":"\u6e05\u9547","short":"qingzhen","province":"\u5f85\u5b9a","pinyin":"qingzhen","nh_only":1},{"id":"522600","host":"qdn.ke.com","name":"\u9ed4\u4e1c\u5357","short":"qdn","province":"\u8d35\u5dde","pinyin":"qiandongnan","nh_only":1},{"id":"522700","host":"qn.ke.com","name":"\u9ed4\u5357","short":"qn","province":"\u8d35\u5dde","pinyin":"qiannan","nh_only":1},{"id":"530300","host":"qj.ke.com","name":"\u66f2\u9756","short":"qj","province":"\u4e91\u5357","pinyin":"qujing","nh_only":1},{"id":"621000","host":"qingyang.ke.com","name":"\u5e86\u9633","short":"qingyang","province":"\u7518\u8083","pinyin":"qingyang","nh_only":1},{"id":"130300","name":"\u79e6\u7687\u5c9b","host":"qhd.ke.com","short":"qhd","province":"\u6cb3\u5317","pinyin":"qinhuangdao","nh_only":1},{"id":"441800","name":"\u6e05\u8fdc","host":"qy.ke.com","short":"qy","province":"\u5e7f\u4e1c","pinyin":"qingyuan"},{"id":"640381","name":"\u9752\u94dc\u5ce1","host":"qtx.ke.com","short":"qtx","province":"\u5b81\u590f\u56de\u65cf\u81ea\u6cbb\u533a","pinyin":"qingtongxia","nh_only":1},{"id":"320113","name":"\u6816\u971e","host":"qixia.ke.com","short":"qixia","province":"\u6c5f\u82cf\u7701","pinyin":"qixia","nh_only":1},{"id":"320681","name":"\u542f\u4e1c","host":"qidong.ke.com","short":"qidong","province":"\u6c5f\u82cf\u7701","pinyin":"qidong","nh_only":1},{"id":"510183","name":"\u909b\u5d03","host":"ql.ke.com","short":"ql","province":"\u56db\u5ddd\u7701","pinyin":"qionglai","nh_only":1}],"R":[{"id":"130982","host":"rq.ke.com","name":"\u4efb\u4e18","short":"rq","province":"\u5f85\u5b9a","pinyin":"renqiu","nh_only":1},{"id":"330381","host":"ra.ke.com","name":"\u745e\u5b89","short":"ra","province":"\u5f85\u5b9a","pinyin":"ruian","nh_only":1},{"id":"360781","host":"rj.ke.com","name":"\u745e\u91d1","short":"rj","province":"\u5f85\u5b9a","pinyin":"ruijin","nh_only":1},{"id":"371100","host":"rz.ke.com","name":"\u65e5\u7167","short":"rz","province":"\u5c71\u4e1c","pinyin":"rizhao","nh_only":1},{"id":"410482","host":"ruzhou.ke.com","name":"\u6c5d\u5dde","short":"ruzhou","province":"\u5f85\u5b9a","pinyin":"ruzhou","nh_only":1},{"id":"533102","host":"rl.ke.com","name":"\u745e\u4e3d","short":"rl","province":"\u5f85\u5b9a","pinyin":"ruili","nh_only":1},{"id":"540200","host":"rkz.ke.com","name":"\u65e5\u5580\u5219","short":"rkz","province":"\u897f\u85cf\u81ea\u6cbb\u533a","pinyin":"rikaze","nh_only":1},{"id":"360481","name":"\u745e\u660c","host":"rc.ke.com","short":"rc","province":"\u6c5f\u897f\u7701","pinyin":"ruichang","nh_only":1},{"id":"320682","name":"\u5982\u768b","host":"rg.ke.com","short":"rg","province":"\u6c5f\u82cf\u7701","pinyin":"rugao","nh_only":1},{"id":"371082","name":"\u8363\u6210","host":"rongcheng.ke.com","short":"rongcheng","province":"\u5c71\u4e1c\u7701","pinyin":"rongcheng","nh_only":1}],"S":[{"id":"310000","name":"\u4e0a\u6d77","host":"sh.ke.com","short":"sh","province":"\u4e0a\u6d77","pinyin":"shanghai"},{"id":"440300","name":"\u6df1\u5733","host":"sz.ke.com","short":"sz","province":"\u5e7f\u4e1c","pinyin":"shenzhen"},{"id":"320500","name":"\u82cf\u5dde","host":"su.ke.com","short":"su","province":"\u6c5f\u82cf","pinyin":"suzhou"},{"id":"130100","name":"\u77f3\u5bb6\u5e84","host":"sjz.ke.com","short":"sjz","province":"\u6cb3\u5317","pinyin":"shijiazhuang"},{"id":"210100","name":"\u6c88\u9633","host":"sy.ke.com","short":"sy","province":"\u8fbd\u5b81","pinyin":"shenyang"},{"id":"460200","name":"\u4e09\u4e9a","host":"san.ke.com","short":"san","province":"\u6d77\u5357","pinyin":"sanya"},{"id":"440500","name":"\u6c55\u5934","host":"st.ke.com","short":"st","province":"\u5e7f\u4e1c","pinyin":"shantou","nh_only":1},{"id":"330600","name":"\u7ecd\u5174","host":"sx.ke.com","short":"sx","province":"\u6d59\u6c5f","pinyin":"shaoxing"},{"id":"131082","host":"sanhe.ke.com","name":"\u4e09\u6cb3","short":"sanhe","province":"\u5f85\u5b9a","pinyin":"sanhe","nh_only":1},{"id":"220300","host":"sp.ke.com","name":"\u56db\u5e73","short":"sp","province":"\u5409\u6797","pinyin":"siping","nh_only":1},{"id":"220700","host":"songyuan.ke.com","name":"\u677e\u539f","short":"songyuan","province":"\u5409\u6797","pinyin":"songyuan","nh_only":1},{"id":"230183","host":"shangzhi.ke.com","name":"\u5c1a\u5fd7","short":"shangzhi","province":"\u5f85\u5b9a","pinyin":"shangzhi","nh_only":1},{"id":"230500","host":"sys.ke.com","name":"\u53cc\u9e2d\u5c71","short":"sys","province":"\u9ed1\u9f99\u6c5f","pinyin":"shuangyashan","nh_only":1},{"id":"231200","host":"suihua.ke.com","name":"\u7ee5\u5316","short":"suihua","province":"\u9ed1\u9f99\u6c5f","pinyin":"suihua","nh_only":1},{"id":"321300","host":"sq.ke.com","name":"\u5bbf\u8fc1","short":"sq","province":"\u6c5f\u82cf","pinyin":"suqian","nh_only":1},{"id":"321322","host":"shuyang.ke.com","name":"\u6cad\u9633","short":"shuyang","province":"\u5f85\u5b9a","pinyin":"shuyang","nh_only":1},{"id":"341300","host":"suzhou.ke.com","name":"\u5bbf\u5dde","short":"suzhou","province":"\u5b89\u5fbd","pinyin":"suzhou","nh_only":1},{"id":"350400","host":"sm.ke.com","name":"\u4e09\u660e","short":"sm","province":"\u798f\u5efa","pinyin":"sanming","nh_only":1},{"id":"350581","host":"shishi.ke.com","name":"\u77f3\u72ee","short":"shishi","province":"\u5f85\u5b9a","pinyin":"shishi","nh_only":1},{"id":"361100","host":"sr.ke.com","name":"\u4e0a\u9976","short":"sr","province":"\u6c5f\u897f","pinyin":"shangrao"},{"id":"370783","host":"shouguang.ke.com","name":"\u5bff\u5149","short":"shouguang","province":"\u5f85\u5b9a","pinyin":"shouguang","nh_only":1},{"id":"411400","host":"shangqiu.ke.com","name":"\u5546\u4e18","short":"shangqiu","province":"\u6cb3\u5357","pinyin":"shangqiu","nh_only":1},{"id":"420300","host":"shiyan.ke.com","name":"\u5341\u5830","short":"shiyan","province":"\u6e56\u5317","pinyin":"shiyan","nh_only":1},{"id":"421081","host":"shishou.ke.com","name":"\u77f3\u9996","short":"shishou","province":"\u5f85\u5b9a","pinyin":"shishou","nh_only":1},{"id":"421087","host":"songzi.ke.com","name":"\u677e\u6ecb","short":"songzi","province":"\u5f85\u5b9a","pinyin":"songzi","nh_only":1},{"id":"430500","host":"shaoyang.ke.com","name":"\u90b5\u9633","short":"shaoyang","province":"\u6e56\u5357","pinyin":"shaoyang","nh_only":1},{"id":"440200","host":"shaoguan.ke.com","name":"\u97f6\u5173","short":"shaoguan","province":"\u5e7f\u4e1c","pinyin":"shaoguan","nh_only":1},{"id":"440606","host":"sd.ke.com","name":"\u987a\u5fb7","short":"sd","province":"\u5f85\u5b9a","pinyin":"shunde","nh_only":1},{"id":"441500","host":"sw.ke.com","name":"\u6c55\u5c3e","short":"sw","province":"\u5e7f\u4e1c","pinyin":"shanwei","nh_only":1},{"id":"510900","host":"sn.ke.com","name":"\u9042\u5b81","short":"sn","province":"\u56db\u5ddd","pinyin":"suining","nh_only":1},{"id":"611000","host":"sl.ke.com","name":"\u5546\u6d1b","short":"sl","province":"\u9655\u897f","pinyin":"shangluo","nh_only":1},{"id":"640200","host":"szs.ke.com","name":"\u77f3\u5634\u5c71","short":"szs","province":"\u5b81\u590f\u56de\u65cf\u81ea\u6cbb\u533a","pinyin":"shizuishan","nh_only":1},{"id":"330683","name":"\u5d4a\u5dde","host":"shengzhou.ke.com","short":"shengzhou","province":"\u6d59\u6c5f\u7701","pinyin":"shengzhou","nh_only":1},{"id":"231081","name":"\u7ee5\u82ac\u6cb3","host":"sfh.ke.com","short":"sfh","province":"\u9ed1\u9f99\u6c5f\u7701","pinyin":"suifenhe","nh_only":1},{"id":"510682","name":"\u4ec0\u90a1","host":"sf.ke.com","short":"sf","province":"\u56db\u5ddd\u7701","pinyin":"shenfang","nh_only":1},{"id":"350781","name":"\u90b5\u6b66","host":"shaowu.ke.com","short":"shaowu","province":"\u798f\u5efa\u7701","pinyin":"shaowu","nh_only":1},{"id":"430382","name":"\u97f6\u5c71","host":"ss.ke.com","short":"ss","province":"\u6e56\u5357\u7701","pinyin":"shaoshan","nh_only":1},{"id":"131182","name":"\u6df1\u5dde","host":"shenzhou.ke.com","short":"shenzhou","province":"\u6cb3\u5317\u7701","pinyin":"shenzhou","nh_only":1}],"T":[{"id":"120000","name":"\u5929\u6d25","host":"tj.ke.com","short":"tj","province":"\u5929\u6d25","pinyin":"tianjin"},{"id":"140100","name":"\u592a\u539f","host":"ty.ke.com","short":"ty","province":"\u5c71\u897f","pinyin":"taiyuan"},{"id":"321200","name":"\u6cf0\u5dde","host":"tz.ke.com","short":"tz","province":"\u6cf0\u5dde","pinyin":"taizhou","nh_only":1},{"id":"130200","name":"\u5510\u5c71","host":"ts.ke.com","short":"ts","province":"\u6cb3\u5317","pinyin":"tangshan"},{"id":"331000","name":"\u53f0\u5dde","host":"taizhou.ke.com","short":"taizhou","province":"\u6d59\u6c5f","pinyin":"taizhou"},{"id":"370900","name":"\u6cf0\u5b89","host":"ta.ke.com","short":"ta","province":"\u5c71\u4e1c","pinyin":"taian","nh_only":1},{"id":"150500","host":"tongliao.ke.com","name":"\u901a\u8fbd","short":"tongliao","province":"\u5185\u8499\u53e4\u81ea\u6cbb\u533a","pinyin":"tongliao","nh_only":1},{"id":"211200","host":"tieling.ke.com","name":"\u94c1\u5cad","short":"tieling","province":"\u8fbd\u5b81","pinyin":"tieling","nh_only":1},{"id":"220500","host":"tonghua.ke.com","name":"\u901a\u5316","short":"tonghua","province":"\u5409\u6797","pinyin":"tonghua","nh_only":1},{"id":"321283","host":"tx.ke.com","name":"\u6cf0\u5174","short":"tx","province":"\u5f85\u5b9a","pinyin":"taixing","nh_only":1},{"id":"340700","host":"tl.ke.com","name":"\u94dc\u9675","short":"tl","province":"\u5b89\u5fbd","pinyin":"tongling","nh_only":1},{"id":"340881","host":"tc.ke.com","name":"\u6850\u57ce","short":"tc","province":"\u5f85\u5b9a","pinyin":"tongcheng","nh_only":1},{"id":"370481","host":"tengzhou.ke.com","name":"\u6ed5\u5dde","short":"tengzhou","province":"\u5f85\u5b9a","pinyin":"tengzhou","nh_only":1},{"id":"429006","host":"tm.ke.com","name":"\u5929\u95e8","short":"tm","province":"\u5f85\u5b9a","pinyin":"tianmen","nh_only":1},{"id":"440781","host":"taishan.ke.com","name":"\u53f0\u5c71","short":"taishan","province":"\u5f85\u5b9a","pinyin":"taishan","nh_only":1},{"id":"520600","host":"tr.ke.com","name":"\u94dc\u4ec1","short":"tr","province":"\u8d35\u5dde","pinyin":"tongren","nh_only":1},{"id":"610200","host":"tongchuan.ke.com","name":"\u94dc\u5ddd","short":"tongchuan","province":"\u9655\u897f","pinyin":"tongchuan","nh_only":1},{"id":"620500","host":"tianshui.ke.com","name":"\u5929\u6c34","short":"tianshui","province":"\u7518\u8083","pinyin":"tianshui","nh_only":1},{"id":"650400","host":"tlf.ke.com","name":"\u5410\u9c81\u756a","short":"tlf","province":"\u65b0\u7586\u7ef4\u543e\u5c14\u81ea\u6cbb\u533a","pinyin":"tulufan","nh_only":1},{"id":"230781","name":"\u94c1\u529b","host":"tieli.ke.com","short":"tieli","province":"\u9ed1\u9f99\u6c5f\u7701","pinyin":"tieli","nh_only":1},{"id":"341181","name":"\u5929\u957f","host":"tianchang.ke.com","short":"tianchang","province":"\u5b89\u5fbd\u7701","pinyin":"tianchang","nh_only":1},{"id":"330483","name":"\u6850\u4e61","host":"tongxiang.ke.com","short":"tongxiang","province":"\u6d59\u6c5f\u7701","pinyin":"tongxiang","nh_only":1}],"V":[{"id":"666666","name":"\u6d4b\u8bd5\u57ce\u5e02","host":"vi.ke.com","short":"vi","province":"\u65e0","pinyin":"ceshichengshi"}],"W":[{"id":"420100","name":"\u6b66\u6c49","host":"wh.ke.com","short":"wh","province":"\u6e56\u5317","pinyin":"wuhan"},{"id":"320200","name":"\u65e0\u9521","host":"wx.ke.com","short":"wx","province":"\u6c5f\u82cf","pinyin":"wuxi"},{"id":"469005","name":"\u6587\u660c","host":"wc.ke.com","short":"wc","province":"\u6d77\u5357","pinyin":"wenchang","nh_only":1},{"id":"469006","name":"\u4e07\u5b81","host":"wn.ke.com","short":"wn","province":"\u6d77\u5357","pinyin":"wanning","nh_only":1},{"id":"469001","name":"\u4e94\u6307\u5c71","host":"wzs.ke.com","short":"wzs","province":"\u6d77\u5357","pinyin":"wuzhishan","nh_only":1},{"id":"340200","name":"\u829c\u6e56","host":"wuhu.ke.com","short":"wuhu","province":"\u5b89\u5fbd\u7701","pinyin":"wuhu"},{"id":"370700","name":"\u6f4d\u574a","host":"wf.ke.com","short":"wf","province":"\u5c71\u4e1c","pinyin":"weifang"},{"id":"330300","name":"\u6e29\u5dde","host":"wz.ke.com","short":"wz","province":"\u6d59\u6c5f","pinyin":"wenzhou"},{"id":"650100","name":"\u4e4c\u9c81\u6728\u9f50","host":"wlmq.ke.com","short":"wlmq","province":"\u65b0\u7586","pinyin":"wulumuqi","nh_only":1},{"id":"371000","name":"\u5a01\u6d77","host":"weihai.ke.com","short":"weihai","province":"\u5c71\u4e1c","pinyin":"weihai"},{"id":"130481","host":"wa.ke.com","name":"\u6b66\u5b89","short":"wa","province":"\u5f85\u5b9a","pinyin":"wuan","nh_only":1},{"id":"150300","host":"wuhai.ke.com","name":"\u4e4c\u6d77","short":"wuhai","province":"\u5185\u8499\u53e4\u81ea\u6cbb\u533a","pinyin":"wuhai","nh_only":1},{"id":"150900","host":"wlcb.ke.com","name":"\u4e4c\u5170\u5bdf\u5e03","short":"wlcb","province":"\u5185\u8499\u53e4\u81ea\u6cbb\u533a","pinyin":"wulanchabu","nh_only":1},{"id":"210281","host":"wfd.ke.com","name":"\u74e6\u623f\u5e97","short":"wfd","province":"\u5f85\u5b9a","pinyin":"wafangdian","nh_only":1},{"id":"230184","host":"wuchang.ke.com","name":"\u4e94\u5e38","short":"wuchang","province":"\u5f85\u5b9a","pinyin":"wuchang","nh_only":1},{"id":"331081","host":"wl.ke.com","name":"\u6e29\u5cad","short":"wl","province":"\u5f85\u5b9a","pinyin":"wenling","nh_only":1},{"id":"410481","host":"wugang.ke.com","name":"\u821e\u94a2","short":"wugang","province":"\u5f85\u5b9a","pinyin":"wugang","nh_only":1},{"id":"440883","host":"wuchuan.ke.com","name":"\u5434\u5ddd","short":"wuchuan","province":"\u5f85\u5b9a","pinyin":"wuchuan","nh_only":1},{"id":"450400","host":"wuzhou.ke.com","name":"\u68a7\u5dde","short":"wuzhou","province":"\u5e7f\u897f\u58ee\u65cf\u81ea\u6cbb\u533a","pinyin":"wuzhou","nh_only":1},{"id":"532601","host":"ws.ke.com","name":"\u6587\u5c71","short":"ws","province":"\u5f85\u5b9a","pinyin":"wenshan","nh_only":1},{"id":"610500","host":"weinan.ke.com","name":"\u6e2d\u5357","short":"weinan","province":"\u9655\u897f","pinyin":"weinan","nh_only":1},{"id":"620600","host":"ww.ke.com","name":"\u6b66\u5a01","short":"ww","province":"\u7518\u8083","pinyin":"wuwei","nh_only":1},{"id":"640300","host":"wuzhong.ke.com","name":"\u5434\u5fe0","short":"wuzhong","province":"\u5b81\u590f\u56de\u65cf\u81ea\u6cbb\u533a","pinyin":"wuzhong","nh_only":1},{"id":"410781","name":"\u536b\u8f89","host":"weihui.ke.com","short":"weihui","province":"\u6cb3\u5357\u7701","pinyin":"weihui","nh_only":1},{"id":"430581","name":"\u6b66\u5188","host":"wg.ke.com","short":"wg","province":"\u6e56\u5357\u7701","pinyin":"wugang","nh_only":1},{"id":"231182","name":"\u4e94\u5927\u8fde\u6c60","host":"wdlc.ke.com","short":"wdlc","province":"\u9ed1\u9f99\u6c5f\u7701","pinyin":"wudalianchi","nh_only":1},{"id":"421182","name":"\u6b66\u7a74","host":"wuxue.ke.com","short":"wuxue","province":"\u6e56\u5317\u7701","pinyin":"wuxue","nh_only":1},{"id":"511781","name":"\u4e07\u6e90","host":"wy.ke.com","short":"wy","province":"\u56db\u5ddd\u7701","pinyin":"wanyuan","nh_only":1},{"id":"130130","name":"\u65e0\u6781","host":"wj.ke.com","short":"wj","province":"\u6cb3\u5317\u7701","pinyin":"wuji","nh_only":1}],"X":[{"id":"350200","name":"\u53a6\u95e8","host":"xm.ke.com","short":"xm","province":"\u798f\u5efa","pinyin":"xiamen"},{"id":"610100","name":"\u897f\u5b89","host":"xa.ke.com","short":"xa","province":"\u9655\u897f","pinyin":"xian"},{"id":"320300","name":"\u5f90\u5dde","host":"xz.ke.com","short":"xz","province":"\u6c5f\u82cf"},{"id":"532800","name":"\u897f\u53cc\u7248\u7eb3","host":"xsbn.ke.com","short":"xsbn","province":"\u4e91\u5357","pinyin":"xishuangbanna","nh_only":1},{"id":"420600","name":"\u8944\u9633","host":"xy.ke.com","short":"xy","province":"\u6e56\u5317","pinyin":"xiangyang"},{"id":"130500","name":"\u90a2\u53f0","host":"xt.ke.com","short":"xt","province":"\u6cb3\u5317","pinyin":"xingtai","nh_only":1},{"id":"630100","name":"\u897f\u5b81","host":"xining.ke.com","short":"xining","province":"\u9752\u6d77","pinyin":"xining","nh_only":1},{"id":"420900","name":"\u5b5d\u611f","host":"xg.ke.com","short":"xg","province":"\u6e56\u5317","pinyin":"xiaogan","nh_only":1},{"id":"410700","name":"\u65b0\u4e61","host":"xinxiang.ke.com","short":"xinxiang","province":"\u6cb3\u5357","pinyin":"xinxiang"},{"id":"130184","host":"xl.ke.com","name":"\u65b0\u4e50","short":"xl","province":"\u5f85\u5b9a","pinyin":"xinle","nh_only":1},{"id":"140900","host":"xinzhou.ke.com","name":"\u5ffb\u5dde","short":"xinzhou","province":"\u5c71\u897f","pinyin":"xinzhou","nh_only":1},{"id":"152502","host":"xlht.ke.com","name":"\u9521\u6797\u6d69\u7279","short":"xlht","province":"\u5f85\u5b9a","pinyin":"xilinhaote","nh_only":1},{"id":"210181","host":"xinmin.ke.com","name":"\u65b0\u6c11","short":"xinmin","province":"\u5f85\u5b9a","pinyin":"xinmin","nh_only":1},{"id":"341800","host":"xuancheng.ke.com","name":"\u5ba3\u57ce","short":"xuancheng","province":"\u5b89\u5fbd","pinyin":"xuancheng","nh_only":1},{"id":"360500","host":"xinyu.ke.com","name":"\u65b0\u4f59","short":"xinyu","province":"\u6c5f\u897f","pinyin":"xinyu","nh_only":1},{"id":"370982","host":"xintai.ke.com","name":"\u65b0\u6cf0","short":"xintai","province":"\u5f85\u5b9a","pinyin":"xintai","nh_only":1},{"id":"411000","host":"xc.ke.com","name":"\u8bb8\u660c","short":"xc","province":"\u6cb3\u5357","pinyin":"xuchang"},{"id":"411500","host":"xinyang.ke.com","name":"\u4fe1\u9633","short":"xinyang","province":"\u6cb3\u5357","pinyin":"xinyang","nh_only":1},{"id":"429004","host":"xiantao.ke.com","name":"\u4ed9\u6843","short":"xiantao","province":"\u5f85\u5b9a","pinyin":"xiantao","nh_only":1},{"id":"430300","host":"xiangtan.ke.com","name":"\u6e58\u6f6d","short":"xiangtan","province":"\u6e56\u5357","pinyin":"xiangtan","nh_only":1},{"id":"430381","host":"xiangxiang.ke.com","name":"\u6e58\u4e61","short":"xiangxiang","province":"\u5f85\u5b9a","pinyin":"xiangxiang","nh_only":1},{"id":"433100","host":"xx.ke.com","name":"\u6e58\u897f","short":"xx","province":"\u6e56\u5357","pinyin":"xiangxi","nh_only":1},{"id":"441481","host":"xingning.ke.com","name":"\u5174\u5b81","short":"xingning","province":"\u5f85\u5b9a","pinyin":"xingning","nh_only":1},{"id":"610400","host":"xianyang.ke.com","name":"\u54b8\u9633","short":"xianyang","province":"\u9655\u897f","pinyin":"xianyang"},{"id":"421200","name":"\u54b8\u5b81","host":"xn.ke.com","short":"xn","province":"\u6e56\u5317","pinyin":"xianning","nh_only":1},{"id":"888886","host":"xan.ke.com","name":"\u96c4\u5b89\u65b0\u533a","short":"xan","province":"\u6cb3\u5317","pinyin":"xiongan"},{"id":"152500","name":"\u9521\u6797\u90ed\u52d2\u76df","host":"xlglm.ke.com","short":"xlglm","province":"\u5185\u8499\u53e4\u81ea\u6cbb\u533a","pinyin":"xilinguolemeng","nh_only":1},{"id":"610481","name":"\u5174\u5e73","host":"xp.ke.com","short":"xp","province":"\u9655\u897f\u7701","pinyin":"xingping","nh_only":1},{"id":"513401","name":"\u897f\u660c","host":"xichang.ke.com","short":"xichang","province":"\u56db\u5ddd\u7701","pinyin":"xichang","nh_only":1},{"id":"522301","name":"\u5174\u4e49","host":"xingyi.ke.com","short":"xingyi","province":"\u8d35\u5dde\u7701","pinyin":"xingyi","nh_only":1},{"id":"530381","name":"\u5ba3\u5a01","host":"xw.ke.com","short":"xw","province":"\u4e91\u5357\u7701","pinyin":"xuanwei","nh_only":1},{"id":"411681","name":"\u9879\u57ce","host":"xiangcheng.ke.com","short":"xiangcheng","province":"\u6cb3\u5357\u7701","pinyin":"xiangcheng","nh_only":1},{"id":"211481","name":"\u5174\u57ce","host":"xingcheng.ke.com","short":"xingcheng","province":"\u8fbd\u5b81\u7701","pinyin":"xingcheng","nh_only":1},{"id":"410182","name":"\u8365\u9633","host":"xingyang.ke.com","short":"xingyang","province":"\u6cb3\u5357\u7701","pinyin":"yingyang","nh_only":1},{"id":"410183","name":"\u65b0\u5bc6","host":"xinmi.ke.com","short":"xinmi","province":"\u6cb3\u5357\u7701","pinyin":"xinmi","nh_only":1},{"id":"320381","name":"\u65b0\u6c82","host":"xiny.ke.com","short":"xiny","province":"\u6c5f\u82cf\u7701","pinyin":"xinyi","nh_only":1}],"Y":[{"id":"370600","name":"\u70df\u53f0","host":"yt.ke.com","short":"yt","province":"\u5c71\u4e1c","pinyin":"yantai"},{"id":"320900","name":"\u76d0\u57ce","host":"yc.ke.com","short":"yc","province":"\u6c5f\u82cf","pinyin":"yancheng"},{"id":"321000","name":"\u626c\u5dde","host":"yz.ke.com","short":"yz","province":"\u6c5f\u82cf","pinyin":"yangzhou","nh_only":1},{"id":"420500","name":"\u5b9c\u660c","host":"yichang.ke.com","short":"yichang","province":"\u6e56\u5317","pinyin":"yichang"},{"id":"210800","name":"\u8425\u53e3","host":"yk.ke.com","short":"yk","province":"\u8fbd\u5b81","pinyin":"yingkou","nh_only":1},{"id":"640100","name":"\u94f6\u5ddd","host":"yinchuan.ke.com","short":"yinchuan","province":"\u5b81\u590f","pinyin":"yinchuan"},{"id":"140300","host":"yq.ke.com","name":"\u9633\u6cc9","short":"yq","province":"\u5c71\u897f","pinyin":"yangquan","nh_only":1},{"id":"140800","host":"yuncheng.ke.com","name":"\u8fd0\u57ce","short":"yuncheng","province":"\u5c71\u897f","pinyin":"yuncheng","nh_only":1},{"id":"220182","host":"yushu.ke.com","name":"\u6986\u6811","short":"yushu","province":"\u5f85\u5b9a","pinyin":"yushu","nh_only":1},{"id":"222400","host":"yb.ke.com","name":"\u5ef6\u8fb9","short":"yb","province":"\u5409\u6797","pinyin":"yanbian","nh_only":1},{"id":"230700","host":"yichun.ke.com","name":"\u4f0a\u6625","short":"yichun","province":"\u9ed1\u9f99\u6c5f","pinyin":"yichun","nh_only":1},{"id":"321081","host":"yizheng.ke.com","name":"\u4eea\u5f81","short":"yizheng","province":"\u5f85\u5b9a","pinyin":"yizheng","nh_only":1},{"id":"330782","host":"yw.ke.com","name":"\u4e49\u4e4c","short":"yw","province":"\u5f85\u5b9a","pinyin":"yiwu","nh_only":1},{"id":"330784","host":"yongkang.ke.com","name":"\u6c38\u5eb7","short":"yongkang","province":"\u5f85\u5b9a","pinyin":"yongkang","nh_only":1},{"id":"350481","host":"yongan.ke.com","name":"\u6c38\u5b89","short":"yongan","province":"\u5f85\u5b9a","pinyin":"yongan","nh_only":1},{"id":"360600","host":"yingtan.ke.com","name":"\u9e70\u6f6d","short":"yingtan","province":"\u6c5f\u897f","pinyin":"yingtan","nh_only":1},{"id":"360900","host":"ych.ke.com","name":"\u5b9c\u6625","short":"ych","province":"\u6c5f\u897f","pinyin":"yichun","nh_only":1},{"id":"371482","host":"yucheng.ke.com","name":"\u79b9\u57ce","short":"yucheng","province":"\u5f85\u5b9a","pinyin":"yucheng","nh_only":1},{"id":"411024","host":"yanling.ke.com","name":"\u9122\u9675","short":"yanling","province":"\u5f85\u5b9a","pinyin":"yanling","nh_only":1},{"id":"411081","host":"yuzhou.ke.com","name":"\u79b9\u5dde","short":"yuzhou","province":"\u5f85\u5b9a","pinyin":"yuzhou","nh_only":1},{"id":"420581","host":"yd.ke.com","name":"\u5b9c\u90fd","short":"yd","province":"\u5f85\u5b9a","pinyin":"yidu","nh_only":1},{"id":"420981","host":"yingcheng.ke.com","name":"\u5e94\u57ce","short":"yingcheng","province":"\u5f85\u5b9a","pinyin":"yingcheng","nh_only":1},{"id":"430600","host":"yy.ke.com","name":"\u5cb3\u9633","short":"yy","province":"\u6e56\u5357","pinyin":"yueyang"},{"id":"430900","host":"yiyang.ke.com","name":"\u76ca\u9633","short":"yiyang","province":"\u6e56\u5357","pinyin":"yiyang","nh_only":1},{"id":"431100","host":"yongzhou.ke.com","name":"\u6c38\u5dde","short":"yongzhou","province":"\u6e56\u5357","pinyin":"yongzhou","nh_only":1},{"id":"441700","host":"yangjiang.ke.com","name":"\u9633\u6c5f","short":"yangjiang","province":"\u5e7f\u4e1c","pinyin":"yangjiang","nh_only":1},{"id":"441781","host":"yangchun.ke.com","name":"\u9633\u6625","short":"yangchun","province":"\u5f85\u5b9a","pinyin":"yangchun","nh_only":1},{"id":"441881","host":"yingde.ke.com","name":"\u82f1\u5fb7","short":"yingde","province":"\u5f85\u5b9a","pinyin":"yingde","nh_only":1},{"id":"450900","host":"yl.ke.com","name":"\u7389\u6797","short":"yl","province":"\u5e7f\u897f\u58ee\u65cf\u81ea\u6cbb\u533a","pinyin":"yulin","nh_only":1},{"id":"511500","host":"yibin.ke.com","name":"\u5b9c\u5bbe","short":"yibin","province":"\u56db\u5ddd","pinyin":"yibin","nh_only":1},{"id":"511800","host":"yaan.ke.com","name":"\u96c5\u5b89","short":"yaan","province":"\u56db\u5ddd","pinyin":"yaan","nh_only":1},{"id":"530400","host":"yx.ke.com","name":"\u7389\u6eaa","short":"yx","province":"\u4e91\u5357","pinyin":"yuxi","nh_only":1},{"id":"610600","host":"ya.ke.com","name":"\u5ef6\u5b89","short":"ya","province":"\u9655\u897f","pinyin":"yanan","nh_only":1},{"id":"610800","host":"yulin.ke.com","name":"\u6986\u6797","short":"yulin","province":"\u9655\u897f","pinyin":"yulin","nh_only":1},{"id":"620981","host":"ym.ke.com","name":"\u7389\u95e8","short":"ym","province":"\u5f85\u5b9a","pinyin":"yumen","nh_only":1},{"id":"654000","host":"yili.ke.com","name":"\u4f0a\u7281","short":"yili","province":"\u65b0\u7586\u7ef4\u543e\u5c14\u81ea\u6cbb\u533a","pinyin":"yili","nh_only":1},{"id":"222401","name":"\u5ef6\u5409","host":"yj.ke.com","short":"yj","province":"\u5409\u6797\u7701","pinyin":"yanji","nh_only":1},{"id":"654002","name":"\u4f0a\u5b81","host":"yining.ke.com","short":"yining","province":"\u65b0\u7586\u7ef4\u543e\u5c14\u81ea\u6cbb\u533a","pinyin":"yining","nh_only":1},{"id":"140881","name":"\u6c38\u6d4e","host":"yongji.ke.com","short":"yongji","province":"\u5c71\u897f\u7701","pinyin":"yongji","nh_only":1},{"id":"451281","name":"\u5b9c\u5dde","host":"yizhou.ke.com","short":"yizhou","province":"\u5e7f\u897f\u58ee\u65cf\u81ea\u6cbb\u533a","pinyin":"yizhou","nh_only":1},{"id":"320282","name":"\u5b9c\u5174","host":"yixing.ke.com","short":"yixing","province":"\u6c5f\u82cf\u7701","pinyin":"yixing","nh_only":1},{"id":"430981","name":"\u6c85\u6c5f","host":"yuanjiang.ke.com","short":"yuanjiang","province":"\u6e56\u5357\u7701","pinyin":"yuanjiang","nh_only":1},{"id":"411481","name":"\u6c38\u57ce","host":"yongcheng.ke.com","short":"yongcheng","province":"\u6cb3\u5357\u7701","pinyin":"yongcheng","nh_only":1},{"id":"410381","name":"\u5043\u5e08","host":"yanshi.ke.com","short":"yanshi","province":"\u6cb3\u5357\u7701","pinyin":"yanshi","nh_only":1},{"id":"330281","name":"\u4f59\u59da","host":"yr.ke.com","short":"yr","province":"\u6d59\u6c5f\u7701","pinyin":"yuyao","nh_only":1}],"Z":[{"id":"442000","name":"\u4e2d\u5c71","host":"zs.ke.com","short":"zs","province":"\u5e7f\u4e1c","pinyin":"zhongshan"},{"id":"440400","name":"\u73e0\u6d77","host":"zh.ke.com","short":"zh","province":"\u5e7f\u4e1c","pinyin":"zhuhai"},{"id":"410100","name":"\u90d1\u5dde","host":"zz.ke.com","short":"zz","province":"\u6cb3\u5357","pinyin":"zhengzhou"},{"id":"321100","name":"\u9547\u6c5f","host":"zj.ke.com","short":"zj","province":"\u6c5f\u82cf","pinyin":"zhenjiang"},{"id":"370300","name":"\u6dc4\u535a","host":"zb.ke.com","short":"zb","province":"\u5c71\u4e1c","pinyin":"zibo"},{"id":"430200","name":"\u682a\u6d32","host":"zhuzhou.ke.com","short":"zhuzhou","province":"\u6e56\u5357","pinyin":"zhuzhou"},{"id":"370400","name":"\u67a3\u5e84","host":"zaozhuang.ke.com","short":"zaozhuang","province":"\u5c71\u4e1c","pinyin":"zaozhuang","nh_only":1},{"id":"130133","host":"zhaoxian.ke.com","name":"\u8d75\u53bf","short":"zhaoxian","province":"\u5f85\u5b9a","pinyin":"zhaoxian","nh_only":1},{"id":"130281","host":"zhunhua.ke.com","name":"\u9075\u5316","short":"zhunhua","province":"\u5f85\u5b9a","pinyin":"zunhua","nh_only":1},{"id":"210283","host":"zhuanghe.ke.com","name":"\u5e84\u6cb3","short":"zhuanghe","province":"\u5f85\u5b9a","pinyin":"zhuanghe","nh_only":1},{"id":"231282","host":"zhaodong.ke.com","name":"\u8087\u4e1c","short":"zhaodong","province":"\u5f85\u5b9a","pinyin":"zhaodong","nh_only":1},{"id":"320582","host":"zjg.ke.com","name":"\u5f20\u5bb6\u6e2f","short":"zjg","province":"\u5f85\u5b9a","pinyin":"zhangjiagang","nh_only":1},{"id":"330900","host":"zhoushan.ke.com","name":"\u821f\u5c71","short":"zhoushan","province":"\u6d59\u6c5f","pinyin":"zhoushan","nh_only":1},{"id":"370181","host":"zhangqiu.ke.com","name":"\u7ae0\u4e18","short":"zhangqiu","province":"\u5f85\u5b9a","pinyin":"zhangqiu","nh_only":1},{"id":"370685","host":"zhaoyuan.ke.com","name":"\u62db\u8fdc","short":"zhaoyuan","province":"\u5f85\u5b9a","pinyin":"zhaoyuan","nh_only":1},{"id":"370782","host":"zhucheng.ke.com","name":"\u8bf8\u57ce","short":"zhucheng","province":"\u5f85\u5b9a","pinyin":"zhucheng","nh_only":1},{"id":"370883","host":"zc.ke.com","name":"\u90b9\u57ce","short":"zc","province":"\u5f85\u5b9a","pinyin":"zoucheng","nh_only":1},{"id":"411600","host":"zk.ke.com","name":"\u5468\u53e3","short":"zk","province":"\u6cb3\u5357","pinyin":"zhoukou","nh_only":1},{"id":"411700","host":"zmd.ke.com","name":"\u9a7b\u9a6c\u5e97","short":"zmd","province":"\u6cb3\u5357","pinyin":"zhumadian","nh_only":1},{"id":"420583","host":"zhijiang.ke.com","name":"\u679d\u6c5f","short":"zhijiang","province":"\u5f85\u5b9a","pinyin":"zhijiang","nh_only":1},{"id":"420881","host":"zhongxiang.ke.com","name":"\u949f\u7965","short":"zhongxiang","province":"\u5f85\u5b9a","pinyin":"zhongxiang","nh_only":1},{"id":"430800","host":"zjj.ke.com","name":"\u5f20\u5bb6\u754c","short":"zjj","province":"\u6e56\u5357","pinyin":"zhangjiajie","nh_only":1},{"id":"440800","host":"zhanjiang.ke.com","name":"\u6e5b\u6c5f","short":"zhanjiang","province":"\u5e7f\u4e1c","pinyin":"zhanjiang"},{"id":"441200","host":"zq.ke.com","name":"\u8087\u5e86","short":"zq","province":"\u5e7f\u4e1c","pinyin":"zhaoqing","nh_only":1},{"id":"510300","host":"zg.ke.com","name":"\u81ea\u8d21","short":"zg","province":"\u56db\u5ddd","pinyin":"zigong","nh_only":1},{"id":"512000","host":"ziyang.ke.com","name":"\u8d44\u9633","short":"ziyang","province":"\u56db\u5ddd","pinyin":"ziyang","nh_only":1},{"id":"530600","host":"zt.ke.com","name":"\u662d\u901a","short":"zt","province":"\u4e91\u5357","pinyin":"zhaotong","nh_only":1},{"id":"620700","host":"zy.ke.com","name":"\u5f20\u6396","short":"zy","province":"\u7518\u8083","pinyin":"zhangye","nh_only":1},{"id":"640500","host":"zw.ke.com","name":"\u4e2d\u536b","short":"zw","province":"\u5b81\u590f\u56de\u65cf\u81ea\u6cbb\u533a","pinyin":"zhongwei","nh_only":1},{"id":"130700","name":"\u5f20\u5bb6\u53e3","host":"zjk.ke.com","short":"zjk","province":"\u6cb3\u5317","pinyin":"zhangjiakou"},{"id":"350600","name":"\u6f33\u5dde","host":"zhangzhou.ke.com","short":"zhangzhou","province":"\u798f\u5efa","pinyin":"zhangzhou"},{"id":"431081","name":"\u8d44\u5174","host":"zx.ke.com","short":"zx","province":"\u6e56\u5357\u7701","pinyin":"zixing","nh_only":1},{"id":"360982","name":"\u6a1f\u6811","host":"zhangshu.ke.com","short":"zhangshu","province":"\u6c5f\u897f\u7701","pinyin":"zhangshu","nh_only":1},{"id":"610124","name":"\u5468\u81f3","host":"zhouzhi.ke.com","short":"zhouzhi","province":"\u9655\u897f\u7701","pinyin":"zhouzhi","nh_only":1},{"id":"330681","name":"\u8bf8\u66a8","host":"zhuji.ke.com","short":"zhuji","province":"\u6d59\u6c5f\u7701","pinyin":"zhuji","nh_only":1},{"id":"420683","name":"\u67a3\u9633","host":"zaoyang.ke.com","short":"zaoyang","province":"\u6e56\u5317\u7701","pinyin":"zaoyang","nh_only":1},{"id":"130681","name":"\u6dbf\u5dde","host":"zhuozhou.ke.com","short":"zhuozhou","province":"\u6cb3\u5317\u7701","pinyin":"zhuozhou","nh_only":1},{"id":"520300","name":"\u9075\u4e49","host":"zunyi.ke.com","short":"zunyi","province":"\u8d35\u5dde\u7701","pinyin":"zunyi","nh_only":1}]},"has_new":1,"sign":"bbbe8e5151fcb44b2ca4aa41a2d73b42"}}