{"has_new":1,"classify_list":{"A":[{"pinyin":"anshan","province":"辽宁","nh_only":1,"name":"鞍山","host":"as.ke.com","short":"as","id":"210300"},{"pinyin":"alashanmeng","province":"内蒙古自治区","nh_only":1,"host":"alsm.ke.com","name":"阿拉善盟","short":"alsm","id":"152900"},{"pinyin":"anda","province":"待定","nh_only":1,"host":"ad.ke.com","name":"安达","short":"ad","id":"231281"},{"pinyin":"anqing","province":"安徽","host":"aq.ke.com","name":"安庆","short":"aq","id":"340800"},{"pinyin":"anqiu","province":"待定","nh_only":1,"host":"anqiu.ke.com","name":"安丘","short":"anqiu","id":"370784"},{"pinyin":"anyang","province":"河南","nh_only":1,"host":"ay.ke.com","name":"安阳","short":"ay","id":"410500"},{"pinyin":"anlu","province":"待定","nh_only":1,"host":"anlu.ke.com","name":"安陆","short":"anlu","id":"420982"},{"pinyin":"aba","province":"待定","nh_only":1,"host":"ab.ke.com","name":"阿坝","short":"ab","id":"513231"},{"pinyin":"anshun","province":"贵州","nh_only":1,"host":"anshun.ke.com","name":"安顺","short":"anshun","id":"520400"},{"pinyin":"anning","province":"待定","nh_only":1,"host":"an.ke.com","name":"安宁","short":"an","id":"530181"},{"pinyin":"ankang","province":"陕西","nh_only":1,"host":"ak.ke.com","name":"安康","short":"ak","id":"610900"},{"pinyin":"akesu","province":"待定","nh_only":1,"host":"aks.ke.com","name":"阿克苏","short":"aks","id":"652901"},{"pinyin":"alaer","province":"待定","nh_only":1,"host":"alr.ke.com","name":"阿拉尔","short":"alr","id":"659002"},{"pinyin":"anguo","province":"河北省","nh_only":1,"name":"安国","host":"ag.ke.com","short":"ag","id":"130683"}],"B":[{"pinyin":"beijing","province":"北京","name":"北京","host":"bj.ke.com","short":"bj","id":"110000"},{"pinyin":"baoting","province":"海南","nh_only":1,"name":"保亭","host":"bt.ke.com","short":"bt","id":"469029"},{"pinyin":"baoding","province":"河北","name":"保定","host":"baoding.ke.com","short":"baoding","id":"130600"},{"pinyin":"baotou","province":"内蒙古","nh_only":1,"name":"包头","host":"baotou.ke.com","short":"baotou","id":"150200"},{"pinyin":"baoji","province":"陕西","name":"宝鸡","host":"baoji.ke.com","short":"baoji","id":"610300"},{"pinyin":"bazhou","province":"待定","nh_only":1,"host":"bazhou.ke.com","name":"霸州","short":"bazhou","id":"131081"},{"pinyin":"benxi","province":"辽宁","nh_only":1,"host":"bx.ke.com","name":"本溪","short":"bx","id":"210500"},{"pinyin":"baishan","province":"吉林","nh_only":1,"host":"bs.ke.com","name":"白山","short":"bs","id":"220600"},{"pinyin":"baicheng","province":"吉林","nh_only":1,"host":"bc.ke.com","name":"白城","short":"bc","id":"220800"},{"pinyin":"bengbu","province":"安徽","nh_only":1,"host":"bf.ke.com","name":"蚌埠","short":"bf","id":"340300"},{"pinyin":"bozhou","province":"安徽","nh_only":1,"host":"bozhou.ke.com","name":"亳州","short":"bozhou","id":"341600"},{"pinyin":"binzhou","province":"山东","nh_only":1,"host":"binzhou.ke.com","name":"滨州","short":"binzhou","id":"371600"},{"pinyin":"beihai","province":"广西壮族自治区","host":"bh.ke.com","name":"北海","short":"bh","id":"450500"},{"pinyin":"bose","province":"广西壮族自治区","nh_only":1,"host":"baise.ke.com","name":"百色","short":"baise","id":"451000"},{"pinyin":"bazhong","province":"四川","nh_only":1,"host":"bz.ke.com","name":"巴中","short":"bz","id":"511900"},{"pinyin":"bijie","province":"贵州","nh_only":1,"host":"bijie.ke.com","name":"毕节","short":"bijie","id":"520500"},{"pinyin":"baoshan","province":"云南","nh_only":1,"host":"baoshan.ke.com","name":"保山","short":"baoshan","id":"530500"},{"pinyin":"baiyin","province":"甘肃","nh_only":1,"host":"by.ke.com","name":"白银","short":"by","id":"620400"},{"pinyin":"boertala","province":"新疆维吾尔自治区","nh_only":1,"host":"brtl.ke.com","name":"博尔塔拉","short":"brtl","id":"652700"},{"pinyin":"beian","province":"黑龙江省","nh_only":1,"name":"北安","host":"ba.ke.com","short":"ba","id":"231181"},{"pinyin":"beipiao","province":"辽宁省","nh_only":1,"name":"北票","host":"bp.ke.com","short":"bp","id":"211381"},{"pinyin":"botou","province":"河北省","nh_only":1,"name":"泊头","host":"botou.ke.com","short":"botou","id":"130981"},{"pinyin":"bole","province":"新疆维吾尔自治区","nh_only":1,"name":"博乐","host":"bole.ke.com","short":"bole","id":"652701"},{"pinyin":"beiliu","province":"广西壮族自治区","nh_only":1,"name":"北流","host":"bl.ke.com","short":"bl","id":"450981"}],"C":[{"pinyin":"chengdu","province":"四川","name":"成都","host":"cd.ke.com","short":"cd","id":"510100"},{"pinyin":"chongqing","province":"重庆","name":"重庆","host":"cq.ke.com","short":"cq","id":"500000"},{"pinyin":"changsha","province":"湖南","name":"长沙","host":"cs.ke.com","short":"cs","id":"430100"},{"pinyin":"chengmai","province":"海南","nh_only":1,"name":"澄迈","host":"cm.ke.com","short":"cm","id":"469023"},{"pinyin":"changchun","province":"吉林省","name":"长春","host":"cc.ke.com","short":"cc","id":"220100"},{"pinyin":"cangzhou","province":"河北","nh_only":1,"name":"沧州","host":"cangzhou.ke.com","short":"cangzhou","id":"130900"},{"pinyin":"cangzhou","province":"河北","name":"常州","host":"changzhou.ke.com","short":"changzhou","id":"320400"},{"pinyin":"changde","province":"湖南","name":"常德","host":"changde.ke.com","short":"changde","id":"430700"},{"pinyin":"changzhi","province":"山西","nh_only":1,"host":"changzhi.ke.com","name":"长治","short":"changzhi","id":"140400"},{"pinyin":"chifeng","province":"内蒙古自治区","nh_only":1,"host":"cf.ke.com","name":"赤峰","short":"cf","id":"150400"},{"pinyin":"zhaoyang","province":"辽宁","nh_only":1,"host":"chaoyang.ke.com","name":"朝阳","short":"chaoyang","id":"211300"},{"pinyin":"changyi","province":"待定","nh_only":1,"host":"cy.ke.com","name":"昌邑","short":"cy","id":"220202"},{"pinyin":"changshu","province":"待定","nh_only":1,"host":"changshu.ke.com","name":"常熟","short":"changshu","id":"320581"},{"pinyin":"chizhou","province":"安徽","nh_only":1,"host":"chizhou.ke.com","name":"池州","short":"chizhou","id":"341700"},{"pinyin":"changge","province":"待定","nh_only":1,"host":"cg.ke.com","name":"长葛","short":"cg","id":"411082"},{"pinyin":"chenzhou","province":"湖南","nh_only":1,"host":"chenzhou.ke.com","name":"郴州","short":"chenzhou","id":"431000"},{"pinyin":"chaozhou","province":"广东","nh_only":1,"host":"chaozhou.ke.com","name":"潮州","short":"chaozhou","id":"445100"},{"pinyin":"chongzuo","province":"广西壮族自治区","nh_only":1,"host":"chongzuo.ke.com","name":"崇左","short":"chongzuo","id":"451400"},{"pinyin":"chishui","province":"待定","nh_only":1,"host":"chishui.ke.com","name":"赤水","short":"chishui","id":"520381"},{"pinyin":"chuxiong","province":"待定","nh_only":1,"host":"chuxiong.ke.com","name":"楚雄","short":"chuxiong","id":"532301"},{"pinyin":"changdu","province":"西藏自治区","nh_only":1,"host":"changdu.ke.com","name":"昌都","short":"changdu","id":"540300"},{"pinyin":"changji","province":"待定","nh_only":1,"host":"cj.ke.com","name":"昌吉","short":"cj","id":"652301"},{"pinyin":"chengde","province":"河北","nh_only":1,"name":"承德","host":"chengde.ke.com","short":"chengde","id":"130800"},{"pinyin":"chuzhou","province":"安徽","nh_only":1,"name":"滁州","host":"cz.ke.com","short":"cz","id":"341100"},{"pinyin":"chibi","province":"湖北省","nh_only":1,"name":"赤壁","host":"cb.ke.com","short":"cb","id":"421281"},{"pinyin":"cenxi","province":"广西壮族自治区","nh_only":1,"name":"岑溪","host":"cx.ke.com","short":"cx","id":"450481"},{"pinyin":"chongzhou","province":"四川省","nh_only":1,"name":"崇州","host":"chongzhou.ke.com","short":"chongzhou","id":"510184"},{"pinyin":"cixi","province":"浙江省","nh_only":1,"name":"慈溪","host":"cixi.ke.com","short":"cixi","id":"330282"}],"D":[{"pinyin":"dalian","province":"辽宁","name":"大连","host":"dl.ke.com","short":"dl","id":"210200"},{"pinyin":"dongguan","province":"广东","name":"东莞","host":"dg.ke.com","short":"dg","id":"441900"},{"pinyin":"danzhou","province":"海南","nh_only":1,"name":"儋州","host":"dz.ke.com","short":"dz","id":"469003"},{"pinyin":"dingan","province":"海南","nh_only":1,"name":"定安","host":"da.ke.com","short":"da","id":"469021"},{"pinyin":"dali","province":"云南","nh_only":1,"name":"大理","host":"you.ke.com/dl1","short":"dl1","id":"532900"},{"pinyin":"dengyang","province":"四川","nh_only":1,"name":"德阳","host":"dy.ke.com","short":"dy","id":"510600"},{"pinyin":"dazhou","province":"四川","name":"达州","host":"dazhou.ke.com","short":"dazhou","id":"511700"},{"pinyin":"datong","province":"山西","nh_only":1,"name":"大同","host":"dt.ke.com","short":"dt","id":"140200"},{"pinyin":"dingzhou","province":"待定","nh_only":1,"host":"dingzhou.ke.com","name":"定州","short":"dingzhou","id":"130682"},{"pinyin":"dandong","province":"辽宁","host":"dd.ke.com","name":"丹东","short":"dd","id":"210600"},{"pinyin":"dashiqiao","province":"待定","nh_only":1,"host":"dsq.ke.com","name":"大石桥","short":"dsq","id":"210882"},{"pinyin":"dehui","province":"待定","nh_only":1,"host":"dehui.ke.com","name":"德惠","short":"dehui","id":"220183"},{"pinyin":"daqing","province":"黑龙江","nh_only":1,"host":"dq.ke.com","name":"大庆","short":"dq","id":"230600"},{"pinyin":"daxinganling","province":"黑龙江","nh_only":1,"host":"dxal.ke.com","name":"大兴安岭","short":"dxal","id":"232700"},{"pinyin":"dafeng","province":"待定","nh_only":1,"host":"df.ke.com","name":"大丰","short":"df","id":"320904"},{"pinyin":"dongtai","province":"待定","nh_only":1,"host":"dongtai.ke.com","name":"东台","short":"dongtai","id":"320981"},{"pinyin":"dongyang","province":"待定","nh_only":1,"host":"dongyang.ke.com","name":"东阳","short":"dongyang","id":"330783"},{"pinyin":"dexing","province":"待定","nh_only":1,"host":"dx.ke.com","name":"德兴","short":"dx","id":"361181"},{"pinyin":"dongying","province":"山东","nh_only":1,"host":"dongying.ke.com","name":"东营","short":"dongying","id":"370500"},{"pinyin":"dezhou","province":"山东","nh_only":1,"host":"dezhou.ke.com","name":"德州","short":"dezhou","id":"371400"},{"pinyin":"dengzhou","province":"待定","nh_only":1,"host":"dengzhou.ke.com","name":"邓州","short":"dengzhou","id":"411381"},{"pinyin":"dangyang","province":"待定","nh_only":1,"host":"dangyang.ke.com","name":"当阳","short":"dangyang","id":"420582"},{"pinyin":"dongfang","province":"待定","nh_only":1,"host":"dongfang.ke.com","name":"东方","short":"dongfang","id":"469007"},{"pinyin":"dehong","province":"云南","nh_only":1,"host":"dh.ke.com","name":"德宏","short":"dh","id":"533100"},{"pinyin":"diqing","province":"云南","nh_only":1,"host":"diqing.ke.com","name":"迪庆","short":"diqing","id":"533400"},{"pinyin":"dingxi","province":"甘肃","nh_only":1,"host":"dingxi.ke.com","name":"定西","short":"dingxi","id":"621100"},{"pinyin":"dunhua","province":"吉林省","nh_only":1,"name":"敦化","host":"dunhua.ke.com","short":"dunhua","id":"222403"},{"pinyin":"danyang","province":"江苏省","nh_only":1,"name":"丹阳","host":"danyang.ke.com","short":"danyang","id":"321181"},{"pinyin":"dengta","province":"辽宁省","nh_only":1,"name":"灯塔","host":"dengta.ke.com","short":"dengta","id":"211081"},{"pinyin":"dunhuang","province":"甘肃省","nh_only":1,"name":"敦煌","host":"dunhuang.ke.com","short":"dunhuang","id":"620982"},{"pinyin":"delingha","province":"青海省","nh_only":1,"name":"德令哈","host":"dlh.ke.com","short":"dlh","id":"632802"},{"pinyin":"daye","province":"湖北省","nh_only":1,"name":"大冶","host":"dazhi.ke.com","short":"dazhi","id":"420281"},{"pinyin":"dengfeng","province":"河南省","nh_only":1,"name":"登封","host":"dengfeng.ke.com","short":"dengfeng","id":"410185"},{"pinyin":"dujiangyan","province":"四川省","nh_only":1,"name":"都江堰","host":"djy.ke.com","short":"djy","id":"510181"},{"pinyin":"donggang","province":"辽宁省","nh_only":1,"name":"东港","host":"donggang.ke.com","short":"donggang","id":"210681"}],"E":[{"pinyin":"ererduosi","province":"内蒙古","nh_only":1,"name":"鄂尔多斯","host":"eeds.ke.com","short":"eeds","id":"150600"},{"pinyin":"ezhou","province":"湖北","host":"ez.ke.com","name":"鄂州","short":"ez","id":"420700"},{"pinyin":"enshi","province":"待定","nh_only":1,"host":"es.ke.com","name":"恩施","short":"es","id":"422801"},{"pinyin":"enping","province":"待定","nh_only":1,"host":"ep.ke.com","name":"恩平","short":"ep","id":"440785"}],"F":[{"pinyin":"foshan","province":"广东","name":"佛山","host":"fs.ke.com","short":"fs","id":"440600"},{"pinyin":"fuzhou","province":"福建","name":"福州","host":"fz.ke.com","short":"fz","id":"350100"},{"pinyin":"fuyang","province":"安徽","nh_only":1,"name":"阜阳","host":"fy.ke.com","short":"fy","id":"341200"},{"pinyin":"fushun","province":"辽宁","nh_only":1,"host":"fushun.ke.com","name":"抚顺","short":"fushun","id":"210400"},{"pinyin":"fengcheng","province":"待定","nh_only":1,"host":"fengcheng.ke.com","name":"丰城","short":"fengcheng","id":"360981"},{"pinyin":"fuzhou","province":"江西","nh_only":1,"host":"fuzhou.ke.com","name":"抚州","short":"fuzhou","id":"361000"},{"pinyin":"feicheng","province":"待定","nh_only":1,"host":"fc.ke.com","name":"肥城","short":"fc","id":"370983"},{"pinyin":"fangchenggang","province":"广西壮族自治区","nh_only":1,"host":"fcg.ke.com","name":"防城港","short":"fcg","id":"450600"},{"pinyin":"fukang","province":"待定","nh_only":1,"host":"fk.ke.com","name":"阜康","short":"fk","id":"652302"},{"pinyin":"fenyang","province":"山西省","nh_only":1,"name":"汾阳","host":"fenyang.ke.com","short":"fenyang","id":"141182"},{"pinyin":"fuquan","province":"贵州省","nh_only":1,"name":"福泉","host":"fq.ke.com","short":"fq","id":"522702"},{"pinyin":"fuan","province":"福建省","nh_only":1,"name":"福安","host":"fa.ke.com","short":"fa","id":"350981"},{"pinyin":"fengcheng","province":"辽宁省","nh_only":1,"name":"凤城","host":"fch.ke.com","short":"fch","id":"210682"},{"pinyin":"fuding","province":"福建省","nh_only":1,"name":"福鼎","host":"fd.ke.com","short":"fd","id":"350982"},{"pinyin":"fuqing","province":"福建省","nh_only":1,"name":"福清","host":"fuqing.ke.com","short":"fuqing","id":"350181"}],"G":[{"pinyin":"guangzhou","province":"广东","name":"广州","host":"gz.ke.com","short":"gz","id":"440100"},{"pinyin":"guiyang","province":"贵州","name":"贵阳","host":"gy.ke.com","short":"gy","id":"520100"},{"pinyin":"gujiao","province":"待定","nh_only":1,"host":"gujiao.ke.com","name":"古交","short":"gujiao","id":"140181"},{"pinyin":"gaizhou","province":"待定","nh_only":1,"host":"gaizhou.ke.com","name":"盖州","short":"gaizhou","id":"210881"},{"pinyin":"gongzhuling","province":"待定","nh_only":1,"host":"gzl.ke.com","name":"公主岭","short":"gzl","id":"220381"},{"pinyin":"gannan","province":"待定","nh_only":1,"host":"gn.ke.com","name":"甘南","short":"gn","id":"230225"},{"pinyin":"gaoyou","province":"待定","nh_only":1,"host":"gaoyou.ke.com","name":"高邮","short":"gaoyou","id":"321084"},{"pinyin":"ganzhou","province":"江西","host":"ganzhou.ke.com","name":"赣州","short":"ganzhou","id":"360700"},{"pinyin":"gaomi","province":"待定","nh_only":1,"host":"gm.ke.com","name":"高密","short":"gm","id":"370785"},{"pinyin":"guangshui","province":"待定","nh_only":1,"host":"gs.ke.com","name":"广水","short":"gs","id":"421381"},{"pinyin":"gaozhou","province":"待定","nh_only":1,"host":"gaozhou.ke.com","name":"高州","short":"gaozhou","id":"440981"},{"pinyin":"guilin","province":"广西壮族自治区","host":"gl.ke.com","name":"桂林","short":"gl","id":"450300"},{"pinyin":"guigang","province":"广西壮族自治区","nh_only":1,"host":"gg.ke.com","name":"贵港","short":"gg","id":"450800"},{"pinyin":"guiping","province":"待定","nh_only":1,"host":"gp.ke.com","name":"桂平","short":"gp","id":"450881"},{"pinyin":"guangan","province":"四川","nh_only":1,"host":"ga.ke.com","name":"广安","short":"ga","id":"511600"},{"pinyin":"ganzi","province":"待定","nh_only":1,"host":"ganzi.ke.com","name":"甘孜","short":"ganzi","id":"513328"},{"pinyin":"guyuan","province":"宁夏回族自治区","nh_only":1,"host":"guyuan.ke.com","name":"固原","short":"guyuan","id":"640400"},{"pinyin":"geermu","province":"青海省","nh_only":1,"name":"格尔木","host":"grm.ke.com","short":"grm","id":"632801"},{"pinyin":"gejiu","province":"云南省","nh_only":1,"name":"个旧","host":"gejiu.ke.com","short":"gejiu","id":"532501"},{"pinyin":"guixi","province":"江西省","nh_only":1,"name":"贵溪","host":"gx.ke.com","short":"gx","id":"360681"},{"pinyin":"gaobeidian","province":"河北省","nh_only":1,"name":"高碑店","host":"gbd.ke.com","short":"gbd","id":"130684"}],"H":[{"pinyin":"hangzhou","province":"浙江","name":"杭州","host":"hz.ke.com","short":"hz","id":"330100"},{"pinyin":"huizhou","province":"广东","name":"惠州","host":"hui.ke.com","short":"hui","id":"441300"},{"pinyin":"haikou","province":"海南","name":"海口","host":"hk.ke.com","short":"hk","id":"460100"},{"pinyin":"hefei","province":"安徽","name":"合肥","host":"hf.ke.com","short":"hf","id":"340100"},{"pinyin":"haerbin","province":"黑龙江","name":"哈尔滨","host":"hrb.ke.com","short":"hrb","id":"230100"},{"pinyin":"huaian","province":"江苏","name":"淮安","host":"ha.ke.com","short":"ha","id":"320800"},{"pinyin":"handan","province":"河北","nh_only":1,"name":"邯郸","host":"hd.ke.com","short":"hd","id":"130400"},{"pinyin":"huhehaote","province":"内蒙古","name":"呼和浩特","host":"hhht.ke.com","short":"hhht","id":"150100"},{"pinyin":"hengyang","province":"湖南","nh_only":1,"name":"衡阳","host":"hy.ke.com","short":"hy","id":"430400"},{"pinyin":"huzhou","province":"浙江","name":"湖州","host":"huzhou.ke.com","short":"huzhou","id":"330500"},{"pinyin":"hengshui","province":"河北","nh_only":1,"name":"衡水","host":"hs.ke.com","short":"hs","id":"131100"},{"pinyin":"heze","province":"山东","nh_only":1,"name":"菏泽","host":"heze.ke.com","short":"heze","id":"371700"},{"pinyin":"hulunbeier","province":"内蒙古自治区","nh_only":1,"host":"hlbr.ke.com","name":"呼伦贝尔","short":"hlbr","id":"150700"},{"pinyin":"haicheng","province":"待定","nh_only":1,"host":"haicheng.ke.com","name":"海城","short":"haicheng","id":"210381"},{"pinyin":"huludao","province":"辽宁","nh_only":1,"host":"hld.ke.com","name":"葫芦岛","short":"hld","id":"211400"},{"pinyin":"huadian","province":"待定","nh_only":1,"host":"huadian.ke.com","name":"桦甸","short":"huadian","id":"220282"},{"pinyin":"hegang","province":"黑龙江","nh_only":1,"host":"hegang.ke.com","name":"鹤岗","short":"hegang","id":"230400"},{"pinyin":"hailin","province":"待定","nh_only":1,"host":"hl.ke.com","name":"海林","short":"hl","id":"231083"},{"pinyin":"heihe","province":"黑龙江","nh_only":1,"host":"heihe.ke.com","name":"黑河","short":"heihe","id":"231100"},{"pinyin":"huainan","province":"安徽","nh_only":1,"host":"huainan.ke.com","name":"淮南","short":"huainan","id":"340400"},{"pinyin":"huaibei","province":"安徽","nh_only":1,"host":"huaibei.ke.com","name":"淮北","short":"huaibei","id":"340600"},{"pinyin":"huangshan","province":"安徽","nh_only":1,"host":"huangshan.ke.com","name":"黄山","short":"huangshan","id":"341000"},{"pinyin":"huoqiu","province":"待定","nh_only":1,"host":"hq.ke.com","name":"霍邱","short":"hq","id":"341522"},{"pinyin":"hebi","province":"河南","nh_only":1,"host":"hb.ke.com","name":"鹤壁","short":"hb","id":"410600"},{"pinyin":"heshan","province":"待定","nh_only":1,"host":"hsh.ke.com","name":"鹤山","short":"hsh","id":"410602"},{"pinyin":"huangshi","province":"湖北","host":"huangshi.ke.com","name":"黄石","short":"huangshi","id":"420200"},{"pinyin":"honghu","province":"待定","nh_only":1,"host":"honghu.ke.com","name":"洪湖","short":"honghu","id":"421083"},{"pinyin":"huaihua","province":"湖南","nh_only":1,"host":"hh.ke.com","name":"怀化","short":"hh","id":"431200"},{"pinyin":"hongjiang","province":"待定","nh_only":1,"host":"hongjiang.ke.com","name":"洪江","short":"hongjiang","id":"431281"},{"pinyin":"huazhou","province":"待定","nh_only":1,"host":"huazhou.ke.com","name":"化州","short":"huazhou","id":"440982"},{"pinyin":"heyuan","province":"广东","nh_only":1,"host":"heyuan.ke.com","name":"河源","short":"heyuan","id":"441600"},{"pinyin":"hezhou","province":"广西壮族自治区","nh_only":1,"host":"hezhou.ke.com","name":"贺州","short":"hezhou","id":"451100"},{"pinyin":"hechi","province":"广西壮族自治区","nh_only":1,"host":"hc.ke.com","name":"河池","short":"hc","id":"451200"},{"pinyin":"hainan","province":"海南","nh_only":1,"host":"hn.ke.com","name":"海南","short":"hn","id":"460000"},{"pinyin":"honghe","province":"待定","nh_only":1,"host":"honghe.ke.com","name":"红河","short":"honghe","id":"532529"},{"pinyin":"hanzhong","province":"陕西","host":"hanzhong.ke.com","name":"汉中","short":"hanzhong","id":"610700"},{"pinyin":"haidong","province":"青海","nh_only":1,"host":"haidong.ke.com","name":"海东","short":"haidong","id":"630200"},{"pinyin":"haixi","province":"青海","nh_only":1,"host":"haixi.ke.com","name":"海西","short":"haixi","id":"632800"},{"pinyin":"hami","province":"新疆维吾尔自治区","nh_only":1,"host":"hm.ke.com","name":"哈密","short":"hm","id":"650500"},{"pinyin":"hetian","province":"待定","nh_only":1,"host":"ht.ke.com","name":"和田","short":"ht","id":"653201"},{"pinyin":"huanggang","province":"湖北","nh_only":1,"name":"黄冈","host":"hg.ke.com","short":"hg","id":"421100"},{"pinyin":"hunchun","province":"吉林省","nh_only":1,"name":"珲春","host":"hunchun.ke.com","short":"hunchun","id":"222404"},{"pinyin":"huanghua","province":"河北省","nh_only":1,"name":"黄骅","host":"huanghua.ke.com","short":"huanghua","id":"130983"},{"pinyin":"hejian","province":"河北省","nh_only":1,"name":"河间","host":"hj.ke.com","short":"hj","id":"130984"},{"pinyin":"hancheng","province":"陕西省","nh_only":1,"name":"韩城","host":"hancheng.ke.com","short":"hancheng","id":"610581"},{"pinyin":"houma","province":"山西省","nh_only":1,"name":"侯马","host":"houma.ke.com","short":"houma","id":"141081"},{"pinyin":"huaying","province":"四川省","nh_only":1,"name":"华蓥","host":"huaying.ke.com","short":"huaying","id":"511681"},{"pinyin":"heshan","province":"广西壮族自治区","nh_only":1,"name":"合山","host":"heshan.ke.com","short":"heshan","id":"451381"},{"pinyin":"huixian","province":"河南省","nh_only":1,"name":"辉县","host":"huixian.ke.com","short":"huixian","id":"410782"},{"pinyin":"huozhou","province":"山西省","nh_only":1,"name":"霍州","host":"huozhou.ke.com","short":"huozhou","id":"141082"},{"pinyin":"renhuai","province":"贵州省","nh_only":1,"name":"仁怀","host":"hr.ke.com","short":"hr","id":"520382"},{"pinyin":"haining","province":"浙江省","nh_only":1,"name":"海宁","host":"haining.ke.com","short":"haining","id":"330481"},{"pinyin":"haiyang","province":"山东省","nh_only":1,"name":"海阳","host":"haiyang.ke.com","short":"haiyang","id":"370687"},{"pinyin":"haimen","province":"江苏省","nh_only":1,"name":"海门","host":"haimen.ke.com","short":"haimen","id":"320684"}],"J":[{"pinyin":"jinan","province":"山东","name":"济南","host":"jn.ke.com","short":"jn","id":"370101"},{"pinyin":"jining","province":"山东","nh_only":1,"name":"济宁","host":"jining.ke.com","short":"jining","id":"370800"},{"pinyin":"jiaxing","province":"浙江","name":"嘉兴","host":"jx.ke.com","short":"jx","id":"330400"},{"pinyin":"jinhua","province":"浙江","name":"金华","host":"jh.ke.com","short":"jh","id":"330700"},{"pinyin":"jingmen","province":"湖北","nh_only":1,"name":"荆门","host":"jm.ke.com","short":"jm","id":"420800"},{"pinyin":"jiaozuo","province":"河南","nh_only":1,"name":"焦作","host":"jiaozuo.ke.com","short":"jiaozuo","id":"410800"},{"pinyin":"jian","province":"江西","name":"吉安","host":"jian.ke.com","short":"jian","id":"360800"},{"pinyin":"jincheng","province":"山西","nh_only":1,"host":"jc.ke.com","name":"晋城","short":"jc","id":"140500"},{"pinyin":"jinzhou","province":"辽宁","nh_only":1,"host":"jinzhou.ke.com","name":"锦州","short":"jinzhou","id":"210700"},{"pinyin":"jilin","province":"吉林","host":"jl.ke.com","name":"吉林","short":"jl","id":"220200"},{"pinyin":"jixi","province":"黑龙江","nh_only":1,"host":"jixi.ke.com","name":"鸡西","short":"jixi","id":"230300"},{"pinyin":"jiamusi","province":"黑龙江","nh_only":1,"host":"jms.ke.com","name":"佳木斯","short":"jms","id":"230800"},{"pinyin":"jintan","province":"待定","nh_only":1,"host":"jt.ke.com","name":"金坛","short":"jt","id":"320413"},{"pinyin":"jingjiang","province":"待定","nh_only":1,"host":"jingjiang.ke.com","name":"靖江","short":"jingjiang","id":"321282"},{"pinyin":"jingdezhen","province":"江西","nh_only":1,"host":"jdz.ke.com","name":"景德镇","short":"jdz","id":"360200"},{"pinyin":"jiujiang","province":"江西","host":"jiujiang.ke.com","name":"九江","short":"jiujiang","id":"360400"},{"pinyin":"jiyuan","province":"待定","nh_only":1,"host":"jiyuan.ke.com","name":"济源","short":"jiyuan","id":"419001"},{"pinyin":"jingzhou","province":"湖北","nh_only":1,"host":"jingzhou.ke.com","name":"荆州","short":"jingzhou","id":"421000"},{"pinyin":"jiangmen","province":"广东","host":"jiangmen.ke.com","name":"江门","short":"jiangmen","id":"440700"},{"pinyin":"jieyang","province":"广东","nh_only":1,"host":"jieyang.ke.com","name":"揭阳","short":"jieyang","id":"445200"},{"pinyin":"jianyang","province":"待定","nh_only":1,"host":"jianyang.ke.com","name":"简阳","short":"jianyang","id":"510185"},{"pinyin":"jinghong","province":"待定","nh_only":1,"host":"jinghong.ke.com","name":"景洪","short":"jinghong","id":"532801"},{"pinyin":"jiayuguan","province":"甘肃","nh_only":1,"host":"jyg.ke.com","name":"嘉峪关","short":"jyg","id":"620200"},{"pinyin":"jinchang","province":"甘肃","nh_only":1,"host":"jinchang.ke.com","name":"金昌","short":"jinchang","id":"620300"},{"pinyin":"jiuquan","province":"甘肃","nh_only":1,"host":"jq.ke.com","name":"酒泉","short":"jq","id":"620900"},{"pinyin":"jinzhong","province":"山西","nh_only":1,"name":"晋中","host":"jz.ke.com","short":"jz","id":"140700"},{"pinyin":"jishou","province":"湖南省","nh_only":1,"name":"吉首","host":"jishou.ke.com","short":"jishou","id":"433101"},{"pinyin":"jianou","province":"福建省","nh_only":1,"name":"建瓯","host":"jo.ke.com","short":"jo","id":"350783"},{"pinyin":"jiaohe","province":"吉林省","nh_only":1,"name":"蛟河","host":"jiaohe.ke.com","short":"jiaohe","id":"220281"},{"pinyin":"jiande","province":"浙江省","nh_only":1,"name":"建德","host":"jd.ke.com","short":"jd","id":"330182"},{"pinyin":"jizhou","province":"河北省","nh_only":1,"name":"冀州","host":"jizhou.ke.com","short":"jizhou","id":"131103"},{"pinyin":"jurong","province":"江苏省","nh_only":1,"name":"句容","host":"jr.ke.com","short":"jr","id":"321183"},{"pinyin":"jiashan","province":"浙江省","nh_only":1,"name":"嘉善","host":"jiashan.ke.com","short":"jiashan","id":"330421"},{"pinyin":"jiaozhou","province":"山东省","nh_only":1,"name":"胶州","host":"jiaozhou.ke.com","short":"jiaozhou","id":"370281"},{"pinyin":"jinxian","province":"江西省","nh_only":1,"name":"进贤","host":"jinxian.ke.com","short":"jinxian","id":"360124"},{"pinyin":"jiangyou","province":"四川省","nh_only":1,"name":"江油","host":"jiangyou.ke.com","short":"jiangyou","id":"510781"}],"K":[{"pinyin":"kunming","province":"云南","name":"昆明","host":"km.ke.com","short":"km","id":"530100"},{"pinyin":"kaiping","province":"广东","nh_only":1,"host":"kp.ke.com","name":"开平","short":"kp","id":"440783"},{"pinyin":"kaiyuan","province":"待定","nh_only":1,"host":"kaiyuan.ke.com","name":"开原","short":"kaiyuan","id":"211282"},{"pinyin":"kunshan","province":"待定","host":"ks.ke.com","name":"昆山","short":"ks","id":"320583"},{"pinyin":"kaifeng","province":"河南","host":"kf.ke.com","name":"开封","short":"kf","id":"410200"},{"pinyin":"kaili","province":"待定","nh_only":1,"host":"kaili.ke.com","name":"凯里","short":"kaili","id":"522601"},{"pinyin":"kaiyuan","province":"待定","nh_only":1,"host":"ky.ke.com","name":"开远","short":"ky","id":"532502"},{"pinyin":"kelamayi","province":"新疆维吾尔自治区","nh_only":1,"host":"klmy.ke.com","name":"克拉玛依","short":"klmy","id":"650200"},{"pinyin":"kuerle","province":"待定","nh_only":1,"host":"krl.ke.com","name":"库尔勒","short":"krl","id":"652801"},{"pinyin":"kezilesu","province":"新疆维吾尔自治区","nh_only":1,"host":"kzls.ke.com","name":"克孜勒苏","short":"kzls","id":"653000"},{"pinyin":"kashi","province":"待定","nh_only":1,"host":"kashi.ke.com","name":"喀什","short":"kashi","id":"653101"},{"pinyin":"kuitun","province":"待定","nh_only":1,"host":"kt.ke.com","name":"奎屯","short":"kt","id":"654003"}],"L":[{"pinyin":"lingshui","province":"海南","nh_only":1,"name":"陵水","host":"ls.ke.com","short":"ls","id":"469028"},{"pinyin":"langfang","province":"河北","name":"廊坊","host":"lf.ke.com","short":"lf","id":"131000"},{"pinyin":"lingao","province":"海南","nh_only":1,"name":"临高","host":"lg.ke.com","short":"lg","id":"469024"},{"pinyin":"ledong","province":"海南","nh_only":1,"name":"乐东","host":"ld.ke.com","short":"ld","id":"469027"},{"pinyin":"lanzhou","province":"甘肃","name":"兰州","host":"lz.ke.com","short":"lz","id":"620100"},{"pinyin":"linyi","province":"山东","name":"临沂","host":"linyi.ke.com","short":"linyi","id":"371300"},{"pinyin":"luoyang","province":"河南","name":"洛阳","host":"luoyang.ke.com","short":"luoyang","id":"410300"},{"pinyin":"lianyungang","province":"江苏","nh_only":1,"name":"连云港","host":"lyg.ke.com","short":"lyg","id":"320700"},{"pinyin":"liaocheng","province":"山东","nh_only":1,"name":"聊城","host":"lc.ke.com","short":"lc","id":"371500"},{"pinyin":"linyi","province":"待定","nh_only":1,"host":"lin.ke.com","name":"临猗","short":"lin","id":"140821"},{"pinyin":"linfen","province":"山西","nh_only":1,"host":"linfen.ke.com","name":"临汾","short":"linfen","id":"141000"},{"pinyin":"lvliang","province":"山西","nh_only":1,"host":"lvliang.ke.com","name":"吕梁","short":"lvliang","id":"141100"},{"pinyin":"liaoyang","province":"辽宁","nh_only":1,"host":"liaoyang.ke.com","name":"辽阳","short":"liaoyang","id":"211000"},{"pinyin":"liaoyuan","province":"吉林","nh_only":1,"host":"liaoyuan.ke.com","name":"辽源","short":"liaoyuan","id":"220400"},{"pinyin":"liyang","province":"待定","nh_only":1,"host":"liyang.ke.com","name":"溧阳","short":"liyang","id":"320481"},{"pinyin":"lanxi","province":"待定","nh_only":1,"host":"lanxi.ke.com","name":"兰溪","short":"lanxi","id":"330781"},{"pinyin":"linhai","province":"待定","nh_only":1,"host":"lh.ke.com","name":"临海","short":"lh","id":"331082"},{"pinyin":"lishui","province":"浙江","nh_only":1,"host":"lishui.ke.com","name":"丽水","short":"lishui","id":"331100"},{"pinyin":"longquan","province":"待定","nh_only":1,"host":"lq.ke.com","name":"龙泉","short":"lq","id":"331181"},{"pinyin":"luan","province":"安徽","nh_only":1,"host":"la.ke.com","name":"六安","short":"la","id":"341500"},{"pinyin":"longhai","province":"待定","nh_only":1,"host":"longhai.ke.com","name":"龙海","short":"longhai","id":"350681"},{"pinyin":"leping","province":"待定","nh_only":1,"host":"lp.ke.com","name":"乐平","short":"lp","id":"360281"},{"pinyin":"laiyang","province":"待定","nh_only":1,"host":"laiyang.ke.com","name":"莱阳","short":"laiyang","id":"370682"},{"pinyin":"laiwu","province":"山东","nh_only":1,"host":"lw.ke.com","name":"莱芜","short":"lw","id":"371200"},{"pinyin":"leling","province":"待定","nh_only":1,"host":"ll.ke.com","name":"乐陵","short":"ll","id":"371481"},{"pinyin":"linqing","province":"待定","nh_only":1,"host":"linqing.ke.com","name":"临清","short":"linqing","id":"371581"},{"pinyin":"linzhou","province":"待定","nh_only":1,"host":"linzhou.ke.com","name":"林州","short":"linzhou","id":"410581"},{"pinyin":"tahe","province":"河南","nh_only":1,"host":"luohe.ke.com","name":"漯河","short":"luohe","id":"411100"},{"pinyin":"liling","province":"待定","nh_only":1,"host":"liling.ke.com","name":"醴陵","short":"liling","id":"430281"},{"pinyin":"linxiang","province":"待定","nh_only":1,"host":"linxiang.ke.com","name":"临湘","short":"linxiang","id":"430682"},{"pinyin":"loudi","province":"湖南","nh_only":1,"host":"loudi.ke.com","name":"娄底","short":"loudi","id":"431300"},{"pinyin":"lianjiang","province":"待定","nh_only":1,"host":"lianjiang.ke.com","name":"廉江","short":"lianjiang","id":"440881"},{"pinyin":"leizhou","province":"待定","nh_only":1,"host":"leizhou.ke.com","name":"雷州","short":"leizhou","id":"440882"},{"pinyin":"lianzhou","province":"待定","nh_only":1,"host":"lianzhou.ke.com","name":"连州","short":"lianzhou","id":"441882"},{"pinyin":"liuzhou","province":"广西壮族自治区","host":"liuzhou.ke.com","name":"柳州","short":"liuzhou","id":"450200"},{"pinyin":"laibin","province":"广西壮族自治区","nh_only":1,"host":"lb.ke.com","name":"来宾","short":"lb","id":"451300"},{"pinyin":"luzhou","province":"四川","nh_only":1,"host":"luzhou.ke.com","name":"泸州","short":"luzhou","id":"510500"},{"pinyin":"liangshan","province":"四川","host":"liangshan.ke.com","name":"凉山","short":"liangshan","id":"513400"},{"pinyin":"liupanshui","province":"贵州","nh_only":1,"host":"lps.ke.com","name":"六盘水","short":"lps","id":"520200"},{"pinyin":"lijiang","province":"云南","nh_only":1,"host":"lj.ke.com","name":"丽江","short":"lj","id":"530700"},{"pinyin":"lincang","province":"云南","nh_only":1,"host":"lincang.ke.com","name":"临沧","short":"lincang","id":"530900"},{"pinyin":"lasa","province":"西藏自治区","nh_only":1,"host":"lasa.ke.com","name":"拉萨","short":"lasa","id":"540100"},{"pinyin":"longnan","province":"甘肃","nh_only":1,"host":"ln.ke.com","name":"陇南","short":"ln","id":"621200"},{"pinyin":"linxia","province":"待定","nh_only":1,"host":"lx.ke.com","name":"临夏","short":"lx","id":"622901"},{"pinyin":"leshan","province":"四川","nh_only":1,"name":"乐山","host":"leshan.ke.com","short":"leshan","id":"511100"},{"pinyin":"longyan","province":"福建","nh_only":1,"name":"龙岩","host":"ly.ke.com","short":"ly","id":"350800"},{"pinyin":"longjing","province":"吉林省","nh_only":1,"name":"龙井","host":"longjing.ke.com","short":"longjing","id":"222405"},{"pinyin":"linjiang","province":"吉林省","nh_only":1,"name":"临江","host":"linjiang.ke.com","short":"linjiang","id":"220681"},{"pinyin":"lingyuan","province":"辽宁省","nh_only":1,"name":"凌源","host":"lingyuan.ke.com","short":"lingyuan","id":"211382"},{"pinyin":"lucheng","province":"山西省","nh_only":1,"name":"潞城","host":"lucheng.ke.com","short":"lucheng","id":"140481"},{"pinyin":"lichuan","province":"湖北省","nh_only":1,"name":"利川","host":"lichuan.ke.com","short":"lichuan","id":"422802"},{"pinyin":"lengshuijiang","province":"湖南省","nh_only":1,"name":"冷水江","host":"lsj.ke.com","short":"lsj","id":"431381"},{"pinyin":"lianyuan","province":"湖南省","nh_only":1,"name":"涟源","host":"lianyuan.ke.com","short":"lianyuan","id":"431382"},{"pinyin":"langzhong","province":"四川省","nh_only":1,"name":"阆中","host":"langzhong.ke.com","short":"langzhong","id":"511381"},{"pinyin":"lechang","province":"广东省","nh_only":1,"name":"乐昌","host":"lechang.ke.com","short":"lechang","id":"440281"},{"pinyin":"lufeng","province":"广东省","nh_only":1,"name":"陆丰","host":"lufeng.ke.com","short":"lufeng","id":"441581"},{"pinyin":"luoding","province":"广东省","nh_only":1,"name":"罗定","host":"luoding.ke.com","short":"luoding","id":"445381"},{"pinyin":"lianjiang","province":"福建省","nh_only":1,"name":"连江","host":"lianj.ke.com","short":"lianj","id":"350122"},{"pinyin":"laixi","province":"山东省","nh_only":1,"name":"莱西","host":"laixi.ke.com","short":"laixi","id":"370285"},{"pinyin":"laohekou","province":"湖北省","nh_only":1,"name":"老河口","host":"lhk.ke.com","short":"lhk","id":"420682"},{"pinyin":"liuyang","province":"湖南省","nh_only":1,"name":"浏阳","host":"liuyang.ke.com","short":"liuyang","id":"430181"},{"pinyin":"laizhou","province":"山东省","nh_only":1,"name":"莱州","host":"laizhou.ke.com","short":"laizhou","id":"370683"}],"M":[{"pinyin":"meishan","province":"四川","name":"眉山","host":"ms.ke.com","short":"ms","id":"511400"},{"pinyin":"mianyang","province":"四川","name":"绵阳","host":"mianyang.ke.com","short":"mianyang","id":"510700"},{"pinyin":"mudanjiang","province":"黑龙江","nh_only":1,"host":"mdj.ke.com","name":"牡丹江","short":"mdj","id":"231000"},{"pinyin":"maanshan","province":"安徽","host":"mas.ke.com","name":"马鞍山","short":"mas","id":"340500"},{"pinyin":"mingguang","province":"待定","nh_only":1,"host":"mingguang.ke.com","name":"明光","short":"mingguang","id":"341182"},{"pinyin":"mengzhou","province":"待定","nh_only":1,"host":"mengzhou.ke.com","name":"孟州","short":"mengzhou","id":"410883"},{"pinyin":"maoming","province":"广东","nh_only":1,"host":"mm.ke.com","name":"茂名","short":"mm","id":"440900"},{"pinyin":"meizhou","province":"广东","nh_only":1,"host":"meizhou.ke.com","name":"梅州","short":"meizhou","id":"441400"},{"pinyin":"mishan","province":"黑龙江省","nh_only":1,"name":"密山","host":"mishan.ke.com","short":"mishan","id":"230382"},{"pinyin":"manzhouli","province":"内蒙古自治区","nh_only":1,"name":"满洲里","host":"mzl.ke.com","short":"mzl","id":"150781"},{"pinyin":"macheng","province":"湖北省","nh_only":1,"name":"麻城","host":"mc.ke.com","short":"mc","id":"421181"},{"pinyin":"mianzhu","province":"四川省","nh_only":1,"name":"绵竹","host":"mianzhu.ke.com","short":"mianzhu","id":"510683"}],"N":[{"pinyin":"nanjing","province":"江苏","name":"南京","host":"nj.ke.com","short":"nj","id":"320100"},{"pinyin":"nanchang","province":"江西","name":"南昌","host":"nc.ke.com","short":"nc","id":"360100"},{"pinyin":"nantong","province":"江苏","name":"南通","host":"nt.ke.com","short":"nt","id":"320600"},{"pinyin":"ningbo","province":"浙江","name":"宁波","host":"nb.ke.com","short":"nb","id":"330200"},{"pinyin":"nanning","province":"广西","name":"南宁","host":"nn.ke.com","short":"nn","id":"450100"},{"pinyin":"nanchong","province":"四川","name":"南充","host":"nanchong.ke.com","short":"nanchong","id":"511300"},{"pinyin":"nanyang","province":"河南","nh_only":1,"name":"南阳","host":"ny.ke.com","short":"ny","id":"411300"},{"pinyin":"nehe","province":"待定","nh_only":1,"host":"nh.ke.com","name":"讷河","short":"nh","id":"230281"},{"pinyin":"nanan","province":"待定","nh_only":1,"host":"na.ke.com","name":"南安","short":"na","id":"350583"},{"pinyin":"nanping","province":"福建","nh_only":1,"host":"np.ke.com","name":"南平","short":"np","id":"350700"},{"pinyin":"ningde","province":"福建","nh_only":1,"host":"nd.ke.com","name":"宁德","short":"nd","id":"350900"},{"pinyin":"nankang","province":"待定","nh_only":1,"host":"nk.ke.com","name":"南康","short":"nk","id":"360703"},{"pinyin":"neijiang","province":"四川","nh_only":1,"host":"neijiang.ke.com","name":"内江","short":"neijiang","id":"511000"},{"pinyin":"nujiang","province":"云南","nh_only":1,"host":"nujiang.ke.com","name":"怒江","short":"nujiang","id":"533300"},{"pinyin":"naqu","province":"待定","nh_only":1,"host":"nq.ke.com","name":"那曲","short":"nq","id":"540600"},{"pinyin":"ningan","province":"黑龙江省","nh_only":1,"name":"宁安","host":"ningan.ke.com","short":"ningan","id":"231084"},{"pinyin":"ningguo","province":"安徽省","nh_only":1,"name":"宁国","host":"ng.ke.com","short":"ng","id":"341881"},{"pinyin":"nangong","province":"河北省","nh_only":1,"name":"南宫","host":"nangong.ke.com","short":"nangong","id":"130581"}],"P":[{"pinyin":"pulandian","province":"待定","nh_only":1,"host":"pld.ke.com","name":"普兰店","short":"pld","id":"210214"},{"pinyin":"panjin","province":"辽宁","nh_only":1,"host":"pj.ke.com","name":"盘锦","short":"pj","id":"211100"},{"pinyin":"putian","province":"福建","nh_only":1,"host":"pt.ke.com","name":"莆田","short":"pt","id":"350300"},{"pinyin":"pingxiang","province":"江西","nh_only":1,"host":"pingxiang.ke.com","name":"萍乡","short":"pingxiang","id":"360300"},{"pinyin":"pingdingshan","province":"河南","nh_only":1,"host":"pds.ke.com","name":"平顶山","short":"pds","id":"410400"},{"pinyin":"puyang","province":"河南","nh_only":1,"host":"py.ke.com","name":"濮阳","short":"py","id":"410900"},{"pinyin":"puning","province":"待定","nh_only":1,"host":"pn.ke.com","name":"普宁","short":"pn","id":"445281"},{"pinyin":"panzhihua","province":"四川","nh_only":1,"host":"pzh.ke.com","name":"攀枝花","short":"pzh","id":"510400"},{"pinyin":"pingliang","province":"甘肃","nh_only":1,"host":"pl.ke.com","name":"平凉","short":"pl","id":"620800"},{"pinyin":"pingdu","province":"山东省","nh_only":1,"name":"平度","host":"pd.ke.com","short":"pd","id":"370283"},{"pinyin":"pinghu","province":"浙江省","nh_only":1,"name":"平湖","host":"ph.ke.com","short":"ph","id":"330482"},{"pinyin":"peizhou","province":"江苏省","nh_only":1,"name":"邳州","host":"pz.ke.com","short":"pz","id":"320382"}],"Q":[{"pinyin":"qingdao","province":"山东","name":"青岛","host":"qd.ke.com","short":"qd","id":"370200"},{"pinyin":"qionghai","province":"海南","nh_only":1,"name":"琼海","host":"qh.ke.com","short":"qh","id":"469002"},{"pinyin":"qiongzhong","province":"海南","nh_only":1,"name":"琼中","host":"qz.ke.com","short":"qz","id":"469030"},{"pinyin":"quanzhou","province":"福建","name":"泉州","host":"quanzhou.ke.com","short":"quanzhou","id":"350500"},{"pinyin":"qianan","province":"待定","nh_only":1,"host":"qa.ke.com","name":"迁安","short":"qa","id":"130283"},{"pinyin":"qingxu","province":"待定","nh_only":1,"host":"qx.ke.com","name":"清徐","short":"qx","id":"140121"},{"pinyin":"qiqihaer","province":"黑龙江","nh_only":1,"host":"qqhr.ke.com","name":"齐齐哈尔","short":"qqhr","id":"230200"},{"pinyin":"qitaihe","province":"黑龙江","nh_only":1,"host":"qth.ke.com","name":"七台河","short":"qth","id":"230900"},{"pinyin":"quzhou","province":"浙江","nh_only":1,"host":"quzhou.ke.com","name":"衢州","short":"quzhou","id":"330800"},{"pinyin":"qingzhou","province":"待定","nh_only":1,"host":"qingzhou.ke.com","name":"青州","short":"qingzhou","id":"370781"},{"pinyin":"qufu","province":"待定","nh_only":1,"host":"qf.ke.com","name":"曲阜","short":"qf","id":"370881"},{"pinyin":"qinyang","province":"待定","nh_only":1,"host":"qinyang.ke.com","name":"沁阳","short":"qinyang","id":"410882"},{"pinyin":"qianjiang","province":"待定","nh_only":1,"host":"qianjiang.ke.com","name":"潜江","short":"qianjiang","id":"429005"},{"pinyin":"qinzhou","province":"广西壮族自治区","nh_only":1,"host":"qinzhou.ke.com","name":"钦州","short":"qinzhou","id":"450700"},{"pinyin":"qingzhen","province":"待定","nh_only":1,"host":"qingzhen.ke.com","name":"清镇","short":"qingzhen","id":"520181"},{"pinyin":"qiandongnan","province":"贵州","nh_only":1,"host":"qdn.ke.com","name":"黔东南","short":"qdn","id":"522600"},{"pinyin":"qiannan","province":"贵州","nh_only":1,"host":"qn.ke.com","name":"黔南","short":"qn","id":"522700"},{"pinyin":"qujing","province":"云南","nh_only":1,"host":"qj.ke.com","name":"曲靖","short":"qj","id":"530300"},{"pinyin":"qingyang","province":"甘肃","nh_only":1,"host":"qingyang.ke.com","name":"庆阳","short":"qingyang","id":"621000"},{"pinyin":"qinhuangdao","province":"河北","nh_only":1,"name":"秦皇岛","host":"qhd.ke.com","short":"qhd","id":"130300"},{"pinyin":"qingyuan","province":"广东","name":"清远","host":"qy.ke.com","short":"qy","id":"441800"},{"pinyin":"qingtongxia","province":"宁夏回族自治区","nh_only":1,"name":"青铜峡","host":"qtx.ke.com","short":"qtx","id":"640381"},{"pinyin":"qixia","province":"江苏省","nh_only":1,"name":"栖霞","host":"qixia.ke.com","short":"qixia","id":"320113"},{"pinyin":"qidong","province":"江苏省","nh_only":1,"name":"启东","host":"qidong.ke.com","short":"qidong","id":"320681"},{"pinyin":"qionglai","province":"四川省","nh_only":1,"name":"邛崃","host":"ql.ke.com","short":"ql","id":"510183"}],"R":[{"pinyin":"renqiu","province":"待定","nh_only":1,"host":"rq.ke.com","name":"任丘","short":"rq","id":"130982"},{"pinyin":"ruian","province":"待定","nh_only":1,"host":"ra.ke.com","name":"瑞安","short":"ra","id":"330381"},{"pinyin":"ruijin","province":"待定","nh_only":1,"host":"rj.ke.com","name":"瑞金","short":"rj","id":"360781"},{"pinyin":"rizhao","province":"山东","nh_only":1,"host":"rz.ke.com","name":"日照","short":"rz","id":"371100"},{"pinyin":"ruzhou","province":"待定","nh_only":1,"host":"ruzhou.ke.com","name":"汝州","short":"ruzhou","id":"410482"},{"pinyin":"ruili","province":"待定","nh_only":1,"host":"rl.ke.com","name":"瑞丽","short":"rl","id":"533102"},{"pinyin":"rikaze","province":"西藏自治区","nh_only":1,"host":"rkz.ke.com","name":"日喀则","short":"rkz","id":"540200"},{"pinyin":"ruichang","province":"江西省","nh_only":1,"name":"瑞昌","host":"rc.ke.com","short":"rc","id":"360481"},{"pinyin":"rugao","province":"江苏省","nh_only":1,"name":"如皋","host":"rg.ke.com","short":"rg","id":"320682"},{"pinyin":"rongcheng","province":"山东省","nh_only":1,"name":"荣成","host":"rongcheng.ke.com","short":"rongcheng","id":"371082"}],"S":[{"pinyin":"shanghai","province":"上海","name":"上海","host":"sh.ke.com","short":"sh","id":"310000"},{"pinyin":"shenzhen","province":"广东","name":"深圳","host":"sz.ke.com","short":"sz","id":"440300"},{"pinyin":"suzhou","province":"江苏","name":"苏州","host":"su.ke.com","short":"su","id":"320500"},{"pinyin":"shijiazhuang","province":"河北","name":"石家庄","host":"sjz.ke.com","short":"sjz","id":"130100"},{"pinyin":"shenyang","province":"辽宁","name":"沈阳","host":"sy.ke.com","short":"sy","id":"210100"},{"pinyin":"sanya","province":"海南","name":"三亚","host":"san.ke.com","short":"san","id":"460200"},{"pinyin":"shantou","province":"广东","nh_only":1,"name":"汕头","host":"st.ke.com","short":"st","id":"440500"},{"pinyin":"shaoxing","province":"浙江","name":"绍兴","host":"sx.ke.com","short":"sx","id":"330600"},{"pinyin":"sanhe","province":"待定","nh_only":1,"host":"sanhe.ke.com","name":"三河","short":"sanhe","id":"131082"},{"pinyin":"siping","province":"吉林","nh_only":1,"host":"sp.ke.com","name":"四平","short":"sp","id":"220300"},{"pinyin":"songyuan","province":"吉林","nh_only":1,"host":"songyuan.ke.com","name":"松原","short":"songyuan","id":"220700"},{"pinyin":"shangzhi","province":"待定","nh_only":1,"host":"shangzhi.ke.com","name":"尚志","short":"shangzhi","id":"230183"},{"pinyin":"shuangyashan","province":"黑龙江","nh_only":1,"host":"sys.ke.com","name":"双鸭山","short":"sys","id":"230500"},{"pinyin":"suihua","province":"黑龙江","nh_only":1,"host":"suihua.ke.com","name":"绥化","short":"suihua","id":"231200"},{"pinyin":"suqian","province":"江苏","nh_only":1,"host":"sq.ke.com","name":"宿迁","short":"sq","id":"321300"},{"pinyin":"shuyang","province":"待定","nh_only":1,"host":"shuyang.ke.com","name":"沭阳","short":"shuyang","id":"321322"},{"pinyin":"suzhou","province":"安徽","nh_only":1,"host":"suzhou.ke.com","name":"宿州","short":"suzhou","id":"341300"},{"pinyin":"sanming","province":"福建","nh_only":1,"host":"sm.ke.com","name":"三明","short":"sm","id":"350400"},{"pinyin":"shishi","province":"待定","nh_only":1,"host":"shishi.ke.com","name":"石狮","short":"shishi","id":"350581"},{"pinyin":"shangrao","province":"江西","host":"sr.ke.com","name":"上饶","short":"sr","id":"361100"},{"pinyin":"shouguang","province":"待定","nh_only":1,"host":"shouguang.ke.com","name":"寿光","short":"shouguang","id":"370783"},{"pinyin":"shangqiu","province":"河南","nh_only":1,"host":"shangqiu.ke.com","name":"商丘","short":"shangqiu","id":"411400"},{"pinyin":"shiyan","province":"湖北","nh_only":1,"host":"shiyan.ke.com","name":"十堰","short":"shiyan","id":"420300"},{"pinyin":"shishou","province":"待定","nh_only":1,"host":"shishou.ke.com","name":"石首","short":"shishou","id":"421081"},{"pinyin":"songzi","province":"待定","nh_only":1,"host":"songzi.ke.com","name":"松滋","short":"songzi","id":"421087"},{"pinyin":"shaoyang","province":"湖南","nh_only":1,"host":"shaoyang.ke.com","name":"邵阳","short":"shaoyang","id":"430500"},{"pinyin":"shaoguan","province":"广东","nh_only":1,"host":"shaoguan.ke.com","name":"韶关","short":"shaoguan","id":"440200"},{"pinyin":"shunde","province":"待定","nh_only":1,"host":"sd.ke.com","name":"顺德","short":"sd","id":"440606"},{"pinyin":"shanwei","province":"广东","nh_only":1,"host":"sw.ke.com","name":"汕尾","short":"sw","id":"441500"},{"pinyin":"suining","province":"四川","nh_only":1,"host":"sn.ke.com","name":"遂宁","short":"sn","id":"510900"},{"pinyin":"shangluo","province":"陕西","nh_only":1,"host":"sl.ke.com","name":"商洛","short":"sl","id":"611000"},{"pinyin":"shizuishan","province":"宁夏回族自治区","nh_only":1,"host":"szs.ke.com","name":"石嘴山","short":"szs","id":"640200"},{"pinyin":"shengzhou","province":"浙江省","nh_only":1,"name":"嵊州","host":"shengzhou.ke.com","short":"shengzhou","id":"330683"},{"pinyin":"suifenhe","province":"黑龙江省","nh_only":1,"name":"绥芬河","host":"sfh.ke.com","short":"sfh","id":"231081"},{"pinyin":"shenfang","province":"四川省","nh_only":1,"name":"什邡","host":"sf.ke.com","short":"sf","id":"510682"},{"pinyin":"shaowu","province":"福建省","nh_only":1,"name":"邵武","host":"shaowu.ke.com","short":"shaowu","id":"350781"},{"pinyin":"shaoshan","province":"湖南省","nh_only":1,"name":"韶山","host":"ss.ke.com","short":"ss","id":"430382"},{"pinyin":"shenzhou","province":"河北省","nh_only":1,"name":"深州","host":"shenzhou.ke.com","short":"shenzhou","id":"131182"}],"T":[{"pinyin":"tianjin","province":"天津","name":"天津","host":"tj.ke.com","short":"tj","id":"120000"},{"pinyin":"taiyuan","province":"山西","name":"太原","host":"ty.ke.com","short":"ty","id":"140100"},{"pinyin":"taizhou","province":"泰州","nh_only":1,"name":"泰州","host":"tz.ke.com","short":"tz","id":"321200"},{"pinyin":"tangshan","province":"河北","name":"唐山","host":"ts.ke.com","short":"ts","id":"130200"},{"pinyin":"taizhou","province":"浙江","name":"台州","host":"taizhou.ke.com","short":"taizhou","id":"331000"},{"pinyin":"taian","province":"山东","nh_only":1,"name":"泰安","host":"ta.ke.com","short":"ta","id":"370900"},{"pinyin":"tongliao","province":"内蒙古自治区","nh_only":1,"host":"tongliao.ke.com","name":"通辽","short":"tongliao","id":"150500"},{"pinyin":"tieling","province":"辽宁","nh_only":1,"host":"tieling.ke.com","name":"铁岭","short":"tieling","id":"211200"},{"pinyin":"tonghua","province":"吉林","nh_only":1,"host":"tonghua.ke.com","name":"通化","short":"tonghua","id":"220500"},{"pinyin":"taixing","province":"待定","nh_only":1,"host":"tx.ke.com","name":"泰兴","short":"tx","id":"321283"},{"pinyin":"tongling","province":"安徽","nh_only":1,"host":"tl.ke.com","name":"铜陵","short":"tl","id":"340700"},{"pinyin":"tongcheng","province":"待定","nh_only":1,"host":"tc.ke.com","name":"桐城","short":"tc","id":"340881"},{"pinyin":"tengzhou","province":"待定","nh_only":1,"host":"tengzhou.ke.com","name":"滕州","short":"tengzhou","id":"370481"},{"pinyin":"tianmen","province":"待定","nh_only":1,"host":"tm.ke.com","name":"天门","short":"tm","id":"429006"},{"pinyin":"taishan","province":"待定","nh_only":1,"host":"taishan.ke.com","name":"台山","short":"taishan","id":"440781"},{"pinyin":"tongren","province":"贵州","nh_only":1,"host":"tr.ke.com","name":"铜仁","short":"tr","id":"520600"},{"pinyin":"tongchuan","province":"陕西","nh_only":1,"host":"tongchuan.ke.com","name":"铜川","short":"tongchuan","id":"610200"},{"pinyin":"tianshui","province":"甘肃","nh_only":1,"host":"tianshui.ke.com","name":"天水","short":"tianshui","id":"620500"},{"pinyin":"tulufan","province":"新疆维吾尔自治区","nh_only":1,"host":"tlf.ke.com","name":"吐鲁番","short":"tlf","id":"650400"},{"pinyin":"tieli","province":"黑龙江省","nh_only":1,"name":"铁力","host":"tieli.ke.com","short":"tieli","id":"230781"},{"pinyin":"tianchang","province":"安徽省","nh_only":1,"name":"天长","host":"tianchang.ke.com","short":"tianchang","id":"341181"},{"pinyin":"tongxiang","province":"浙江省","nh_only":1,"name":"桐乡","host":"tongxiang.ke.com","short":"tongxiang","id":"330483"}],"V":[{"pinyin":"ceshichengshi","province":"无","name":"测试城市","host":"vi.ke.com","short":"vi","id":"666666"}],"W":[{"pinyin":"wuhan","province":"湖北","name":"武汉","host":"wh.ke.com","short":"wh","id":"420100"},{"pinyin":"wuxi","province":"江苏","name":"无锡","host":"wx.ke.com","short":"wx","id":"320200"},{"pinyin":"wenchang","province":"海南","nh_only":1,"name":"文昌","host":"wc.ke.com","short":"wc","id":"469005"},{"pinyin":"wanning","province":"海南","nh_only":1,"name":"万宁","host":"wn.ke.com","short":"wn","id":"469006"},{"pinyin":"wuzhishan","province":"海南","nh_only":1,"name":"五指山","host":"wzs.ke.com","short":"wzs","id":"469001"},{"pinyin":"wuhu","province":"安徽省","name":"芜湖","host":"wuhu.ke.com","short":"wuhu","id":"340200"},{"pinyin":"weifang","province":"山东","name":"潍坊","host":"wf.ke.com","short":"wf","id":"370700"},{"pinyin":"wenzhou","province":"浙江","name":"温州","host":"wz.ke.com","short":"wz","id":"330300"},{"pinyin":"wulumuqi","province":"新疆","nh_only":1,"name":"乌鲁木齐","host":"wlmq.ke.com","short":"wlmq","id":"650100"},{"pinyin":"weihai","province":"山东","name":"威海","host":"weihai.ke.com","short":"weihai","id":"371000"},{"pinyin":"wuan","province":"待定","nh_only":1,"host":"wa.ke.com","name":"武安","short":"wa","id":"130481"},{"pinyin":"wuhai","province":"内蒙古自治区","nh_only":1,"host":"wuhai.ke.com","name":"乌海","short":"wuhai","id":"150300"},{"pinyin":"wulanchabu","province":"内蒙古自治区","nh_only":1,"host":"wlcb.ke.com","name":"乌兰察布","short":"wlcb","id":"150900"},{"pinyin":"wafangdian","province":"待定","nh_only":1,"host":"wfd.ke.com","name":"瓦房店","short":"wfd","id":"210281"},{"pinyin":"wuchang","province":"待定","nh_only":1,"host":"wuchang.ke.com","name":"五常","short":"wuchang","id":"230184"},{"pinyin":"wenling","province":"待定","nh_only":1,"host":"wl.ke.com","name":"温岭","short":"wl","id":"331081"},{"pinyin":"wugang","province":"待定","nh_only":1,"host":"wugang.ke.com","name":"舞钢","short":"wugang","id":"410481"},{"pinyin":"wuchuan","province":"待定","nh_only":1,"host":"wuchuan.ke.com","name":"吴川","short":"wuchuan","id":"440883"},{"pinyin":"wuzhou","province":"广西壮族自治区","nh_only":1,"host":"wuzhou.ke.com","name":"梧州","short":"wuzhou","id":"450400"},{"pinyin":"wenshan","province":"待定","nh_only":1,"host":"ws.ke.com","name":"文山","short":"ws","id":"532601"},{"pinyin":"weinan","province":"陕西","nh_only":1,"host":"weinan.ke.com","name":"渭南","short":"weinan","id":"610500"},{"pinyin":"wuwei","province":"甘肃","nh_only":1,"host":"ww.ke.com","name":"武威","short":"ww","id":"620600"},{"pinyin":"wuzhong","province":"宁夏回族自治区","nh_only":1,"host":"wuzhong.ke.com","name":"吴忠","short":"wuzhong","id":"640300"},{"pinyin":"weihui","province":"河南省","nh_only":1,"name":"卫辉","host":"weihui.ke.com","short":"weihui","id":"410781"},{"pinyin":"wugang","province":"湖南省","nh_only":1,"name":"武冈","host":"wg.ke.com","short":"wg","id":"430581"},{"pinyin":"wudalianchi","province":"黑龙江省","nh_only":1,"name":"五大连池","host":"wdlc.ke.com","short":"wdlc","id":"231182"},{"pinyin":"wuxue","province":"湖北省","nh_only":1,"name":"武穴","host":"wuxue.ke.com","short":"wuxue","id":"421182"},{"pinyin":"wanyuan","province":"四川省","nh_only":1,"name":"万源","host":"wy.ke.com","short":"wy","id":"511781"},{"pinyin":"wuji","province":"河北省","nh_only":1,"name":"无极","host":"wj.ke.com","short":"wj","id":"130130"}],"X":[{"pinyin":"xiamen","province":"福建","name":"厦门","host":"xm.ke.com","short":"xm","id":"350200"},{"pinyin":"xian","province":"陕西","name":"西安","host":"xa.ke.com","short":"xa","id":"610100"},{"province":"江苏","name":"徐州","host":"xz.ke.com","short":"xz","id":"320300"},{"pinyin":"xishuangbanna","province":"云南","nh_only":1,"name":"西双版纳","host":"xsbn.ke.com","short":"xsbn","id":"532800"},{"pinyin":"xiangyang","province":"湖北","name":"襄阳","host":"xy.ke.com","short":"xy","id":"420600"},{"pinyin":"xingtai","province":"河北","nh_only":1,"name":"邢台","host":"xt.ke.com","short":"xt","id":"130500"},{"pinyin":"xining","province":"青海","nh_only":1,"name":"西宁","host":"xining.ke.com","short":"xining","id":"630100"},{"pinyin":"xiaogan","province":"湖北","nh_only":1,"name":"孝感","host":"xg.ke.com","short":"xg","id":"420900"},{"pinyin":"xinxiang","province":"河南","name":"新乡","host":"xinxiang.ke.com","short":"xinxiang","id":"410700"},{"pinyin":"xinle","province":"待定","nh_only":1,"host":"xl.ke.com","name":"新乐","short":"xl","id":"130184"},{"pinyin":"xinzhou","province":"山西","nh_only":1,"host":"xinzhou.ke.com","name":"忻州","short":"xinzhou","id":"140900"},{"pinyin":"xilinhaote","province":"待定","nh_only":1,"host":"xlht.ke.com","name":"锡林浩特","short":"xlht","id":"152502"},{"pinyin":"xinmin","province":"待定","nh_only":1,"host":"xinmin.ke.com","name":"新民","short":"xinmin","id":"210181"},{"pinyin":"xuancheng","province":"安徽","nh_only":1,"host":"xuancheng.ke.com","name":"宣城","short":"xuancheng","id":"341800"},{"pinyin":"xinyu","province":"江西","nh_only":1,"host":"xinyu.ke.com","name":"新余","short":"xinyu","id":"360500"},{"pinyin":"xintai","province":"待定","nh_only":1,"host":"xintai.ke.com","name":"新泰","short":"xintai","id":"370982"},{"pinyin":"xuchang","province":"河南","host":"xc.ke.com","name":"许昌","short":"xc","id":"411000"},{"pinyin":"xinyang","province":"河南","nh_only":1,"host":"xinyang.ke.com","name":"信阳","short":"xinyang","id":"411500"},{"pinyin":"xiantao","province":"待定","nh_only":1,"host":"xiantao.ke.com","name":"仙桃","short":"xiantao","id":"429004"},{"pinyin":"xiangtan","province":"湖南","nh_only":1,"host":"xiangtan.ke.com","name":"湘潭","short":"xiangtan","id":"430300"},{"pinyin":"xiangxiang","province":"待定","nh_only":1,"host":"xiangxiang.ke.com","name":"湘乡","short":"xiangxiang","id":"430381"},{"pinyin":"xiangxi","province":"湖南","nh_only":1,"host":"xx.ke.com","name":"湘西","short":"xx","id":"433100"},{"pinyin":"xingning","province":"待定","nh_only":1,"host":"xingning.ke.com","name":"兴宁","short":"xingning","id":"441481"},{"pinyin":"xianyang","province":"陕西","host":"xianyang.ke.com","name":"咸阳","short":"xianyang","id":"610400"},{"pinyin":"xianning","province":"湖北","nh_only":1,"name":"咸宁","host":"xn.ke.com","short":"xn","id":"421200"},{"pinyin":"xiongan","province":"河北","host":"xan.ke.com","name":"雄安新区","short":"xan","id":"888886"},{"pinyin":"xilinguolemeng","province":"内蒙古自治区","nh_only":1,"name":"锡林郭勒盟","host":"xlglm.ke.com","short":"xlglm","id":"152500"},{"pinyin":"xingping","province":"陕西省","nh_only":1,"name":"兴平","host":"xp.ke.com","short":"xp","id":"610481"},{"pinyin":"xichang","province":"四川省","nh_only":1,"name":"西昌","host":"xichang.ke.com","short":"xichang","id":"513401"},{"pinyin":"xingyi","province":"贵州省","nh_only":1,"name":"兴义","host":"xingyi.ke.com","short":"xingyi","id":"522301"},{"pinyin":"xuanwei","province":"云南省","nh_only":1,"name":"宣威","host":"xw.ke.com","short":"xw","id":"530381"},{"pinyin":"xiangcheng","province":"河南省","nh_only":1,"name":"项城","host":"xiangcheng.ke.com","short":"xiangcheng","id":"411681"},{"pinyin":"xingcheng","province":"辽宁省","nh_only":1,"name":"兴城","host":"xingcheng.ke.com","short":"xingcheng","id":"211481"},{"pinyin":"yingyang","province":"河南省","nh_only":1,"name":"荥阳","host":"xingyang.ke.com","short":"xingyang","id":"410182"},{"pinyin":"xinmi","province":"河南省","nh_only":1,"name":"新密","host":"xinmi.ke.com","short":"xinmi","id":"410183"},{"pinyin":"xinyi","province":"江苏省","nh_only":1,"name":"新沂","host":"xiny.ke.com","short":"xiny","id":"320381"}],"Y":[{"pinyin":"yantai","province":"山东","name":"烟台","host":"yt.ke.com","short":"yt","id":"370600"},{"pinyin":"yancheng","province":"江苏","name":"盐城","host":"yc.ke.com","short":"yc","id":"320900"},{"pinyin":"yangzhou","province":"江苏","nh_only":1,"name":"扬州","host":"yz.ke.com","short":"yz","id":"321000"},{"pinyin":"yichang","province":"湖北","name":"宜昌","host":"yichang.ke.com","short":"yichang","id":"420500"},{"pinyin":"yingkou","province":"辽宁","nh_only":1,"name":"营口","host":"yk.ke.com","short":"yk","id":"210800"},{"pinyin":"yinchuan","province":"宁夏","name":"银川","host":"yinchuan.ke.com","short":"yinchuan","id":"640100"},{"pinyin":"yangquan","province":"山西","nh_only":1,"host":"yq.ke.com","name":"阳泉","short":"yq","id":"140300"},{"pinyin":"yuncheng","province":"山西","nh_only":1,"host":"yuncheng.ke.com","name":"运城","short":"yuncheng","id":"140800"},{"pinyin":"yushu","province":"待定","nh_only":1,"host":"yushu.ke.com","name":"榆树","short":"yushu","id":"220182"},{"pinyin":"yanbian","province":"吉林","nh_only":1,"host":"yb.ke.com","name":"延边","short":"yb","id":"222400"},{"pinyin":"yichun","province":"黑龙江","nh_only":1,"host":"yichun.ke.com","name":"伊春","short":"yichun","id":"230700"},{"pinyin":"yizheng","province":"待定","nh_only":1,"host":"yizheng.ke.com","name":"仪征","short":"yizheng","id":"321081"},{"pinyin":"yiwu","province":"待定","nh_only":1,"host":"yw.ke.com","name":"义乌","short":"yw","id":"330782"},{"pinyin":"yongkang","province":"待定","nh_only":1,"host":"yongkang.ke.com","name":"永康","short":"yongkang","id":"330784"},{"pinyin":"yongan","province":"待定","nh_only":1,"host":"yongan.ke.com","name":"永安","short":"yongan","id":"350481"},{"pinyin":"yingtan","province":"江西","nh_only":1,"host":"yingtan.ke.com","name":"鹰潭","short":"yingtan","id":"360600"},{"pinyin":"yichun","province":"江西","nh_only":1,"host":"ych.ke.com","name":"宜春","short":"ych","id":"360900"},{"pinyin":"yucheng","province":"待定","nh_only":1,"host":"yucheng.ke.com","name":"禹城","short":"yucheng","id":"371482"},{"pinyin":"yanling","province":"待定","nh_only":1,"host":"yanling.ke.com","name":"鄢陵","short":"yanling","id":"411024"},{"pinyin":"yuzhou","province":"待定","nh_only":1,"host":"yuzhou.ke.com","name":"禹州","short":"yuzhou","id":"411081"},{"pinyin":"yidu","province":"待定","nh_only":1,"host":"yd.ke.com","name":"宜都","short":"yd","id":"420581"},{"pinyin":"yingcheng","province":"待定","nh_only":1,"host":"yingcheng.ke.com","name":"应城","short":"yingcheng","id":"420981"},{"pinyin":"yueyang","province":"湖南","host":"yy.ke.com","name":"岳阳","short":"yy","id":"430600"},{"pinyin":"yiyang","province":"湖南","nh_only":1,"host":"yiyang.ke.com","name":"益阳","short":"yiyang","id":"430900"},{"pinyin":"yongzhou","province":"湖南","nh_only":1,"host":"yongzhou.ke.com","name":"永州","short":"yongzhou","id":"431100"},{"pinyin":"yangjiang","province":"广东","nh_only":1,"host":"yangjiang.ke.com","name":"阳江","short":"yangjiang","id":"441700"},{"pinyin":"yangchun","province":"待定","nh_only":1,"host":"yangchun.ke.com","name":"阳春","short":"yangchun","id":"441781"},{"pinyin":"yingde","province":"待定","nh_only":1,"host":"yingde.ke.com","name":"英德","short":"yingde","id":"441881"},{"pinyin":"yulin","province":"广西壮族自治区","nh_only":1,"host":"yl.ke.com","name":"玉林","short":"yl","id":"450900"},{"pinyin":"yibin","province":"四川","nh_only":1,"host":"yibin.ke.com","name":"宜宾","short":"yibin","id":"511500"},{"pinyin":"yaan","province":"四川","nh_only":1,"host":"yaan.ke.com","name":"雅安","short":"yaan","id":"511800"},{"pinyin":"yuxi","province":"云南","nh_only":1,"host":"yx.ke.com","name":"玉溪","short":"yx","id":"530400"},{"pinyin":"yanan","province":"陕西","nh_only":1,"host":"ya.ke.com","name":"延安","short":"ya","id":"610600"},{"pinyin":"yulin","province":"陕西","nh_only":1,"host":"yulin.ke.com","name":"榆林","short":"yulin","id":"610800"},{"pinyin":"yumen","province":"待定","nh_only":1,"host":"ym.ke.com","name":"玉门","short":"ym","id":"620981"},{"pinyin":"yili","province":"新疆维吾尔自治区","nh_only":1,"host":"yili.ke.com","name":"伊犁","short":"yili","id":"654000"},{"pinyin":"yanji","province":"吉林省","nh_only":1,"name":"延吉","host":"yj.ke.com","short":"yj","id":"222401"},{"pinyin":"yining","province":"新疆维吾尔自治区","nh_only":1,"name":"伊宁","host":"yining.ke.com","short":"yining","id":"654002"},{"pinyin":"yongji","province":"山西省","nh_only":1,"name":"永济","host":"yongji.ke.com","short":"yongji","id":"140881"},{"pinyin":"yizhou","province":"广西壮族自治区","nh_only":1,"name":"宜州","host":"yizhou.ke.com","short":"yizhou","id":"451281"},{"pinyin":"yixing","province":"江苏省","nh_only":1,"name":"宜兴","host":"yixing.ke.com","short":"yixing","id":"320282"},{"pinyin":"yuanjiang","province":"湖南省","nh_only":1,"name":"沅江","host":"yuanjiang.ke.com","short":"yuanjiang","id":"430981"},{"pinyin":"yongcheng","province":"河南省","nh_only":1,"name":"永城","host":"yongcheng.ke.com","short":"yongcheng","id":"411481"},{"pinyin":"yanshi","province":"河南省","nh_only":1,"name":"偃师","host":"yanshi.ke.com","short":"yanshi","id":"410381"},{"pinyin":"yuyao","province":"浙江省","nh_only":1,"name":"余姚","host":"yr.ke.com","short":"yr","id":"330281"}],"Z":[{"pinyin":"zhongshan","province":"广东","name":"中山","host":"zs.ke.com","short":"zs","id":"442000"},{"pinyin":"zhuhai","province":"广东","name":"珠海","host":"zh.ke.com","short":"zh","id":"440400"},{"pinyin":"zhengzhou","province":"河南","name":"郑州","host":"zz.ke.com","short":"zz","id":"410100"},{"pinyin":"zhenjiang","province":"江苏","name":"镇江","host":"zj.ke.com","short":"zj","id":"321100"},{"pinyin":"zibo","province":"山东","name":"淄博","host":"zb.ke.com","short":"zb","id":"370300"},{"pinyin":"zhuzhou","province":"湖南","name":"株洲","host":"zhuzhou.ke.com","short":"zhuzhou","id":"430200"},{"pinyin":"zaozhuang","province":"山东","nh_only":1,"name":"枣庄","host":"zaozhuang.ke.com","short":"zaozhuang","id":"370400"},{"pinyin":"zhaoxian","province":"待定","nh_only":1,"host":"zhaoxian.ke.com","name":"赵县","short":"zhaoxian","id":"130133"},{"pinyin":"zunhua","province":"待定","nh_only":1,"host":"zhunhua.ke.com","name":"遵化","short":"zhunhua","id":"130281"},{"pinyin":"zhuanghe","province":"待定","nh_only":1,"host":"zhuanghe.ke.com","name":"庄河","short":"zhuanghe","id":"210283"},{"pinyin":"zhaodong","province":"待定","nh_only":1,"host":"zhaodong.ke.com","name":"肇东","short":"zhaodong","id":"231282"},{"pinyin":"zhangjiagang","province":"待定","nh_only":1,"host":"zjg.ke.com","name":"张家港","short":"zjg","id":"320582"},{"pinyin":"zhoushan","province":"浙江","nh_only":1,"host":"zhoushan.ke.com","name":"舟山","short":"zhoushan","id":"330900"},{"pinyin":"zhangqiu","province":"待定","nh_only":1,"host":"zhangqiu.ke.com","name":"章丘","short":"zhangqiu","id":"370181"},{"pinyin":"zhaoyuan","province":"待定","nh_only":1,"host":"zhaoyuan.ke.com","name":"招远","short":"zhaoyuan","id":"370685"},{"pinyin":"zhucheng","province":"待定","nh_only":1,"host":"zhucheng.ke.com","name":"诸城","short":"zhucheng","id":"370782"},{"pinyin":"zoucheng","province":"待定","nh_only":1,"host":"zc.ke.com","name":"邹城","short":"zc","id":"370883"},{"pinyin":"zhoukou","province":"河南","nh_only":1,"host":"zk.ke.com","name":"周口","short":"zk","id":"411600"},{"pinyin":"zhumadian","province":"河南","nh_only":1,"host":"zmd.ke.com","name":"驻马店","short":"zmd","id":"411700"},{"pinyin":"zhijiang","province":"待定","nh_only":1,"host":"zhijiang.ke.com","name":"枝江","short":"zhijiang","id":"420583"},{"pinyin":"zhongxiang","province":"待定","nh_only":1,"host":"zhongxiang.ke.com","name":"钟祥","short":"zhongxiang","id":"420881"},{"pinyin":"zhangjiajie","province":"湖南","nh_only":1,"host":"zjj.ke.com","name":"张家界","short":"zjj","id":"430800"},{"pinyin":"zhanjiang","province":"广东","host":"zhanjiang.ke.com","name":"湛江","short":"zhanjiang","id":"440800"},{"pinyin":"zhaoqing","province":"广东","nh_only":1,"host":"zq.ke.com","name":"肇庆","short":"zq","id":"441200"},{"pinyin":"zigong","province":"四川","nh_only":1,"host":"zg.ke.com","name":"自贡","short":"zg","id":"510300"},{"pinyin":"ziyang","province":"四川","nh_only":1,"host":"ziyang.ke.com","name":"资阳","short":"ziyang","id":"512000"},{"pinyin":"zhaotong","province":"云南","nh_only":1,"host":"zt.ke.com","name":"昭通","short":"zt","id":"530600"},{"pinyin":"zhangye","province":"甘肃","nh_only":1,"host":"zy.ke.com","name":"张掖","short":"zy","id":"620700"},{"pinyin":"zhongwei","province":"宁夏回族自治区","nh_only":1,"host":"zw.ke.com","name":"中卫","short":"zw","id":"640500"},{"pinyin":"zhangjiakou","province":"河北","name":"张家口","host":"zjk.ke.com","short":"zjk","id":"130700"},{"pinyin":"zhangzhou","province":"福建","name":"漳州","host":"zhangzhou.ke.com","short":"zhangzhou","id":"350600"},{"pinyin":"zixing","province":"湖南省","nh_only":1,"name":"资兴","host":"zx.ke.com","short":"zx","id":"431081"},{"pinyin":"zhangshu","province":"江西省","nh_only":1,"name":"樟树","host":"zhangshu.ke.com","short":"zhangshu","id":"360982"},{"pinyin":"zhouzhi","province":"陕西省","nh_only":1,"name":"周至","host":"zhouzhi.ke.com","short":"zhouzhi","id":"610124"},{"pinyin":"zhuji","province":"浙江省","nh_only":1,"name":"诸暨","host":"zhuji.ke.com","short":"zhuji","id":"330681"},{"pinyin":"zaoyang","province":"湖北省","nh_only":1,"name":"枣阳","host":"zaoyang.ke.com","short":"zaoyang","id":"420683"},{"pinyin":"zhuozhou","province":"河北省","nh_only":1,"name":"涿州","host":"zhuozhou.ke.com","short":"zhuozhou","id":"130681"},{"pinyin":"zunyi","province":"贵州省","nh_only":1,"name":"遵义","host":"zunyi.ke.com","short":"zunyi","id":"520300"}]},"sign":"bbbe8e5151fcb44b2ca4aa41a2d73b42","hot_list":[],"city_list":{"632800":{"pinyin":"haixi","province":"青海","nh_only":1,"host":"haixi.ke.com","name":"海西","short":"haixi","id":"632800"},"370900":{"pinyin":"taian","province":"山东","nh_only":1,"name":"泰安","host":"ta.ke.com","short":"ta","id":"370900"},"211081":{"pinyin":"dengta","province":"辽宁省","nh_only":1,"name":"灯塔","host":"dengta.ke.com","short":"dengta","id":"211081"},"421100":{"pinyin":"huanggang","province":"湖北","nh_only":1,"name":"黄冈","host":"hg.ke.com","short":"hg","id":"421100"},"511381":{"pinyin":"langzhong","province":"四川省","nh_only":1,"name":"阆中","host":"langzhong.ke.com","short":"langzhong","id":"511381"},"330683":{"pinyin":"shengzhou","province":"浙江省","nh_only":1,"name":"嵊州","host":"shengzhou.ke.com","short":"shengzhou","id":"330683"},"330200":{"pinyin":"ningbo","province":"浙江","name":"宁波","host":"nb.ke.com","short":"nb","id":"330200"},"632802":{"pinyin":"delingha","province":"青海省","nh_only":1,"name":"德令哈","host":"dlh.ke.com","short":"dlh","id":"632802"},"632801":{"pinyin":"geermu","province":"青海省","nh_only":1,"name":"格尔木","host":"grm.ke.com","short":"grm","id":"632801"},"350181":{"pinyin":"fuqing","province":"福建省","nh_only":1,"name":"福清","host":"fuqing.ke.com","short":"fuqing","id":"350181"},"640300":{"pinyin":"wuzhong","province":"宁夏回族自治区","nh_only":1,"host":"wuzhong.ke.com","name":"吴忠","short":"wuzhong","id":"640300"},"430181":{"pinyin":"liuyang","province":"湖南省","nh_only":1,"name":"浏阳","host":"liuyang.ke.com","short":"liuyang","id":"430181"},"411300":{"pinyin":"nanyang","province":"河南","nh_only":1,"name":"南阳","host":"ny.ke.com","short":"ny","id":"411300"},"650100":{"pinyin":"wulumuqi","province":"新疆","nh_only":1,"name":"乌鲁木齐","host":"wlmq.ke.com","short":"wlmq","id":"650100"},"500000":{"pinyin":"chongqing","province":"重庆","name":"重庆","host":"cq.ke.com","short":"cq","id":"500000"},"530900":{"pinyin":"lincang","province":"云南","nh_only":1,"host":"lincang.ke.com","name":"临沧","short":"lincang","id":"530900"},"330681":{"pinyin":"zhuji","province":"浙江省","nh_only":1,"name":"诸暨","host":"zhuji.ke.com","short":"zhuji","id":"330681"},"150600":{"pinyin":"ererduosi","province":"内蒙古","nh_only":1,"name":"鄂尔多斯","host":"eeds.ke.com","short":"eeds","id":"150600"},"152900":{"pinyin":"alashanmeng","province":"内蒙古自治区","nh_only":1,"host":"alsm.ke.com","name":"阿拉善盟","short":"alsm","id":"152900"},"341200":{"pinyin":"fuyang","province":"安徽","nh_only":1,"name":"阜阳","host":"fy.ke.com","short":"fy","id":"341200"},"620800":{"pinyin":"pingliang","province":"甘肃","nh_only":1,"host":"pl.ke.com","name":"平凉","short":"pl","id":"620800"},"431382":{"pinyin":"lianyuan","province":"湖南省","nh_only":1,"name":"涟源","host":"lianyuan.ke.com","short":"lianyuan","id":"431382"},"410100":{"pinyin":"zhengzhou","province":"河南","name":"郑州","host":"zz.ke.com","short":"zz","id":"410100"},"140800":{"pinyin":"yuncheng","province":"山西","nh_only":1,"host":"yuncheng.ke.com","name":"运城","short":"yuncheng","id":"140800"},"431381":{"pinyin":"lengshuijiang","province":"湖南省","nh_only":1,"name":"冷水江","host":"lsj.ke.com","short":"lsj","id":"431381"},"320400":{"pinyin":"cangzhou","province":"河北","name":"常州","host":"changzhou.ke.com","short":"changzhou","id":"320400"},"410581":{"pinyin":"linzhou","province":"待定","nh_only":1,"host":"linzhou.ke.com","name":"林州","short":"linzhou","id":"410581"},"230700":{"pinyin":"yichun","province":"黑龙江","nh_only":1,"host":"yichun.ke.com","name":"伊春","short":"yichun","id":"230700"},"110000":{"pinyin":"beijing","province":"北京","name":"北京","host":"bj.ke.com","short":"bj","id":"110000"},"370800":{"pinyin":"jining","province":"山东","nh_only":1,"name":"济宁","host":"jining.ke.com","short":"jining","id":"370800"},"330781":{"pinyin":"lanxi","province":"待定","nh_only":1,"host":"lanxi.ke.com","name":"兰溪","short":"lanxi","id":"330781"},"330782":{"pinyin":"yiwu","province":"待定","nh_only":1,"host":"yw.ke.com","name":"义乌","short":"yw","id":"330782"},"330783":{"pinyin":"dongyang","province":"待定","nh_only":1,"host":"dongyang.ke.com","name":"东阳","short":"dongyang","id":"330783"},"421000":{"pinyin":"jingzhou","province":"湖北","nh_only":1,"host":"jingzhou.ke.com","name":"荆州","short":"jingzhou","id":"421000"},"330300":{"pinyin":"wenzhou","province":"浙江","name":"温州","host":"wz.ke.com","short":"wz","id":"330300"},"330784":{"pinyin":"yongkang","province":"待定","nh_only":1,"host":"yongkang.ke.com","name":"永康","short":"yongkang","id":"330784"},"330421":{"pinyin":"jiashan","province":"浙江省","nh_only":1,"name":"嘉善","host":"jiashan.ke.com","short":"jiashan","id":"330421"},"340100":{"pinyin":"hefei","province":"安徽","name":"合肥","host":"hf.ke.com","short":"hf","id":"340100"},"640200":{"pinyin":"shizuishan","province":"宁夏回族自治区","nh_only":1,"host":"szs.ke.com","name":"石嘴山","short":"szs","id":"640200"},"411681":{"pinyin":"xiangcheng","province":"河南省","nh_only":1,"name":"项城","host":"xiangcheng.ke.com","short":"xiangcheng","id":"411681"},"512000":{"pinyin":"ziyang","province":"四川","nh_only":1,"host":"ziyang.ke.com","name":"资阳","short":"ziyang","id":"512000"},"510184":{"pinyin":"chongzhou","province":"四川省","nh_only":1,"name":"崇州","host":"chongzhou.ke.com","short":"chongzhou","id":"510184"},"220800":{"pinyin":"baicheng","province":"吉林","nh_only":1,"host":"bc.ke.com","name":"白城","short":"bc","id":"220800"},"510183":{"pinyin":"qionglai","province":"四川省","nh_only":1,"name":"邛崃","host":"ql.ke.com","short":"ql","id":"510183"},"510185":{"pinyin":"jianyang","province":"待定","nh_only":1,"host":"jianyang.ke.com","name":"简阳","short":"jianyang","id":"510185"},"640100":{"pinyin":"yinchuan","province":"宁夏","name":"银川","host":"yinchuan.ke.com","short":"yinchuan","id":"640100"},"130900":{"pinyin":"cangzhou","province":"河北","nh_only":1,"name":"沧州","host":"cangzhou.ke.com","short":"cangzhou","id":"130900"},"652301":{"pinyin":"changji","province":"待定","nh_only":1,"host":"cj.ke.com","name":"昌吉","short":"cj","id":"652301"},"652302":{"pinyin":"fukang","province":"待定","nh_only":1,"host":"fk.ke.com","name":"阜康","short":"fk","id":"652302"},"420281":{"pinyin":"daye","province":"湖北省","nh_only":1,"name":"大冶","host":"dazhi.ke.com","short":"dazhi","id":"420281"},"445200":{"pinyin":"jieyang","province":"广东","nh_only":1,"host":"jieyang.ke.com","name":"揭阳","short":"jieyang","id":"445200"},"510181":{"pinyin":"dujiangyan","province":"四川省","nh_only":1,"name":"都江堰","host":"djy.ke.com","short":"djy","id":"510181"},"230600":{"pinyin":"daqing","province":"黑龙江","nh_only":1,"host":"dq.ke.com","name":"大庆","short":"dq","id":"230600"},"150500":{"pinyin":"tongliao","province":"内蒙古自治区","nh_only":1,"host":"tongliao.ke.com","name":"通辽","short":"tongliao","id":"150500"},"450900":{"pinyin":"yulin","province":"广西壮族自治区","nh_only":1,"host":"yl.ke.com","name":"玉林","short":"yl","id":"450900"},"431281":{"pinyin":"hongjiang","province":"待定","nh_only":1,"host":"hongjiang.ke.com","name":"洪江","short":"hongjiang","id":"431281"},"341300":{"pinyin":"suzhou","province":"安徽","nh_only":1,"host":"suzhou.ke.com","name":"宿州","short":"suzhou","id":"341300"},"513328":{"pinyin":"ganzi","province":"待定","nh_only":1,"host":"ganzi.ke.com","name":"甘孜","short":"ganzi","id":"513328"},"620900":{"pinyin":"jiuquan","province":"甘肃","nh_only":1,"host":"jq.ke.com","name":"酒泉","short":"jq","id":"620900"},"320500":{"pinyin":"suzhou","province":"江苏","name":"苏州","host":"su.ke.com","short":"su","id":"320500"},"140821":{"pinyin":"linyi","province":"待定","nh_only":1,"host":"lin.ke.com","name":"临猗","short":"lin","id":"140821"},"140700":{"pinyin":"jinzhong","province":"山西","nh_only":1,"name":"晋中","host":"jz.ke.com","short":"jz","id":"140700"},"433101":{"pinyin":"jishou","province":"湖南省","nh_only":1,"name":"吉首","host":"jishou.ke.com","short":"jishou","id":"433101"},"410482":{"pinyin":"ruzhou","province":"待定","nh_only":1,"host":"ruzhou.ke.com","name":"汝州","short":"ruzhou","id":"410482"},"320981":{"pinyin":"dongtai","province":"待定","nh_only":1,"host":"dongtai.ke.com","name":"东台","short":"dongtai","id":"320981"},"410481":{"pinyin":"wugang","province":"待定","nh_only":1,"host":"wugang.ke.com","name":"舞钢","short":"wugang","id":"410481"},"433100":{"pinyin":"xiangxi","province":"湖南","nh_only":1,"host":"xx.ke.com","name":"湘西","short":"xx","id":"433100"},"410400":{"pinyin":"pingdingshan","province":"河南","nh_only":1,"host":"pds.ke.com","name":"平顶山","short":"pds","id":"410400"},"410883":{"pinyin":"mengzhou","province":"待定","nh_only":1,"host":"mengzhou.ke.com","name":"孟州","short":"mengzhou","id":"410883"},"330400":{"pinyin":"jiaxing","province":"浙江","name":"嘉兴","host":"jx.ke.com","short":"jx","id":"330400"},"442000":{"pinyin":"zhongshan","province":"广东","name":"中山","host":"zs.ke.com","short":"zs","id":"442000"},"370700":{"pinyin":"weifang","province":"山东","name":"潍坊","host":"wf.ke.com","short":"wf","id":"370700"},"420200":{"pinyin":"huangshi","province":"湖北","host":"huangshi.ke.com","name":"黄石","short":"huangshi","id":"420200"},"340200":{"pinyin":"wuhu","province":"安徽省","name":"芜湖","host":"wuhu.ke.com","short":"wuhu","id":"340200"},"430381":{"pinyin":"xiangxiang","province":"待定","nh_only":1,"host":"xiangxiang.ke.com","name":"湘乡","short":"xiangxiang","id":"430381"},"430382":{"pinyin":"shaoshan","province":"湖南省","nh_only":1,"name":"韶山","host":"ss.ke.com","short":"ss","id":"430382"},"513231":{"pinyin":"aba","province":"待定","nh_only":1,"host":"ab.ke.com","name":"阿坝","short":"ab","id":"513231"},"411500":{"pinyin":"xinyang","province":"河南","nh_only":1,"host":"xinyang.ke.com","name":"信阳","short":"xinyang","id":"411500"},"420100":{"pinyin":"wuhan","province":"湖北","name":"武汉","host":"wh.ke.com","short":"wh","id":"420100"},"420583":{"pinyin":"zhijiang","province":"待定","nh_only":1,"host":"zhijiang.ke.com","name":"枝江","short":"zhijiang","id":"420583"},"220700":{"pinyin":"songyuan","province":"吉林","nh_only":1,"host":"songyuan.ke.com","name":"松原","short":"songyuan","id":"220700"},"420582":{"pinyin":"dangyang","province":"待定","nh_only":1,"host":"dangyang.ke.com","name":"当阳","short":"dangyang","id":"420582"},"420581":{"pinyin":"yidu","province":"待定","nh_only":1,"host":"yd.ke.com","name":"宜都","short":"yd","id":"420581"},"230500":{"pinyin":"shuangyashan","province":"黑龙江","nh_only":1,"host":"sys.ke.com","name":"双鸭山","short":"sys","id":"230500"},"530700":{"pinyin":"lijiang","province":"云南","nh_only":1,"host":"lj.ke.com","name":"丽江","short":"lj","id":"530700"},"630200":{"pinyin":"haidong","province":"青海","nh_only":1,"host":"haidong.ke.com","name":"海东","short":"haidong","id":"630200"},"410781":{"pinyin":"weihui","province":"河南省","nh_only":1,"name":"卫辉","host":"weihui.ke.com","short":"weihui","id":"410781"},"360900":{"pinyin":"yichun","province":"江西","nh_only":1,"host":"ych.ke.com","name":"宜春","short":"ych","id":"360900"},"341881":{"pinyin":"ningguo","province":"安徽省","nh_only":1,"name":"宁国","host":"ng.ke.com","short":"ng","id":"341881"},"320600":{"pinyin":"nantong","province":"江苏","name":"南通","host":"nt.ke.com","short":"nt","id":"320600"},"410782":{"pinyin":"huixian","province":"河南省","nh_only":1,"name":"辉县","host":"huixian.ke.com","short":"huixian","id":"410782"},"341522":{"pinyin":"huoqiu","province":"待定","nh_only":1,"host":"hq.ke.com","name":"霍邱","short":"hq","id":"341522"},"431100":{"pinyin":"yongzhou","province":"湖南","nh_only":1,"host":"yongzhou.ke.com","name":"永州","short":"yongzhou","id":"431100"},"131182":{"pinyin":"shenzhou","province":"河北省","nh_only":1,"name":"深州","host":"shenzhou.ke.com","short":"shenzhou","id":"131182"},"540600":{"pinyin":"naqu","province":"待定","nh_only":1,"host":"nq.ke.com","name":"那曲","short":"nq","id":"540600"},"410300":{"pinyin":"luoyang","province":"河南","name":"洛阳","host":"luoyang.ke.com","short":"luoyang","id":"410300"},"330500":{"pinyin":"huzhou","province":"浙江","name":"湖州","host":"huzhou.ke.com","short":"huzhou","id":"330500"},"421200":{"pinyin":"xianning","province":"湖北","nh_only":1,"name":"咸宁","host":"xn.ke.com","short":"xn","id":"421200"},"370600":{"pinyin":"yantai","province":"山东","name":"烟台","host":"yt.ke.com","short":"yt","id":"370600"},"430281":{"pinyin":"liling","province":"待定","nh_only":1,"host":"liling.ke.com","name":"醴陵","short":"liling","id":"430281"},"210800":{"pinyin":"yingkou","province":"辽宁","nh_only":1,"name":"营口","host":"yk.ke.com","short":"yk","id":"210800"},"419001":{"pinyin":"jiyuan","province":"待定","nh_only":1,"host":"jiyuan.ke.com","name":"济源","short":"jiyuan","id":"419001"},"340300":{"pinyin":"bengbu","province":"安徽","nh_only":1,"host":"bf.ke.com","name":"蚌埠","short":"bf","id":"340300"},"640381":{"pinyin":"qingtongxia","province":"宁夏回族自治区","nh_only":1,"name":"青铜峡","host":"qtx.ke.com","short":"qtx","id":"640381"},"411400":{"pinyin":"shangqiu","province":"河南","nh_only":1,"host":"shangqiu.ke.com","name":"商丘","short":"shangqiu","id":"411400"},"220600":{"pinyin":"baishan","province":"吉林","nh_only":1,"host":"bs.ke.com","name":"白山","short":"bs","id":"220600"},"230400":{"pinyin":"hegang","province":"黑龙江","nh_only":1,"host":"hegang.ke.com","name":"鹤岗","short":"hegang","id":"230400"},"630100":{"pinyin":"xining","province":"青海","nh_only":1,"name":"西宁","host":"xining.ke.com","short":"xining","id":"630100"},"150700":{"pinyin":"hulunbeier","province":"内蒙古自治区","nh_only":1,"host":"hlbr.ke.com","name":"呼伦贝尔","short":"hlbr","id":"150700"},"653201":{"pinyin":"hetian","province":"待定","nh_only":1,"host":"ht.ke.com","name":"和田","short":"ht","id":"653201"},"320700":{"pinyin":"lianyungang","province":"江苏","nh_only":1,"name":"连云港","host":"lyg.ke.com","short":"lyg","id":"320700"},"131082":{"pinyin":"sanhe","province":"待定","nh_only":1,"host":"sanhe.ke.com","name":"三河","short":"sanhe","id":"131082"},"131081":{"pinyin":"bazhou","province":"待定","nh_only":1,"host":"bazhou.ke.com","name":"霸州","short":"bazhou","id":"131081"},"410200":{"pinyin":"kaifeng","province":"河南","host":"kf.ke.com","name":"开封","short":"kf","id":"410200"},"140900":{"pinyin":"xinzhou","province":"山西","nh_only":1,"host":"xinzhou.ke.com","name":"忻州","short":"xinzhou","id":"140900"},"360800":{"pinyin":"jian","province":"江西","name":"吉安","host":"jian.ke.com","short":"jian","id":"360800"},"232700":{"pinyin":"daxinganling","province":"黑龙江","nh_only":1,"host":"dxal.ke.com","name":"大兴安岭","short":"dxal","id":"232700"},"341500":{"pinyin":"luan","province":"安徽","nh_only":1,"host":"la.ke.com","name":"六安","short":"la","id":"341500"},"431000":{"pinyin":"chenzhou","province":"湖南","nh_only":1,"host":"chenzhou.ke.com","name":"郴州","short":"chenzhou","id":"431000"},"410602":{"pinyin":"heshan","province":"待定","nh_only":1,"host":"hsh.ke.com","name":"鹤山","short":"hsh","id":"410602"},"431300":{"pinyin":"loudi","province":"湖南","nh_only":1,"host":"loudi.ke.com","name":"娄底","short":"loudi","id":"431300"},"511781":{"pinyin":"wanyuan","province":"四川省","nh_only":1,"name":"万源","host":"wy.ke.com","short":"wy","id":"511781"},"370982":{"pinyin":"xintai","province":"待定","nh_only":1,"host":"xintai.ke.com","name":"新泰","short":"xintai","id":"370982"},"620300":{"pinyin":"jinchang","province":"甘肃","nh_only":1,"host":"jinchang.ke.com","name":"金昌","short":"jinchang","id":"620300"},"511300":{"pinyin":"nanchong","province":"四川","name":"南充","host":"nanchong.ke.com","short":"nanchong","id":"511300"},"410600":{"pinyin":"hebi","province":"河南","nh_only":1,"host":"hb.ke.com","name":"鹤壁","short":"hb","id":"410600"},"330600":{"pinyin":"shaoxing","province":"浙江","name":"绍兴","host":"sx.ke.com","short":"sx","id":"330600"},"370983":{"pinyin":"feicheng","province":"待定","nh_only":1,"host":"fc.ke.com","name":"肥城","short":"fc","id":"370983"},"370500":{"pinyin":"dongying","province":"山东","nh_only":1,"host":"dongying.ke.com","name":"东营","short":"dongying","id":"370500"},"530181":{"pinyin":"anning","province":"待定","nh_only":1,"host":"an.ke.com","name":"安宁","short":"an","id":"530181"},"520381":{"pinyin":"chishui","province":"待定","nh_only":1,"host":"chishui.ke.com","name":"赤水","short":"chishui","id":"520381"},"520382":{"pinyin":"renhuai","province":"贵州省","nh_only":1,"name":"仁怀","host":"hr.ke.com","short":"hr","id":"520382"},"340881":{"pinyin":"tongcheng","province":"待定","nh_only":1,"host":"tc.ke.com","name":"桐城","short":"tc","id":"340881"},"430581":{"pinyin":"wugang","province":"湖南省","nh_only":1,"name":"武冈","host":"wg.ke.com","short":"wg","id":"430581"},"210700":{"pinyin":"jinzhou","province":"辽宁","nh_only":1,"host":"jinzhou.ke.com","name":"锦州","short":"jinzhou","id":"210700"},"340400":{"pinyin":"huainan","province":"安徽","nh_only":1,"host":"huainan.ke.com","name":"淮南","short":"huainan","id":"340400"},"430200":{"pinyin":"zhuzhou","province":"湖南","name":"株洲","host":"zhuzhou.ke.com","short":"zhuzhou","id":"430200"},"451381":{"pinyin":"heshan","province":"广西壮族自治区","nh_only":1,"name":"合山","host":"heshan.ke.com","short":"heshan","id":"451381"},"350900":{"pinyin":"ningde","province":"福建","nh_only":1,"host":"nd.ke.com","name":"宁德","short":"nd","id":"350900"},"650500":{"pinyin":"hami","province":"新疆维吾尔自治区","nh_only":1,"host":"hm.ke.com","name":"哈密","short":"hm","id":"650500"},"510683":{"pinyin":"mianzhu","province":"四川省","nh_only":1,"name":"绵竹","host":"mianzhu.ke.com","short":"mianzhu","id":"510683"},"510682":{"pinyin":"shenfang","province":"四川省","nh_only":1,"name":"什邡","host":"sf.ke.com","short":"sf","id":"510682"},"411700":{"pinyin":"zhumadian","province":"河南","nh_only":1,"host":"zmd.ke.com","name":"驻马店","short":"zmd","id":"411700"},"533102":{"pinyin":"ruili","province":"待定","nh_only":1,"host":"rl.ke.com","name":"瑞丽","short":"rl","id":"533102"},"130600":{"pinyin":"baoding","province":"河北","name":"保定","host":"baoding.ke.com","short":"baoding","id":"130600"},"533100":{"pinyin":"dehong","province":"云南","nh_only":1,"host":"dh.ke.com","name":"德宏","short":"dh","id":"533100"},"220500":{"pinyin":"tonghua","province":"吉林","nh_only":1,"host":"tonghua.ke.com","name":"通化","short":"tonghua","id":"220500"},"652801":{"pinyin":"kuerle","province":"待定","nh_only":1,"host":"krl.ke.com","name":"库尔勒","short":"krl","id":"652801"},"371700":{"pinyin":"heze","province":"山东","nh_only":1,"name":"菏泽","host":"heze.ke.com","short":"heze","id":"371700"},"610600":{"pinyin":"yanan","province":"陕西","nh_only":1,"host":"ya.ke.com","name":"延安","short":"ya","id":"610600"},"441581":{"pinyin":"lufeng","province":"广东省","nh_only":1,"name":"陆丰","host":"lufeng.ke.com","short":"lufeng","id":"441581"},"230300":{"pinyin":"jixi","province":"黑龙江","nh_only":1,"host":"jixi.ke.com","name":"鸡西","short":"jixi","id":"230300"},"140881":{"pinyin":"yongji","province":"山西省","nh_only":1,"name":"永济","host":"yongji.ke.com","short":"yongji","id":"140881"},"152502":{"pinyin":"xilinhaote","province":"待定","nh_only":1,"host":"xlht.ke.com","name":"锡林浩特","short":"xlht","id":"152502"},"230781":{"pinyin":"tieli","province":"黑龙江省","nh_only":1,"name":"铁力","host":"tieli.ke.com","short":"tieli","id":"230781"},"140400":{"pinyin":"changzhi","province":"山西","nh_only":1,"host":"changzhi.ke.com","name":"长治","short":"changzhi","id":"140400"},"150200":{"pinyin":"baotou","province":"内蒙古","nh_only":1,"name":"包头","host":"baotou.ke.com","short":"baotou","id":"150200"},"152500":{"pinyin":"xilinguolemeng","province":"内蒙古自治区","nh_only":1,"name":"锡林郭勒盟","host":"xlglm.ke.com","short":"xlglm","id":"152500"},"320800":{"pinyin":"huaian","province":"江苏","name":"淮安","host":"ha.ke.com","short":"ha","id":"320800"},"360703":{"pinyin":"nankang","province":"待定","nh_only":1,"host":"nk.ke.com","name":"南康","short":"nk","id":"360703"},"360700":{"pinyin":"ganzhou","province":"江西","host":"ganzhou.ke.com","name":"赣州","short":"ganzhou","id":"360700"},"620400":{"pinyin":"baiyin","province":"甘肃","nh_only":1,"host":"by.ke.com","name":"白银","short":"by","id":"620400"},"341600":{"pinyin":"bozhou","province":"安徽","nh_only":1,"host":"bozhou.ke.com","name":"亳州","short":"bozhou","id":"341600"},"511681":{"pinyin":"huaying","province":"四川省","nh_only":1,"name":"华蓥","host":"huaying.ke.com","short":"huaying","id":"511681"},"370881":{"pinyin":"qufu","province":"待定","nh_only":1,"host":"qf.ke.com","name":"曲阜","short":"qf","id":"370881"},"431200":{"pinyin":"huaihua","province":"湖南","nh_only":1,"host":"hh.ke.com","name":"怀化","short":"hh","id":"431200"},"370883":{"pinyin":"zoucheng","province":"待定","nh_only":1,"host":"zc.ke.com","name":"邹城","short":"zc","id":"370883"},"410500":{"pinyin":"anyang","province":"河南","nh_only":1,"host":"ay.ke.com","name":"安阳","short":"ay","id":"410500"},"330700":{"pinyin":"jinhua","province":"浙江","name":"金华","host":"jh.ke.com","short":"jh","id":"330700"},"370400":{"pinyin":"zaozhuang","province":"山东","nh_only":1,"name":"枣庄","host":"zaozhuang.ke.com","short":"zaozhuang","id":"370400"},"429006":{"pinyin":"tianmen","province":"待定","nh_only":1,"host":"tm.ke.com","name":"天门","short":"tm","id":"429006"},"429005":{"pinyin":"qianjiang","province":"待定","nh_only":1,"host":"qianjiang.ke.com","name":"潜江","short":"qianjiang","id":"429005"},"429004":{"pinyin":"xiantao","province":"待定","nh_only":1,"host":"xiantao.ke.com","name":"仙桃","short":"xiantao","id":"429004"},"420300":{"pinyin":"shiyan","province":"湖北","nh_only":1,"host":"shiyan.ke.com","name":"十堰","short":"shiyan","id":"420300"},"440281":{"pinyin":"lechang","province":"广东省","nh_only":1,"name":"乐昌","host":"lechang.ke.com","short":"lechang","id":"440281"},"522301":{"pinyin":"xingyi","province":"贵州省","nh_only":1,"name":"兴义","host":"xingyi.ke.com","short":"xingyi","id":"522301"},"340500":{"pinyin":"maanshan","province":"安徽","host":"mas.ke.com","name":"马鞍山","short":"mas","id":"340500"},"210600":{"pinyin":"dandong","province":"辽宁","host":"dd.ke.com","name":"丹东","short":"dd","id":"210600"},"430100":{"pinyin":"changsha","province":"湖南","name":"长沙","host":"cs.ke.com","short":"cs","id":"430100"},"350800":{"pinyin":"longyan","province":"福建","nh_only":1,"name":"龙岩","host":"ly.ke.com","short":"ly","id":"350800"},"510100":{"pinyin":"chengdu","province":"四川","name":"成都","host":"cd.ke.com","short":"cd","id":"510100"},"650400":{"pinyin":"tulufan","province":"新疆维吾尔自治区","nh_only":1,"host":"tlf.ke.com","name":"吐鲁番","short":"tlf","id":"650400"},"130983":{"pinyin":"huanghua","province":"河北省","nh_only":1,"name":"黄骅","host":"huanghua.ke.com","short":"huanghua","id":"130983"},"130500":{"pinyin":"xingtai","province":"河北","nh_only":1,"name":"邢台","host":"xt.ke.com","short":"xt","id":"130500"},"130984":{"pinyin":"hejian","province":"河北省","nh_only":1,"name":"河间","host":"hj.ke.com","short":"hj","id":"130984"},"130981":{"pinyin":"botou","province":"河北省","nh_only":1,"name":"泊头","host":"botou.ke.com","short":"botou","id":"130981"},"451281":{"pinyin":"yizhou","province":"广西壮族自治区","nh_only":1,"name":"宜州","host":"yizhou.ke.com","short":"yizhou","id":"451281"},"130982":{"pinyin":"renqiu","province":"待定","nh_only":1,"host":"rq.ke.com","name":"任丘","short":"rq","id":"130982"},"411600":{"pinyin":"zhoukou","province":"河南","nh_only":1,"host":"zk.ke.com","name":"周口","short":"zk","id":"411600"},"371600":{"pinyin":"binzhou","province":"山东","nh_only":1,"host":"binzhou.ke.com","name":"滨州","short":"binzhou","id":"371600"},"610700":{"pinyin":"hanzhong","province":"陕西","host":"hanzhong.ke.com","name":"汉中","short":"hanzhong","id":"610700"},"652700":{"pinyin":"boertala","province":"新疆维吾尔自治区","nh_only":1,"host":"brtl.ke.com","name":"博尔塔拉","short":"brtl","id":"652700"},"420683":{"pinyin":"zaoyang","province":"湖北省","nh_only":1,"name":"枣阳","host":"zaoyang.ke.com","short":"zaoyang","id":"420683"},"220400":{"pinyin":"liaoyuan","province":"吉林","nh_only":1,"host":"liaoyuan.ke.com","name":"辽源","short":"liaoyuan","id":"220400"},"652701":{"pinyin":"bole","province":"新疆维吾尔自治区","nh_only":1,"name":"博乐","host":"bole.ke.com","short":"bole","id":"652701"},"420682":{"pinyin":"laohekou","province":"湖北省","nh_only":1,"name":"老河口","host":"lhk.ke.com","short":"lhk","id":"420682"},"320904":{"pinyin":"dafeng","province":"待定","nh_only":1,"host":"df.ke.com","name":"大丰","short":"df","id":"320904"},"441481":{"pinyin":"xingning","province":"待定","nh_only":1,"host":"xingning.ke.com","name":"兴宁","short":"xingning","id":"441481"},"230200":{"pinyin":"qiqihaer","province":"黑龙江","nh_only":1,"host":"qqhr.ke.com","name":"齐齐哈尔","short":"qqhr","id":"230200"},"320900":{"pinyin":"yancheng","province":"江苏","name":"盐城","host":"yc.ke.com","short":"yc","id":"320900"},"140300":{"pinyin":"yangquan","province":"山西","nh_only":1,"host":"yq.ke.com","name":"阳泉","short":"yq","id":"140300"},"410882":{"pinyin":"qinyang","province":"待定","nh_only":1,"host":"qinyang.ke.com","name":"沁阳","short":"qinyang","id":"410882"},"150100":{"pinyin":"huhehaote","province":"内蒙古","name":"呼和浩特","host":"hhht.ke.com","short":"hhht","id":"150100"},"341700":{"pinyin":"chizhou","province":"安徽","nh_only":1,"host":"chizhou.ke.com","name":"池州","short":"chizhou","id":"341700"},"620500":{"pinyin":"tianshui","province":"甘肃","nh_only":1,"host":"tianshui.ke.com","name":"天水","short":"tianshui","id":"620500"},"360600":{"pinyin":"yingtan","province":"江西","nh_only":1,"host":"yingtan.ke.com","name":"鹰潭","short":"yingtan","id":"360600"},"410800":{"pinyin":"jiaozuo","province":"河南","nh_only":1,"name":"焦作","host":"jiaozuo.ke.com","short":"jiaozuo","id":"410800"},"370781":{"pinyin":"qingzhou","province":"待定","nh_only":1,"host":"qingzhou.ke.com","name":"青州","short":"qingzhou","id":"370781"},"370782":{"pinyin":"zhucheng","province":"待定","nh_only":1,"host":"zhucheng.ke.com","name":"诸城","short":"zhucheng","id":"370782"},"370783":{"pinyin":"shouguang","province":"待定","nh_only":1,"host":"shouguang.ke.com","name":"寿光","short":"shouguang","id":"370783"},"620981":{"pinyin":"yumen","province":"待定","nh_only":1,"host":"ym.ke.com","name":"玉门","short":"ym","id":"620981"},"370300":{"pinyin":"zibo","province":"山东","name":"淄博","host":"zb.ke.com","short":"zb","id":"370300"},"370784":{"pinyin":"anqiu","province":"待定","nh_only":1,"host":"anqiu.ke.com","name":"安丘","short":"anqiu","id":"370784"},"620982":{"pinyin":"dunhuang","province":"甘肃省","nh_only":1,"name":"敦煌","host":"dunhuang.ke.com","short":"dunhuang","id":"620982"},"330800":{"pinyin":"quzhou","province":"浙江","nh_only":1,"host":"quzhou.ke.com","name":"衢州","short":"quzhou","id":"330800"},"513401":{"pinyin":"xichang","province":"四川省","nh_only":1,"name":"西昌","host":"xichang.ke.com","short":"xichang","id":"513401"},"513400":{"pinyin":"liangshan","province":"四川","host":"liangshan.ke.com","name":"凉山","short":"liangshan","id":"513400"},"511100":{"pinyin":"leshan","province":"四川","nh_only":1,"name":"乐山","host":"leshan.ke.com","short":"leshan","id":"511100"},"370785":{"pinyin":"gaomi","province":"待定","nh_only":1,"host":"gm.ke.com","name":"高密","short":"gm","id":"370785"},"441300":{"pinyin":"huizhou","province":"广东","name":"惠州","host":"hui.ke.com","short":"hui","id":"441300"},"220681":{"pinyin":"linjiang","province":"吉林省","nh_only":1,"name":"临江","host":"linjiang.ke.com","short":"linjiang","id":"220681"},"420600":{"pinyin":"xiangyang","province":"湖北","name":"襄阳","host":"xy.ke.com","short":"xy","id":"420600"},"231200":{"pinyin":"suihua","province":"黑龙江","nh_only":1,"host":"suihua.ke.com","name":"绥化","short":"suihua","id":"231200"},"640500":{"pinyin":"zhongwei","province":"宁夏回族自治区","nh_only":1,"host":"zw.ke.com","name":"中卫","short":"zw","id":"640500"},"451100":{"pinyin":"hezhou","province":"广西壮族自治区","nh_only":1,"host":"hezhou.ke.com","name":"贺州","short":"hezhou","id":"451100"},"340600":{"pinyin":"huaibei","province":"安徽","nh_only":1,"host":"huaibei.ke.com","name":"淮北","short":"huaibei","id":"340600"},"210500":{"pinyin":"benxi","province":"辽宁","nh_only":1,"host":"bx.ke.com","name":"本溪","short":"bx","id":"210500"},"520181":{"pinyin":"qingzhen","province":"待定","nh_only":1,"host":"qingzhen.ke.com","name":"清镇","short":"qingzhen","id":"520181"},"350700":{"pinyin":"nanping","province":"福建","nh_only":1,"host":"np.ke.com","name":"南平","short":"np","id":"350700"},"430400":{"pinyin":"hengyang","province":"湖南","nh_only":1,"name":"衡阳","host":"hy.ke.com","short":"hy","id":"430400"},"130800":{"pinyin":"chengde","province":"河北","nh_only":1,"name":"承德","host":"chengde.ke.com","short":"chengde","id":"130800"},"220300":{"pinyin":"siping","province":"吉林","nh_only":1,"host":"sp.ke.com","name":"四平","short":"sp","id":"220300"},"371500":{"pinyin":"liaocheng","province":"山东","nh_only":1,"name":"聊城","host":"lc.ke.com","short":"lc","id":"371500"},"440200":{"pinyin":"shaoguan","province":"广东","nh_only":1,"host":"shaoguan.ke.com","name":"韶关","short":"shaoguan","id":"440200"},"610800":{"pinyin":"yulin","province":"陕西","nh_only":1,"host":"yulin.ke.com","name":"榆林","short":"yulin","id":"610800"},"441781":{"pinyin":"yangchun","province":"待定","nh_only":1,"host":"yangchun.ke.com","name":"阳春","short":"yangchun","id":"441781"},"360982":{"pinyin":"zhangshu","province":"江西省","nh_only":1,"name":"樟树","host":"zhangshu.ke.com","short":"zhangshu","id":"360982"},"230225":{"pinyin":"gannan","province":"待定","nh_only":1,"host":"gn.ke.com","name":"甘南","short":"gn","id":"230225"},"341800":{"pinyin":"xuancheng","province":"安徽","nh_only":1,"host":"xuancheng.ke.com","name":"宣城","short":"xuancheng","id":"341800"},"360981":{"pinyin":"fengcheng","province":"待定","nh_only":1,"host":"fengcheng.ke.com","name":"丰城","short":"fengcheng","id":"360981"},"659002":{"pinyin":"alaer","province":"待定","nh_only":1,"host":"alr.ke.com","name":"阿拉尔","short":"alr","id":"659002"},"230100":{"pinyin":"haerbin","province":"黑龙江","name":"哈尔滨","host":"hrb.ke.com","short":"hrb","id":"230100"},"150400":{"pinyin":"chifeng","province":"内蒙古自治区","nh_only":1,"host":"cf.ke.com","name":"赤峰","short":"cf","id":"150400"},"622901":{"pinyin":"linxia","province":"待定","nh_only":1,"host":"lx.ke.com","name":"临夏","short":"lx","id":"622901"},"360500":{"pinyin":"xinyu","province":"江西","nh_only":1,"host":"xinyu.ke.com","name":"新余","short":"xinyu","id":"360500"},"620600":{"pinyin":"wuwei","province":"甘肃","nh_only":1,"host":"ww.ke.com","name":"武威","short":"ww","id":"620600"},"370682":{"pinyin":"laiyang","province":"待定","nh_only":1,"host":"laiyang.ke.com","name":"莱阳","short":"laiyang","id":"370682"},"410700":{"pinyin":"xinxiang","province":"河南","name":"新乡","host":"xinxiang.ke.com","short":"xinxiang","id":"410700"},"511000":{"pinyin":"neijiang","province":"四川","nh_only":1,"host":"neijiang.ke.com","name":"内江","short":"neijiang","id":"511000"},"370683":{"pinyin":"laizhou","province":"山东省","nh_only":1,"name":"莱州","host":"laizhou.ke.com","short":"laizhou","id":"370683"},"370200":{"pinyin":"qingdao","province":"山东","name":"青岛","host":"qd.ke.com","short":"qd","id":"370200"},"370685":{"pinyin":"zhaoyuan","province":"待定","nh_only":1,"host":"zhaoyuan.ke.com","name":"招远","short":"zhaoyuan","id":"370685"},"330900":{"pinyin":"zhoushan","province":"浙江","nh_only":1,"host":"zhoushan.ke.com","name":"舟山","short":"zhoushan","id":"330900"},"230382":{"pinyin":"mishan","province":"黑龙江省","nh_only":1,"name":"密山","host":"mishan.ke.com","short":"mishan","id":"230382"},"370687":{"pinyin":"haiyang","province":"山东省","nh_only":1,"name":"海阳","host":"haiyang.ke.com","short":"haiyang","id":"370687"},"441200":{"pinyin":"zhaoqing","province":"广东","nh_only":1,"host":"zq.ke.com","name":"肇庆","short":"zq","id":"441200"},"420500":{"pinyin":"yichang","province":"湖北","name":"宜昌","host":"yichang.ke.com","short":"yichang","id":"420500"},"422801":{"pinyin":"enshi","province":"待定","nh_only":1,"host":"es.ke.com","name":"恩施","short":"es","id":"422801"},"340700":{"pinyin":"tongling","province":"安徽","nh_only":1,"host":"tl.ke.com","name":"铜陵","short":"tl","id":"340700"},"420982":{"pinyin":"anlu","province":"待定","nh_only":1,"host":"anlu.ke.com","name":"安陆","short":"anlu","id":"420982"},"422802":{"pinyin":"lichuan","province":"湖北省","nh_only":1,"name":"利川","host":"lichuan.ke.com","short":"lichuan","id":"422802"},"420981":{"pinyin":"yingcheng","province":"待定","nh_only":1,"host":"yingcheng.ke.com","name":"应城","short":"yingcheng","id":"420981"},"210400":{"pinyin":"fushun","province":"辽宁","nh_only":1,"host":"fushun.ke.com","name":"抚顺","short":"fushun","id":"210400"},"231100":{"pinyin":"heihe","province":"黑龙江","nh_only":1,"host":"heihe.ke.com","name":"黑河","short":"heihe","id":"231100"},"210882":{"pinyin":"dashiqiao","province":"待定","nh_only":1,"host":"dsq.ke.com","name":"大石桥","short":"dsq","id":"210882"},"210881":{"pinyin":"gaizhou","province":"待定","nh_only":1,"host":"gaizhou.ke.com","name":"盖州","short":"gaizhou","id":"210881"},"640400":{"pinyin":"guyuan","province":"宁夏回族自治区","nh_only":1,"host":"guyuan.ke.com","name":"固原","short":"guyuan","id":"640400"},"451000":{"pinyin":"bose","province":"广西壮族自治区","nh_only":1,"host":"baise.ke.com","name":"百色","short":"baise","id":"451000"},"430682":{"pinyin":"linxiang","province":"待定","nh_only":1,"host":"linxiang.ke.com","name":"临湘","short":"linxiang","id":"430682"},"350600":{"pinyin":"zhangzhou","province":"福建","name":"漳州","host":"zhangzhou.ke.com","short":"zhangzhou","id":"350600"},"371400":{"pinyin":"dezhou","province":"山东","nh_only":1,"host":"dezhou.ke.com","name":"德州","short":"dezhou","id":"371400"},"430300":{"pinyin":"xiangtan","province":"湖南","nh_only":1,"host":"xiangtan.ke.com","name":"湘潭","short":"xiangtan","id":"430300"},"321084":{"pinyin":"gaoyou","province":"待定","nh_only":1,"host":"gaoyou.ke.com","name":"高邮","short":"gaoyou","id":"321084"},"650200":{"pinyin":"kelamayi","province":"新疆维吾尔自治区","nh_only":1,"host":"klmy.ke.com","name":"克拉玛依","short":"klmy","id":"650200"},"321081":{"pinyin":"yizheng","province":"待定","nh_only":1,"host":"yizheng.ke.com","name":"仪征","short":"yizheng","id":"321081"},"610900":{"pinyin":"ankang","province":"陕西","nh_only":1,"host":"ak.ke.com","name":"安康","short":"ak","id":"610900"},"220200":{"pinyin":"jilin","province":"吉林","host":"jl.ke.com","name":"吉林","short":"jl","id":"220200"},"130700":{"pinyin":"zhangjiakou","province":"河北","name":"张家口","host":"zjk.ke.com","short":"zjk","id":"130700"},"420881":{"pinyin":"zhongxiang","province":"待定","nh_only":1,"host":"zhongxiang.ke.com","name":"钟祥","short":"zhongxiang","id":"420881"},"220202":{"pinyin":"changyi","province":"待定","nh_only":1,"host":"cy.ke.com","name":"昌邑","short":"cy","id":"220202"},"440100":{"pinyin":"guangzhou","province":"广东","name":"广州","host":"gz.ke.com","short":"gz","id":"440100"},"360400":{"pinyin":"jiujiang","province":"江西","host":"jiujiang.ke.com","name":"九江","short":"jiujiang","id":"360400"},"140500":{"pinyin":"jincheng","province":"山西","nh_only":1,"host":"jc.ke.com","name":"晋城","short":"jc","id":"140500"},"150300":{"pinyin":"wuhai","province":"内蒙古自治区","nh_only":1,"host":"wuhai.ke.com","name":"乌海","short":"wuhai","id":"150300"},"150781":{"pinyin":"manzhouli","province":"内蒙古自治区","nh_only":1,"name":"满洲里","host":"mzl.ke.com","short":"mzl","id":"150781"},"620700":{"pinyin":"zhangye","province":"甘肃","nh_only":1,"host":"zy.ke.com","name":"张掖","short":"zy","id":"620700"},"370101":{"pinyin":"jinan","province":"山东","name":"济南","host":"jn.ke.com","short":"jn","id":"370101"},"530100":{"pinyin":"kunming","province":"云南","name":"昆明","host":"km.ke.com","short":"km","id":"530100"},"230281":{"pinyin":"nehe","province":"待定","nh_only":1,"host":"nh.ke.com","name":"讷河","short":"nh","id":"230281"},"441500":{"pinyin":"shanwei","province":"广东","nh_only":1,"host":"sw.ke.com","name":"汕尾","short":"sw","id":"441500"},"610100":{"pinyin":"xian","province":"陕西","name":"西安","host":"xa.ke.com","short":"xa","id":"610100"},"340800":{"pinyin":"anqing","province":"安徽","host":"aq.ke.com","name":"安庆","short":"aq","id":"340800"},"420800":{"pinyin":"jingmen","province":"湖北","nh_only":1,"name":"荆门","host":"jm.ke.com","short":"jm","id":"420800"},"231000":{"pinyin":"mudanjiang","province":"黑龙江","nh_only":1,"host":"mdj.ke.com","name":"牡丹江","short":"mdj","id":"231000"},"610581":{"pinyin":"hancheng","province":"陕西省","nh_only":1,"name":"韩城","host":"hancheng.ke.com","short":"hancheng","id":"610581"},"210300":{"pinyin":"anshan","province":"辽宁","nh_only":1,"name":"鞍山","host":"as.ke.com","short":"as","id":"210300"},"510600":{"pinyin":"dengyang","province":"四川","nh_only":1,"name":"德阳","host":"dy.ke.com","short":"dy","id":"510600"},"451300":{"pinyin":"laibin","province":"广西壮族自治区","nh_only":1,"host":"lb.ke.com","name":"来宾","short":"lb","id":"451300"},"130682":{"pinyin":"dingzhou","province":"待定","nh_only":1,"host":"dingzhou.ke.com","name":"定州","short":"dingzhou","id":"130682"},"621100":{"pinyin":"dingxi","province":"甘肃","nh_only":1,"host":"dingxi.ke.com","name":"定西","short":"dingxi","id":"621100"},"130683":{"pinyin":"anguo","province":"河北省","nh_only":1,"name":"安国","host":"ag.ke.com","short":"ag","id":"130683"},"371300":{"pinyin":"linyi","province":"山东","name":"临沂","host":"linyi.ke.com","short":"linyi","id":"371300"},"130681":{"pinyin":"zhuozhou","province":"河北省","nh_only":1,"name":"涿州","host":"zhuozhou.ke.com","short":"zhuozhou","id":"130681"},"430600":{"pinyin":"yueyang","province":"湖南","host":"yy.ke.com","name":"岳阳","short":"yy","id":"430600"},"210682":{"pinyin":"fengcheng","province":"辽宁省","nh_only":1,"name":"凤城","host":"fch.ke.com","short":"fch","id":"210682"},"321183":{"pinyin":"jurong","province":"江苏省","nh_only":1,"name":"句容","host":"jr.ke.com","short":"jr","id":"321183"},"210681":{"pinyin":"donggang","province":"辽宁省","nh_only":1,"name":"东港","host":"donggang.ke.com","short":"donggang","id":"210681"},"130200":{"pinyin":"tangshan","province":"河北","name":"唐山","host":"ts.ke.com","short":"ts","id":"130200"},"321181":{"pinyin":"danyang","province":"江苏省","nh_only":1,"name":"丹阳","host":"danyang.ke.com","short":"danyang","id":"321181"},"130684":{"pinyin":"gaobeidian","province":"河北省","nh_only":1,"name":"高碑店","host":"gbd.ke.com","short":"gbd","id":"130684"},"220100":{"pinyin":"changchun","province":"吉林省","name":"长春","host":"cc.ke.com","short":"cc","id":"220100"},"222400":{"pinyin":"yanbian","province":"吉林","nh_only":1,"host":"yb.ke.com","name":"延边","short":"yb","id":"222400"},"520300":{"pinyin":"zunyi","province":"贵州省","nh_only":1,"name":"遵义","host":"zunyi.ke.com","short":"zunyi","id":"520300"},"522600":{"pinyin":"qiandongnan","province":"贵州","nh_only":1,"host":"qdn.ke.com","name":"黔东南","short":"qdn","id":"522600"},"222401":{"pinyin":"yanji","province":"吉林省","nh_only":1,"name":"延吉","host":"yj.ke.com","short":"yj","id":"222401"},"522601":{"pinyin":"kaili","province":"待定","nh_only":1,"host":"kaili.ke.com","name":"凯里","short":"kaili","id":"522601"},"440400":{"pinyin":"zhuhai","province":"广东","name":"珠海","host":"zh.ke.com","short":"zh","id":"440400"},"440883":{"pinyin":"wuchuan","province":"待定","nh_only":1,"host":"wuchuan.ke.com","name":"吴川","short":"wuchuan","id":"440883"},"222404":{"pinyin":"hunchun","province":"吉林省","nh_only":1,"name":"珲春","host":"hunchun.ke.com","short":"hunchun","id":"222404"},"350981":{"pinyin":"fuan","province":"福建省","nh_only":1,"name":"福安","host":"fa.ke.com","short":"fa","id":"350981"},"440882":{"pinyin":"leizhou","province":"待定","nh_only":1,"host":"leizhou.ke.com","name":"雷州","short":"leizhou","id":"440882"},"222405":{"pinyin":"longjing","province":"吉林省","nh_only":1,"name":"龙井","host":"longjing.ke.com","short":"longjing","id":"222405"},"350982":{"pinyin":"fuding","province":"福建省","nh_only":1,"name":"福鼎","host":"fd.ke.com","short":"fd","id":"350982"},"440881":{"pinyin":"lianjiang","province":"待定","nh_only":1,"host":"lianjiang.ke.com","name":"廉江","short":"lianjiang","id":"440881"},"350500":{"pinyin":"quanzhou","province":"福建","name":"泉州","host":"quanzhou.ke.com","short":"quanzhou","id":"350500"},"222403":{"pinyin":"dunhua","province":"吉林省","nh_only":1,"name":"敦化","host":"dunhua.ke.com","short":"dunhua","id":"222403"},"360300":{"pinyin":"pingxiang","province":"江西","nh_only":1,"host":"pingxiang.ke.com","name":"萍乡","short":"pingxiang","id":"360300"},"140481":{"pinyin":"lucheng","province":"山西省","nh_only":1,"name":"潞城","host":"lucheng.ke.com","short":"lucheng","id":"140481"},"140121":{"pinyin":"qingxu","province":"待定","nh_only":1,"host":"qx.ke.com","name":"清徐","short":"qx","id":"140121"},"360781":{"pinyin":"ruijin","province":"待定","nh_only":1,"host":"rj.ke.com","name":"瑞金","short":"rj","id":"360781"},"211400":{"pinyin":"huludao","province":"辽宁","nh_only":1,"host":"hld.ke.com","name":"葫芦岛","short":"hld","id":"211400"},"511800":{"pinyin":"yaan","province":"四川","nh_only":1,"host":"yaan.ke.com","name":"雅安","short":"yaan","id":"511800"},"450200":{"pinyin":"liuzhou","province":"广西壮族自治区","host":"liuzhou.ke.com","name":"柳州","short":"liuzhou","id":"450200"},"532529":{"pinyin":"honghe","province":"待定","nh_only":1,"host":"honghe.ke.com","name":"红河","short":"honghe","id":"532529"},"888886":{"pinyin":"xiongan","province":"河北","host":"xan.ke.com","name":"雄安新区","short":"xan","id":"888886"},"410900":{"pinyin":"puyang","province":"河南","nh_only":1,"host":"py.ke.com","name":"濮阳","short":"py","id":"410900"},"450481":{"pinyin":"cenxi","province":"广西壮族自治区","nh_only":1,"name":"岑溪","host":"cx.ke.com","short":"cx","id":"450481"},"370481":{"pinyin":"tengzhou","province":"待定","nh_only":1,"host":"tengzhou.ke.com","name":"滕州","short":"tengzhou","id":"370481"},"230184":{"pinyin":"wuchang","province":"待定","nh_only":1,"host":"wuchang.ke.com","name":"五常","short":"wuchang","id":"230184"},"460000":{"pinyin":"hainan","province":"海南","nh_only":1,"host":"hn.ke.com","name":"海南","short":"hn","id":"460000"},"230183":{"pinyin":"shangzhi","province":"待定","nh_only":1,"host":"shangzhi.ke.com","name":"尚志","short":"shangzhi","id":"230183"},"441400":{"pinyin":"meizhou","province":"广东","nh_only":1,"host":"meizhou.ke.com","name":"梅州","short":"meizhou","id":"441400"},"441882":{"pinyin":"lianzhou","province":"待定","nh_only":1,"host":"lianzhou.ke.com","name":"连州","short":"lianzhou","id":"441882"},"441881":{"pinyin":"yingde","province":"待定","nh_only":1,"host":"yingde.ke.com","name":"英德","short":"yingde","id":"441881"},"141100":{"pinyin":"lvliang","province":"山西","nh_only":1,"host":"lvliang.ke.com","name":"吕梁","short":"lvliang","id":"141100"},"610200":{"pinyin":"tongchuan","province":"陕西","nh_only":1,"host":"tongchuan.ke.com","name":"铜川","short":"tongchuan","id":"610200"},"331081":{"pinyin":"wenling","province":"待定","nh_only":1,"host":"wl.ke.com","name":"温岭","short":"wl","id":"331081"},"220381":{"pinyin":"gongzhuling","province":"待定","nh_only":1,"host":"gzl.ke.com","name":"公主岭","short":"gzl","id":"220381"},"331082":{"pinyin":"linhai","province":"待定","nh_only":1,"host":"lh.ke.com","name":"临海","short":"lh","id":"331082"},"420700":{"pinyin":"ezhou","province":"湖北","host":"ez.ke.com","name":"鄂州","short":"ez","id":"420700"},"510500":{"pinyin":"luzhou","province":"四川","nh_only":1,"host":"luzhou.ke.com","name":"泸州","short":"luzhou","id":"510500"},"210200":{"pinyin":"dalian","province":"辽宁","name":"大连","host":"dl.ke.com","short":"dl","id":"210200"},"451200":{"pinyin":"hechi","province":"广西壮族自治区","nh_only":1,"host":"hc.ke.com","name":"河池","short":"hc","id":"451200"},"371200":{"pinyin":"laiwu","province":"山东","nh_only":1,"host":"lw.ke.com","name":"莱芜","short":"lw","id":"371200"},"621200":{"pinyin":"longnan","province":"甘肃","nh_only":1,"host":"ln.ke.com","name":"陇南","short":"ln","id":"621200"},"430981":{"pinyin":"yuanjiang","province":"湖南省","nh_only":1,"name":"沅江","host":"yuanjiang.ke.com","short":"yuanjiang","id":"430981"},"130100":{"pinyin":"shijiazhuang","province":"河北","name":"石家庄","host":"sjz.ke.com","short":"sjz","id":"130100"},"130581":{"pinyin":"nangong","province":"河北省","nh_only":1,"name":"南宫","host":"nangong.ke.com","short":"nangong","id":"130581"},"321282":{"pinyin":"jingjiang","province":"待定","nh_only":1,"host":"jingjiang.ke.com","name":"靖江","short":"jingjiang","id":"321282"},"321283":{"pinyin":"taixing","province":"待定","nh_only":1,"host":"tx.ke.com","name":"泰兴","short":"tx","id":"321283"},"430500":{"pinyin":"shaoyang","province":"湖南","nh_only":1,"host":"shaoyang.ke.com","name":"邵阳","short":"shaoyang","id":"430500"},"520400":{"pinyin":"anshun","province":"贵州","nh_only":1,"host":"anshun.ke.com","name":"安顺","short":"anshun","id":"520400"},"522700":{"pinyin":"qiannan","province":"贵州","nh_only":1,"host":"qn.ke.com","name":"黔南","short":"qn","id":"522700"},"440785":{"pinyin":"enping","province":"待定","nh_only":1,"host":"ep.ke.com","name":"恩平","short":"ep","id":"440785"},"440300":{"pinyin":"shenzhen","province":"广东","name":"深圳","host":"sz.ke.com","short":"sz","id":"440300"},"522702":{"pinyin":"fuquan","province":"贵州省","nh_only":1,"name":"福泉","host":"fq.ke.com","short":"fq","id":"522702"},"440783":{"pinyin":"kaiping","province":"广东","nh_only":1,"host":"kp.ke.com","name":"开平","short":"kp","id":"440783"},"350400":{"pinyin":"sanming","province":"福建","nh_only":1,"host":"sm.ke.com","name":"三明","short":"sm","id":"350400"},"440781":{"pinyin":"taishan","province":"待定","nh_only":1,"host":"taishan.ke.com","name":"台山","short":"taishan","id":"440781"},"360200":{"pinyin":"jingdezhen","province":"江西","nh_only":1,"host":"jdz.ke.com","name":"景德镇","short":"jdz","id":"360200"},"532502":{"pinyin":"kaiyuan","province":"待定","nh_only":1,"host":"ky.ke.com","name":"开远","short":"ky","id":"532502"},"360681":{"pinyin":"guixi","province":"江西省","nh_only":1,"name":"贵溪","host":"gx.ke.com","short":"gx","id":"360681"},"532501":{"pinyin":"gejiu","province":"云南省","nh_only":1,"name":"个旧","host":"gejiu.ke.com","short":"gejiu","id":"532501"},"511700":{"pinyin":"dazhou","province":"四川","name":"达州","host":"dazhou.ke.com","short":"dazhou","id":"511700"},"211300":{"pinyin":"zhaoyang","province":"辽宁","nh_only":1,"host":"chaoyang.ke.com","name":"朝阳","short":"chaoyang","id":"211300"},"450100":{"pinyin":"nanning","province":"广西","name":"南宁","host":"nn.ke.com","short":"nn","id":"450100"},"210214":{"pinyin":"pulandian","province":"待定","nh_only":1,"host":"pld.ke.com","name":"普兰店","short":"pld","id":"210214"},"620100":{"pinyin":"lanzhou","province":"甘肃","name":"兰州","host":"lz.ke.com","short":"lz","id":"620100"},"320282":{"pinyin":"yixing","province":"江苏省","nh_only":1,"name":"宜兴","host":"yixing.ke.com","short":"yixing","id":"320282"},"460100":{"pinyin":"haikou","province":"海南","name":"海口","host":"hk.ke.com","short":"hk","id":"460100"},"441700":{"pinyin":"yangjiang","province":"广东","nh_only":1,"host":"yangjiang.ke.com","name":"阳江","short":"yangjiang","id":"441700"},"530381":{"pinyin":"xuanwei","province":"云南省","nh_only":1,"name":"宣威","host":"xw.ke.com","short":"xw","id":"530381"},"310000":{"pinyin":"shanghai","province":"上海","name":"上海","host":"sh.ke.com","short":"sh","id":"310000"},"610300":{"pinyin":"baoji","province":"陕西","name":"宝鸡","host":"baoji.ke.com","short":"baoji","id":"610300"},"220281":{"pinyin":"jiaohe","province":"吉林省","nh_only":1,"name":"蛟河","host":"jiaohe.ke.com","short":"jiaohe","id":"220281"},"220282":{"pinyin":"huadian","province":"待定","nh_only":1,"host":"huadian.ke.com","name":"桦甸","short":"huadian","id":"220282"},"331181":{"pinyin":"longquan","province":"待定","nh_only":1,"host":"lq.ke.com","name":"龙泉","short":"lq","id":"331181"},"520100":{"pinyin":"guiyang","province":"贵州","name":"贵阳","host":"gy.ke.com","short":"gy","id":"520100"},"510400":{"pinyin":"panzhihua","province":"四川","nh_only":1,"host":"pzh.ke.com","name":"攀枝花","short":"pzh","id":"510400"},"210100":{"pinyin":"shenyang","province":"辽宁","name":"沈阳","host":"sy.ke.com","short":"sy","id":"210100"},"371100":{"pinyin":"rizhao","province":"山东","nh_only":1,"host":"rz.ke.com","name":"日照","short":"rz","id":"371100"},"231281":{"pinyin":"anda","province":"待定","nh_only":1,"host":"ad.ke.com","name":"安达","short":"ad","id":"231281"},"440606":{"pinyin":"shunde","province":"待定","nh_only":1,"host":"sd.ke.com","name":"顺德","short":"sd","id":"440606"},"130400":{"pinyin":"handan","province":"河北","nh_only":1,"name":"邯郸","host":"hd.ke.com","short":"hd","id":"130400"},"231282":{"pinyin":"zhaodong","province":"待定","nh_only":1,"host":"zhaodong.ke.com","name":"肇东","short":"zhaodong","id":"231282"},"371581":{"pinyin":"linqing","province":"待定","nh_only":1,"host":"linqing.ke.com","name":"临清","short":"linqing","id":"371581"},"430800":{"pinyin":"zhangjiajie","province":"湖南","nh_only":1,"host":"zjj.ke.com","name":"张家界","short":"zjj","id":"430800"},"440600":{"pinyin":"foshan","province":"广东","name":"佛山","host":"fs.ke.com","short":"fs","id":"440600"},"533300":{"pinyin":"nujiang","province":"云南","nh_only":1,"host":"nujiang.ke.com","name":"怒江","short":"nujiang","id":"533300"},"350781":{"pinyin":"shaowu","province":"福建省","nh_only":1,"name":"邵武","host":"shaowu.ke.com","short":"shaowu","id":"350781"},"350783":{"pinyin":"jianou","province":"福建省","nh_only":1,"name":"建瓯","host":"jo.ke.com","short":"jo","id":"350783"},"350300":{"pinyin":"putian","province":"福建","nh_only":1,"host":"pt.ke.com","name":"莆田","short":"pt","id":"350300"},"360100":{"pinyin":"nanchang","province":"江西","name":"南昌","host":"nc.ke.com","short":"nc","id":"360100"},"140200":{"pinyin":"datong","province":"山西","nh_only":1,"name":"大同","host":"dt.ke.com","short":"dt","id":"140200"},"450400":{"pinyin":"wuzhou","province":"广西壮族自治区","nh_only":1,"host":"wuzhou.ke.com","name":"梧州","short":"wuzhou","id":"450400"},"211200":{"pinyin":"tieling","province":"辽宁","nh_only":1,"host":"tieling.ke.com","name":"铁岭","short":"tieling","id":"211200"},"511600":{"pinyin":"guangan","province":"四川","nh_only":1,"host":"ga.ke.com","name":"广安","short":"ga","id":"511600"},"450881":{"pinyin":"guiping","province":"待定","nh_only":1,"host":"gp.ke.com","name":"桂平","short":"gp","id":"450881"},"620200":{"pinyin":"jiayuguan","province":"甘肃","nh_only":1,"host":"jyg.ke.com","name":"嘉峪关","short":"jyg","id":"620200"},"320382":{"pinyin":"peizhou","province":"江苏省","nh_only":1,"name":"邳州","host":"pz.ke.com","short":"pz","id":"320382"},"211100":{"pinyin":"panjin","province":"辽宁","nh_only":1,"host":"pj.ke.com","name":"盘锦","short":"pj","id":"211100"},"511400":{"pinyin":"meishan","province":"四川","name":"眉山","host":"ms.ke.com","short":"ms","id":"511400"},"370283":{"pinyin":"pingdu","province":"山东省","nh_only":1,"name":"平度","host":"pd.ke.com","short":"pd","id":"370283"},"320381":{"pinyin":"xinyi","province":"江苏省","nh_only":1,"name":"新沂","host":"xiny.ke.com","short":"xiny","id":"320381"},"370285":{"pinyin":"laixi","province":"山东省","nh_only":1,"name":"莱西","host":"laixi.ke.com","short":"laixi","id":"370285"},"441600":{"pinyin":"heyuan","province":"广东","nh_only":1,"host":"heyuan.ke.com","name":"河源","short":"heyuan","id":"441600"},"460200":{"pinyin":"sanya","province":"海南","name":"三亚","host":"san.ke.com","short":"san","id":"460200"},"469028":{"pinyin":"lingshui","province":"海南","nh_only":1,"name":"陵水","host":"ls.ke.com","short":"ls","id":"469028"},"411081":{"pinyin":"yuzhou","province":"待定","nh_only":1,"host":"yuzhou.ke.com","name":"禹州","short":"yuzhou","id":"411081"},"469027":{"pinyin":"ledong","province":"海南","nh_only":1,"name":"乐东","host":"ld.ke.com","short":"ld","id":"469027"},"610400":{"pinyin":"xianyang","province":"陕西","host":"xianyang.ke.com","name":"咸阳","short":"xianyang","id":"610400"},"220182":{"pinyin":"yushu","province":"待定","nh_only":1,"host":"yushu.ke.com","name":"榆树","short":"yushu","id":"220182"},"411082":{"pinyin":"changge","province":"待定","nh_only":1,"host":"cg.ke.com","name":"长葛","short":"cg","id":"411082"},"469024":{"pinyin":"lingao","province":"海南","nh_only":1,"name":"临高","host":"lg.ke.com","short":"lg","id":"469024"},"420900":{"pinyin":"xiaogan","province":"湖北","nh_only":1,"name":"孝感","host":"xg.ke.com","short":"xg","id":"420900"},"469023":{"pinyin":"chengmai","province":"海南","nh_only":1,"name":"澄迈","host":"cm.ke.com","short":"cm","id":"469023"},"220183":{"pinyin":"dehui","province":"待定","nh_only":1,"host":"dehui.ke.com","name":"德惠","short":"dehui","id":"220183"},"469021":{"pinyin":"dingan","province":"海南","nh_only":1,"name":"定安","host":"da.ke.com","short":"da","id":"469021"},"520200":{"pinyin":"liupanshui","province":"贵州","nh_only":1,"host":"lps.ke.com","name":"六盘水","short":"lps","id":"520200"},"451400":{"pinyin":"chongzuo","province":"广西壮族自治区","nh_only":1,"host":"chongzuo.ke.com","name":"崇左","short":"chongzuo","id":"451400"},"321000":{"pinyin":"yangzhou","province":"江苏","nh_only":1,"name":"扬州","host":"yz.ke.com","short":"yz","id":"321000"},"210381":{"pinyin":"haicheng","province":"待定","nh_only":1,"host":"haicheng.ke.com","name":"海城","short":"haicheng","id":"210381"},"231181":{"pinyin":"beian","province":"黑龙江省","nh_only":1,"name":"北安","host":"ba.ke.com","short":"ba","id":"231181"},"231182":{"pinyin":"wudalianchi","province":"黑龙江省","nh_only":1,"name":"五大连池","host":"wdlc.ke.com","short":"wdlc","id":"231182"},"371482":{"pinyin":"yucheng","province":"待定","nh_only":1,"host":"yucheng.ke.com","name":"禹城","short":"yucheng","id":"371482"},"371481":{"pinyin":"leling","province":"待定","nh_only":1,"host":"ll.ke.com","name":"乐陵","short":"ll","id":"371481"},"510781":{"pinyin":"jiangyou","province":"四川省","nh_only":1,"name":"江油","host":"jiangyou.ke.com","short":"jiangyou","id":"510781"},"371000":{"pinyin":"weihai","province":"山东","name":"威海","host":"weihai.ke.com","short":"weihai","id":"371000"},"510300":{"pinyin":"zigong","province":"四川","nh_only":1,"host":"zg.ke.com","name":"自贡","short":"zg","id":"510300"},"430700":{"pinyin":"changde","province":"湖南","name":"常德","host":"changde.ke.com","short":"changde","id":"430700"},"130300":{"pinyin":"qinhuangdao","province":"河北","nh_only":1,"name":"秦皇岛","host":"qhd.ke.com","short":"qhd","id":"130300"},"533400":{"pinyin":"diqing","province":"云南","nh_only":1,"host":"diqing.ke.com","name":"迪庆","short":"diqing","id":"533400"},"350681":{"pinyin":"longhai","province":"待定","nh_only":1,"host":"longhai.ke.com","name":"龙海","short":"longhai","id":"350681"},"440500":{"pinyin":"shantou","province":"广东","nh_only":1,"name":"汕头","host":"st.ke.com","short":"st","id":"440500"},"350200":{"pinyin":"xiamen","province":"福建","name":"厦门","host":"xm.ke.com","short":"xm","id":"350200"},"440982":{"pinyin":"huazhou","province":"待定","nh_only":1,"host":"huazhou.ke.com","name":"化州","short":"huazhou","id":"440982"},"440981":{"pinyin":"gaozhou","province":"待定","nh_only":1,"host":"gaozhou.ke.com","name":"高州","short":"gaozhou","id":"440981"},"610500":{"pinyin":"weinan","province":"陕西","nh_only":1,"host":"weinan.ke.com","name":"渭南","short":"weinan","id":"610500"},"469029":{"pinyin":"baoting","province":"海南","nh_only":1,"name":"保亭","host":"bt.ke.com","short":"bt","id":"469029"},"652901":{"pinyin":"akesu","province":"待定","nh_only":1,"host":"aks.ke.com","name":"阿克苏","short":"aks","id":"652901"},"360124":{"pinyin":"jinxian","province":"江西省","nh_only":1,"name":"进贤","host":"jinxian.ke.com","short":"jinxian","id":"360124"},"140100":{"pinyin":"taiyuan","province":"山西","name":"太原","host":"ty.ke.com","short":"ty","id":"140100"},"360481":{"pinyin":"ruichang","province":"江西省","nh_only":1,"name":"瑞昌","host":"rc.ke.com","short":"rc","id":"360481"},"532301":{"pinyin":"chuxiong","province":"待定","nh_only":1,"host":"chuxiong.ke.com","name":"楚雄","short":"chuxiong","id":"532301"},"330182":{"pinyin":"jiande","province":"浙江省","nh_only":1,"name":"建德","host":"jd.ke.com","short":"jd","id":"330182"},"469030":{"pinyin":"qiongzhong","province":"海南","nh_only":1,"name":"琼中","host":"qz.ke.com","short":"qz","id":"469030"},"450300":{"pinyin":"guilin","province":"广西壮族自治区","host":"gl.ke.com","name":"桂林","short":"gl","id":"450300"},"511500":{"pinyin":"yibin","province":"四川","nh_only":1,"host":"yibin.ke.com","name":"宜宾","short":"yibin","id":"511500"},"370281":{"pinyin":"jiaozhou","province":"山东省","nh_only":1,"name":"胶州","host":"jiaozhou.ke.com","short":"jiaozhou","id":"370281"},"211481":{"pinyin":"xingcheng","province":"辽宁省","nh_only":1,"name":"兴城","host":"xingcheng.ke.com","short":"xingcheng","id":"211481"},"341181":{"pinyin":"tianchang","province":"安徽省","nh_only":1,"name":"天长","host":"tianchang.ke.com","short":"tianchang","id":"341181"},"341182":{"pinyin":"mingguang","province":"待定","nh_only":1,"host":"mingguang.ke.com","name":"明光","short":"mingguang","id":"341182"},"131000":{"pinyin":"langfang","province":"河北","name":"廊坊","host":"lf.ke.com","short":"lf","id":"131000"},"320481":{"pinyin":"liyang","province":"待定","nh_only":1,"host":"liyang.ke.com","name":"溧阳","short":"liyang","id":"320481"},"421181":{"pinyin":"macheng","province":"湖北省","nh_only":1,"name":"麻城","host":"mc.ke.com","short":"mc","id":"421181"},"211000":{"pinyin":"liaoyang","province":"辽宁","nh_only":1,"host":"liaoyang.ke.com","name":"辽阳","short":"liaoyang","id":"211000"},"540300":{"pinyin":"changdu","province":"西藏自治区","nh_only":1,"host":"changdu.ke.com","name":"昌都","short":"changdu","id":"540300"},"441900":{"pinyin":"dongguan","province":"广东","name":"东莞","host":"dg.ke.com","short":"dg","id":"441900"},"421182":{"pinyin":"wuxue","province":"湖北省","nh_only":1,"name":"武穴","host":"wuxue.ke.com","short":"wuxue","id":"421182"},"469006":{"pinyin":"wanning","province":"海南","nh_only":1,"name":"万宁","host":"wn.ke.com","short":"wn","id":"469006"},"469005":{"pinyin":"wenchang","province":"海南","nh_only":1,"name":"文昌","host":"wc.ke.com","short":"wc","id":"469005"},"469003":{"pinyin":"danzhou","province":"海南","nh_only":1,"name":"儋州","host":"dz.ke.com","short":"dz","id":"469003"},"469002":{"pinyin":"qionghai","province":"海南","nh_only":1,"name":"琼海","host":"qh.ke.com","short":"qh","id":"469002"},"361100":{"pinyin":"shangrao","province":"江西","host":"sr.ke.com","name":"上饶","short":"sr","id":"361100"},"469001":{"pinyin":"wuzhishan","province":"海南","nh_only":1,"name":"五指山","host":"wzs.ke.com","short":"wzs","id":"469001"},"411024":{"pinyin":"yanling","province":"待定","nh_only":1,"host":"yanling.ke.com","name":"鄢陵","short":"yanling","id":"411024"},"320113":{"pinyin":"qixia","province":"江苏省","nh_only":1,"name":"栖霞","host":"qixia.ke.com","short":"qixia","id":"320113"},"130283":{"pinyin":"qianan","province":"待定","nh_only":1,"host":"qa.ke.com","name":"迁安","short":"qa","id":"130283"},"411381":{"pinyin":"dengzhou","province":"待定","nh_only":1,"host":"dengzhou.ke.com","name":"邓州","short":"dengzhou","id":"411381"},"321200":{"pinyin":"taizhou","province":"泰州","nh_only":1,"name":"泰州","host":"tz.ke.com","short":"tz","id":"321200"},"130281":{"pinyin":"zunhua","province":"待定","nh_only":1,"host":"zhunhua.ke.com","name":"遵化","short":"zhunhua","id":"130281"},"321322":{"pinyin":"shuyang","province":"待定","nh_only":1,"host":"shuyang.ke.com","name":"沭阳","short":"shuyang","id":"321322"},"321100":{"pinyin":"zhenjiang","province":"江苏","name":"镇江","host":"zj.ke.com","short":"zj","id":"321100"},"210281":{"pinyin":"wafangdian","province":"待定","nh_only":1,"host":"wfd.ke.com","name":"瓦房店","short":"wfd","id":"210281"},"445381":{"pinyin":"luoding","province":"广东省","nh_only":1,"name":"罗定","host":"luoding.ke.com","short":"luoding","id":"445381"},"210283":{"pinyin":"zhuanghe","province":"待定","nh_only":1,"host":"zhuanghe.ke.com","name":"庄河","short":"zhuanghe","id":"210283"},"440800":{"pinyin":"zhanjiang","province":"广东","host":"zhanjiang.ke.com","name":"湛江","short":"zhanjiang","id":"440800"},"350581":{"pinyin":"shishi","province":"待定","nh_only":1,"host":"shishi.ke.com","name":"石狮","short":"shishi","id":"350581"},"350583":{"pinyin":"nanan","province":"待定","nh_only":1,"host":"na.ke.com","name":"南安","short":"na","id":"350583"},"350100":{"pinyin":"fuzhou","province":"福建","name":"福州","host":"fz.ke.com","short":"fz","id":"350100"},"231084":{"pinyin":"ningan","province":"黑龙江省","nh_only":1,"name":"宁安","host":"ningan.ke.com","short":"ningan","id":"231084"},"231083":{"pinyin":"hailin","province":"待定","nh_only":1,"host":"hl.ke.com","name":"海林","short":"hl","id":"231083"},"141182":{"pinyin":"fenyang","province":"山西省","nh_only":1,"name":"汾阳","host":"fenyang.ke.com","short":"fenyang","id":"141182"},"231081":{"pinyin":"suifenhe","province":"黑龙江省","nh_only":1,"name":"绥芬河","host":"sfh.ke.com","short":"sfh","id":"231081"},"469007":{"pinyin":"dongfang","province":"待定","nh_only":1,"host":"dongfang.ke.com","name":"东方","short":"dongfang","id":"469007"},"330282":{"pinyin":"cixi","province":"浙江省","nh_only":1,"name":"慈溪","host":"cixi.ke.com","short":"cixi","id":"330282"},"532801":{"pinyin":"jinghong","province":"待定","nh_only":1,"host":"jinghong.ke.com","name":"景洪","short":"jinghong","id":"532801"},"532800":{"pinyin":"xishuangbanna","province":"云南","nh_only":1,"name":"西双版纳","host":"xsbn.ke.com","short":"xsbn","id":"532800"},"530500":{"pinyin":"baoshan","province":"云南","nh_only":1,"host":"baoshan.ke.com","name":"保山","short":"baoshan","id":"530500"},"653101":{"pinyin":"kashi","province":"待定","nh_only":1,"host":"kashi.ke.com","name":"喀什","short":"kashi","id":"653101"},"330281":{"pinyin":"yuyao","province":"浙江省","nh_only":1,"name":"余姚","host":"yr.ke.com","short":"yr","id":"330281"},"370181":{"pinyin":"zhangqiu","province":"待定","nh_only":1,"host":"zhangqiu.ke.com","name":"章丘","short":"zhangqiu","id":"370181"},"450600":{"pinyin":"fangchenggang","province":"广西壮族自治区","nh_only":1,"host":"fcg.ke.com","name":"防城港","short":"fcg","id":"450600"},"410183":{"pinyin":"xinmi","province":"河南省","nh_only":1,"name":"新密","host":"xinmi.ke.com","short":"xinmi","id":"410183"},"410182":{"pinyin":"yingyang","province":"河南省","nh_only":1,"name":"荥阳","host":"xingyang.ke.com","short":"xingyang","id":"410182"},"410185":{"pinyin":"dengfeng","province":"河南省","nh_only":1,"name":"登封","host":"dengfeng.ke.com","short":"dengfeng","id":"410185"},"320582":{"pinyin":"zhangjiagang","province":"待定","nh_only":1,"host":"zjg.ke.com","name":"张家港","short":"zjg","id":"320582"},"211382":{"pinyin":"lingyuan","province":"辽宁省","nh_only":1,"name":"凌源","host":"lingyuan.ke.com","short":"lingyuan","id":"211382"},"320583":{"pinyin":"kunshan","province":"待定","host":"ks.ke.com","name":"昆山","short":"ks","id":"320583"},"211381":{"pinyin":"beipiao","province":"辽宁省","nh_only":1,"name":"北票","host":"bp.ke.com","short":"bp","id":"211381"},"320581":{"pinyin":"changshu","province":"待定","nh_only":1,"host":"changshu.ke.com","name":"常熟","short":"changshu","id":"320581"},"421081":{"pinyin":"shishou","province":"待定","nh_only":1,"host":"shishou.ke.com","name":"石首","short":"shishou","id":"421081"},"360281":{"pinyin":"leping","province":"待定","nh_only":1,"host":"lp.ke.com","name":"乐平","short":"lp","id":"360281"},"441800":{"pinyin":"qingyuan","province":"广东","name":"清远","host":"qy.ke.com","short":"qy","id":"441800"},"421083":{"pinyin":"honghu","province":"待定","nh_only":1,"host":"honghu.ke.com","name":"洪湖","short":"honghu","id":"421083"},"421087":{"pinyin":"songzi","province":"待定","nh_only":1,"host":"songzi.ke.com","name":"松滋","short":"songzi","id":"421087"},"331000":{"pinyin":"taizhou","province":"浙江","name":"台州","host":"taizhou.ke.com","short":"taizhou","id":"331000"},"361000":{"pinyin":"fuzhou","province":"江西","nh_only":1,"host":"fuzhou.ke.com","name":"抚州","short":"fuzhou","id":"361000"},"350481":{"pinyin":"yongan","province":"待定","nh_only":1,"host":"yongan.ke.com","name":"永安","short":"yongan","id":"350481"},"130184":{"pinyin":"xinle","province":"待定","nh_only":1,"host":"xl.ke.com","name":"新乐","short":"xl","id":"130184"},"321300":{"pinyin":"suqian","province":"江苏","nh_only":1,"host":"sq.ke.com","name":"宿迁","short":"sq","id":"321300"},"510900":{"pinyin":"suining","province":"四川","nh_only":1,"host":"sn.ke.com","name":"遂宁","short":"sn","id":"510900"},"210181":{"pinyin":"xinmin","province":"待定","nh_only":1,"host":"xinmin.ke.com","name":"新民","short":"xinmin","id":"210181"},"445281":{"pinyin":"puning","province":"待定","nh_only":1,"host":"pn.ke.com","name":"普宁","short":"pn","id":"445281"},"440700":{"pinyin":"jiangmen","province":"广东","host":"jiangmen.ke.com","name":"江门","short":"jiangmen","id":"440700"},"430900":{"pinyin":"yiyang","province":"湖南","nh_only":1,"host":"yiyang.ke.com","name":"益阳","short":"yiyang","id":"430900"},"141081":{"pinyin":"houma","province":"山西省","nh_only":1,"name":"侯马","host":"houma.ke.com","short":"houma","id":"141081"},"350122":{"pinyin":"lianjiang","province":"福建省","nh_only":1,"name":"连江","host":"lianj.ke.com","short":"lianj","id":"350122"},"331100":{"pinyin":"lishui","province":"浙江","nh_only":1,"host":"lishui.ke.com","name":"丽水","short":"lishui","id":"331100"},"141082":{"pinyin":"huozhou","province":"山西省","nh_only":1,"name":"霍州","host":"huozhou.ke.com","short":"huozhou","id":"141082"},"330381":{"pinyin":"ruian","province":"待定","nh_only":1,"host":"ra.ke.com","name":"瑞安","short":"ra","id":"330381"},"532900":{"pinyin":"dali","province":"云南","nh_only":1,"name":"大理","host":"you.ke.com/dl1","short":"dl1","id":"532900"},"150900":{"pinyin":"wulanchabu","province":"内蒙古自治区","nh_only":1,"host":"wlcb.ke.com","name":"乌兰察布","short":"wlcb","id":"150900"},"530600":{"pinyin":"zhaotong","province":"云南","nh_only":1,"host":"zt.ke.com","name":"昭通","short":"zt","id":"530600"},"653000":{"pinyin":"kezilesu","province":"新疆维吾尔自治区","nh_only":1,"host":"kzls.ke.com","name":"克孜勒苏","short":"kzls","id":"653000"},"611000":{"pinyin":"shangluo","province":"陕西","nh_only":1,"host":"sl.ke.com","name":"商洛","short":"sl","id":"611000"},"666666":{"pinyin":"ceshichengshi","province":"无","name":"测试城市","host":"vi.ke.com","short":"vi","id":"666666"},"450500":{"pinyin":"beihai","province":"广西壮族自治区","host":"bh.ke.com","name":"北海","short":"bh","id":"450500"},"320100":{"pinyin":"nanjing","province":"江苏","name":"南京","host":"nj.ke.com","short":"nj","id":"320100"},"450981":{"pinyin":"beiliu","province":"广西壮族自治区","nh_only":1,"name":"北流","host":"bl.ke.com","short":"bl","id":"450981"},"320681":{"pinyin":"qidong","province":"江苏省","nh_only":1,"name":"启东","host":"qidong.ke.com","short":"qidong","id":"320681"},"211282":{"pinyin":"kaiyuan","province":"待定","nh_only":1,"host":"kaiyuan.ke.com","name":"开原","short":"kaiyuan","id":"211282"},"320682":{"pinyin":"rugao","province":"江苏省","nh_only":1,"name":"如皋","host":"rg.ke.com","short":"rg","id":"320682"},"540100":{"pinyin":"lasa","province":"西藏自治区","nh_only":1,"host":"lasa.ke.com","name":"拉萨","short":"lasa","id":"540100"},"421381":{"pinyin":"guangshui","province":"待定","nh_only":1,"host":"gs.ke.com","name":"广水","short":"gs","id":"421381"},"141000":{"pinyin":"linfen","province":"山西","nh_only":1,"host":"linfen.ke.com","name":"临汾","short":"linfen","id":"141000"},"654000":{"pinyin":"yili","province":"新疆维吾尔自治区","nh_only":1,"host":"yili.ke.com","name":"伊犁","short":"yili","id":"654000"},"654002":{"pinyin":"yining","province":"新疆维吾尔自治区","nh_only":1,"name":"伊宁","host":"yining.ke.com","short":"yining","id":"654002"},"654003":{"pinyin":"kuitun","province":"待定","nh_only":1,"host":"kt.ke.com","name":"奎屯","short":"kt","id":"654003"},"411100":{"pinyin":"tahe","province":"河南","nh_only":1,"host":"luohe.ke.com","name":"漯河","short":"luohe","id":"411100"},"371082":{"pinyin":"rongcheng","province":"山东省","nh_only":1,"name":"荣成","host":"rongcheng.ke.com","short":"rongcheng","id":"371082"},"130481":{"pinyin":"wuan","province":"待定","nh_only":1,"host":"wa.ke.com","name":"武安","short":"wa","id":"130481"},"520500":{"pinyin":"bijie","province":"贵州","nh_only":1,"host":"bijie.ke.com","name":"毕节","short":"bijie","id":"520500"},"445100":{"pinyin":"chaozhou","province":"广东","nh_only":1,"host":"chaozhou.ke.com","name":"潮州","short":"chaozhou","id":"445100"},"330481":{"pinyin":"haining","province":"浙江省","nh_only":1,"name":"海宁","host":"haining.ke.com","short":"haining","id":"330481"},"330482":{"pinyin":"pinghu","province":"浙江省","nh_only":1,"name":"平湖","host":"ph.ke.com","short":"ph","id":"330482"},"330483":{"pinyin":"tongxiang","province":"浙江省","nh_only":1,"name":"桐乡","host":"tongxiang.ke.com","short":"tongxiang","id":"330483"},"450800":{"pinyin":"guigang","province":"广西壮族自治区","nh_only":1,"host":"gg.ke.com","name":"贵港","short":"gg","id":"450800"},"532601":{"pinyin":"wenshan","province":"待定","nh_only":1,"host":"ws.ke.com","name":"文山","short":"ws","id":"532601"},"530300":{"pinyin":"qujing","province":"云南","nh_only":1,"host":"qj.ke.com","name":"曲靖","short":"qj","id":"530300"},"341000":{"pinyin":"huangshan","province":"安徽","nh_only":1,"host":"huangshan.ke.com","name":"黄山","short":"huangshan","id":"341000"},"410381":{"pinyin":"yanshi","province":"河南省","nh_only":1,"name":"偃师","host":"yanshi.ke.com","short":"yanshi","id":"410381"},"230900":{"pinyin":"qitaihe","province":"黑龙江","nh_only":1,"host":"qth.ke.com","name":"七台河","short":"qth","id":"230900"},"320200":{"pinyin":"wuxi","province":"江苏","name":"无锡","host":"wx.ke.com","short":"wx","id":"320200"},"320684":{"pinyin":"haimen","province":"江苏省","nh_only":1,"name":"海门","host":"haimen.ke.com","short":"haimen","id":"320684"},"131100":{"pinyin":"hengshui","province":"河北","nh_only":1,"name":"衡水","host":"hs.ke.com","short":"hs","id":"131100"},"130133":{"pinyin":"zhaoxian","province":"待定","nh_only":1,"host":"zhaoxian.ke.com","name":"赵县","short":"zhaoxian","id":"130133"},"130130":{"pinyin":"wuji","province":"河北省","nh_only":1,"name":"无极","host":"wj.ke.com","short":"wj","id":"130130"},"540200":{"pinyin":"rikaze","province":"西藏自治区","nh_only":1,"host":"rkz.ke.com","name":"日喀则","short":"rkz","id":"540200"},"131103":{"pinyin":"jizhou","province":"河北省","nh_only":1,"name":"冀州","host":"jizhou.ke.com","short":"jizhou","id":"131103"},"421281":{"pinyin":"chibi","province":"湖北省","nh_only":1,"name":"赤壁","host":"cb.ke.com","short":"cb","id":"421281"},"330100":{"pinyin":"hangzhou","province":"浙江","name":"杭州","host":"hz.ke.com","short":"hz","id":"330100"},"140181":{"pinyin":"gujiao","province":"待定","nh_only":1,"host":"gujiao.ke.com","name":"古交","short":"gujiao","id":"140181"},"610124":{"pinyin":"zhouzhi","province":"陕西省","nh_only":1,"name":"周至","host":"zhouzhi.ke.com","short":"zhouzhi","id":"610124"},"120000":{"pinyin":"tianjin","province":"天津","name":"天津","host":"tj.ke.com","short":"tj","id":"120000"},"610481":{"pinyin":"xingping","province":"陕西省","nh_only":1,"name":"兴平","host":"xp.ke.com","short":"xp","id":"610481"},"411000":{"pinyin":"xuchang","province":"河南","host":"xc.ke.com","name":"许昌","short":"xc","id":"411000"},"510700":{"pinyin":"mianyang","province":"四川","name":"绵阳","host":"mianyang.ke.com","short":"mianyang","id":"510700"},"320413":{"pinyin":"jintan","province":"待定","nh_only":1,"host":"jt.ke.com","name":"金坛","short":"jt","id":"320413"},"411481":{"pinyin":"yongcheng","province":"河南省","nh_only":1,"name":"永城","host":"yongcheng.ke.com","short":"yongcheng","id":"411481"},"440900":{"pinyin":"maoming","province":"广东","nh_only":1,"host":"mm.ke.com","name":"茂名","short":"mm","id":"440900"},"621000":{"pinyin":"qingyang","province":"甘肃","nh_only":1,"host":"qingyang.ke.com","name":"庆阳","short":"qingyang","id":"621000"},"361181":{"pinyin":"dexing","province":"待定","nh_only":1,"host":"dx.ke.com","name":"德兴","short":"dx","id":"361181"},"520600":{"pinyin":"tongren","province":"贵州","nh_only":1,"host":"tr.ke.com","name":"铜仁","short":"tr","id":"520600"},"530400":{"pinyin":"yuxi","province":"云南","nh_only":1,"host":"yx.ke.com","name":"玉溪","short":"yx","id":"530400"},"450700":{"pinyin":"qinzhou","province":"广西壮族自治区","nh_only":1,"host":"qinzhou.ke.com","name":"钦州","short":"qinzhou","id":"450700"},"431081":{"pinyin":"zixing","province":"湖南省","nh_only":1,"name":"资兴","host":"zx.ke.com","short":"zx","id":"431081"},"341100":{"pinyin":"chuzhou","province":"安徽","nh_only":1,"name":"滁州","host":"cz.ke.com","short":"cz","id":"341100"},"320300":{"province":"江苏","name":"徐州","host":"xz.ke.com","short":"xz","id":"320300"},"230800":{"pinyin":"jiamusi","province":"黑龙江","nh_only":1,"host":"jms.ke.com","name":"佳木斯","short":"jms","id":"230800"},"511900":{"pinyin":"bazhong","province":"四川","nh_only":1,"host":"bz.ke.com","name":"巴中","short":"bz","id":"511900"}}}
